{
  "type": "FeatureCollection",
  "name": "railweave_conceptual_building_components",
  "features": [
    {
      "type": "Feature",
      "id": "BLDG-001",
      "properties": {
        "id": "BLDG-001",
        "layer": "BUILDING_FOOTPRINT",
        "source_type": "agent_generated_design",
        "confidence": "medium",
        "geometry_role": "design_proposal",
        "building_type": "lab",
        "name_zh": "开放验证工坊",
        "intervention_zh": "适应性再利用或轻量增补的概念占位；不对应现状建筑拆改结论",
        "area_sqm_declared": 35549.768
      },
      "geometry": {
        "type": "Polygon",
        "coordinates": [
          [
            [
              116.3472,
              40.0165
            ],
            [
              116.3472,
              40.0195
            ],
            [
              116.34845,
              40.0195
            ],
            [
              116.34845,
              40.0165
            ],
            [
              116.3472,
              40.0165
            ]
          ]
        ]
      }
    },
    {
      "type": "Feature",
      "id": "BLDG-002",
      "properties": {
        "id": "BLDG-002",
        "layer": "BUILDING_FOOTPRINT",
        "source_type": "agent_generated_design",
        "confidence": "medium",
        "geometry_role": "design_proposal",
        "building_type": "cultural",
        "name_zh": "治理标准客厅",
        "intervention_zh": "适应性再利用或轻量增补的概念占位；不对应现状建筑拆改结论",
        "area_sqm_declared": 35554.113
      },
      "geometry": {
        "type": "Polygon",
        "coordinates": [
          [
            [
              116.3489,
              40.008
            ],
            [
              116.3489,
              40.011
            ],
            [
              116.35015,
              40.011
            ],
            [
              116.35015,
              40.008
            ],
            [
              116.3489,
              40.008
            ]
          ]
        ]
      }
    },
    {
      "type": "Feature",
      "id": "BLDG-003",
      "properties": {
        "id": "BLDG-003",
        "layer": "BUILDING_FOOTPRINT",
        "source_type": "agent_generated_design",
        "confidence": "medium",
        "geometry_role": "design_proposal",
        "building_type": "incubator",
        "name_zh": "开源转化驿站",
        "intervention_zh": "适应性再利用或轻量增补的概念占位；不对应现状建筑拆改结论",
        "area_sqm_declared": 35562.839
      },
      "geometry": {
        "type": "Polygon",
        "coordinates": [
          [
            [
              116.3475,
              39.991
            ],
            [
              116.3475,
              39.994
            ],
            [
              116.34875,
              39.994
            ],
            [
              116.34875,
              39.991
            ],
            [
              116.3475,
              39.991
            ]
          ]
        ]
      }
    },
    {
      "type": "Feature",
      "id": "BLDG-004",
      "properties": {
        "id": "BLDG-004",
        "layer": "BUILDING_FOOTPRINT",
        "source_type": "agent_generated_design",
        "confidence": "medium",
        "geometry_role": "design_proposal",
        "building_type": "community_service",
        "name_zh": "人才共学客厅",
        "intervention_zh": "适应性再利用或轻量增补的概念占位；不对应现状建筑拆改结论",
        "area_sqm_declared": 35567.952
      },
      "geometry": {
        "type": "Polygon",
        "coordinates": [
          [
            [
              116.349,
              39.981
            ],
            [
              116.349,
              39.984
            ],
            [
              116.35025,
              39.984
            ],
            [
              116.35025,
              39.981
            ],
            [
              116.349,
              39.981
            ]
          ]
        ]
      }
    },
    {
      "type": "Feature",
      "id": "BLDG-005",
      "properties": {
        "id": "BLDG-005",
        "layer": "BUILDING_FOOTPRINT",
        "source_type": "agent_generated_design",
        "confidence": "medium",
        "geometry_role": "design_proposal",
        "building_type": "mixed_use",
        "name_zh": "智能原生发布厅",
        "intervention_zh": "适应性再利用或轻量增补的概念占位；不对应现状建筑拆改结论",
        "area_sqm_declared": 35582.311
      },
      "geometry": {
        "type": "Polygon",
        "coordinates": [
          [
            [
              116.3472,
              39.953
            ],
            [
              116.3472,
              39.956
            ],
            [
              116.34845,
              39.956
            ],
            [
              116.34845,
              39.953
            ],
            [
              116.3472,
              39.953
            ]
          ]
        ]
      }
    },
    {
      "type": "Feature",
      "id": "BLDG-006",
      "properties": {
        "id": "BLDG-006",
        "layer": "BUILDING_FOOTPRINT",
        "source_type": "agent_generated_design",
        "confidence": "medium",
        "geometry_role": "design_proposal",
        "building_type": "community_service",
        "name_zh": "公共服务体验站",
        "intervention_zh": "适应性再利用或轻量增补的概念占位；不对应现状建筑拆改结论",
        "area_sqm_declared": 35576.141
      },
      "geometry": {
        "type": "Polygon",
        "coordinates": [
          [
            [
              116.35,
              39.965
            ],
            [
              116.35,
              39.968
            ],
            [
              116.35125,
              39.968
            ],
            [
              116.35125,
              39.965
            ],
            [
              116.35,
              39.965
            ]
          ]
        ]
      }
    }
  ]
}
