{
  "type": "FeatureCollection",
  "name": "railweave_v2_evidence_aware_key_areas",
  "features": [
    {
      "type": "Feature",
      "id": "KEY-V2-001",
      "properties": {
        "id": "KEY-V2-001",
        "layer": "KEY_AREA",
        "source_type": "agent_inferred_from_public_data",
        "confidence": "medium",
        "geometry_role": "provisional_constraint",
        "parent_scope_id": "key_detailed_design_area",
        "area_id": "zhongzhiyuan_ai_acceleration_area",
        "name_zh": "众智园开放验证示范园",
        "official_boundary": false,
        "boundary_precision": "provisional_rough",
        "source_id": "ZHONGZHIYUAN-RENEWAL",
        "source_title": "官方已公开更新片区文字四至；所示范围仍为临时工作范围",
        "area_sqm_calculated": 1929201.877,
        "usage_note": "用于三处重点区域的功能、运营和场景研究；不得作为法定边界或精确开发规模依据。"
      },
      "geometry": {
        "type": "Polygon",
        "coordinates": [
          [
            [
              116.343,
              40.0075
            ],
            [
              116.354,
              40.0075
            ],
            [
              116.354,
              40.026
            ],
            [
              116.343,
              40.026
            ],
            [
              116.343,
              40.0075
            ]
          ]
        ]
      }
    },
    {
      "type": "Feature",
      "id": "KEY-V2-002",
      "properties": {
        "id": "KEY-V2-002",
        "layer": "KEY_AREA",
        "source_type": "agent_inferred_from_public_data",
        "confidence": "medium",
        "geometry_role": "provisional_constraint",
        "parent_scope_id": "key_detailed_design_area",
        "area_id": "beijing_ai_origin_community",
        "name_zh": "AI原点开放协同创新街区",
        "official_boundary": false,
        "boundary_precision": "provisional_rough",
        "source_id": "AI-ORIGIN-2026",
        "source_title": "官方口径为约3平方公里分布式载体网络；所示范围不代表法定边界",
        "area_sqm_calculated": 1043236.909,
        "usage_note": "用于三处重点区域的功能、运营和场景研究；不得作为法定边界或精确开发规模依据。"
      },
      "geometry": {
        "type": "Polygon",
        "coordinates": [
          [
            [
              116.342,
              39.9835
            ],
            [
              116.353,
              39.9835
            ],
            [
              116.353,
              39.9935
            ],
            [
              116.342,
              39.9935
            ],
            [
              116.342,
              39.9835
            ]
          ]
        ]
      }
    },
    {
      "type": "Feature",
      "id": "KEY-V2-003",
      "properties": {
        "id": "KEY-V2-003",
        "layer": "KEY_AREA",
        "source_type": "agent_inferred_from_public_data",
        "confidence": "medium",
        "geometry_role": "provisional_constraint",
        "parent_scope_id": "key_detailed_design_area",
        "area_id": "dazhongsi_ai_industry_cluster",
        "name_zh": "大钟寺首用场景转化中心",
        "official_boundary": false,
        "boundary_precision": "provisional_rough",
        "source_id": "DAZHONGSI-RENEWAL",
        "source_title": "官方已公开更新片区文字四至与统筹主体；所示范围仍为临时工作范围",
        "area_sqm_calculated": 720454.219,
        "usage_note": "用于三处重点区域的功能、运营和场景研究；不得作为法定边界或精确开发规模依据。"
      },
      "geometry": {
        "type": "Polygon",
        "coordinates": [
          [
            [
              116.342,
              39.944
            ],
            [
              116.355,
              39.944
            ],
            [
              116.355,
              39.94984
            ],
            [
              116.342,
              39.94984
            ],
            [
              116.342,
              39.944
            ]
          ]
        ]
      }
    }
  ]
}
