{
  "type": "FeatureCollection",
  "name": "railweave_conceptual_mobility_network",
  "features": [
    {
      "type": "Feature",
      "id": "ROAD-001",
      "properties": {
        "id": "ROAD-001",
        "layer": "ROAD_CENTERLINE",
        "source_type": "agent_generated_design",
        "confidence": "medium",
        "geometry_role": "design_proposal",
        "road_class": "greenway",
        "name_zh": "遗产智脉步行主轴",
        "design_status": "conceptual_alignment_for_professional_deepening"
      },
      "geometry": {
        "type": "LineString",
        "coordinates": [
          [
            116.3452,
            39.941
          ],
          [
            116.3458,
            39.962
          ],
          [
            116.3453,
            39.984
          ],
          [
            116.346,
            40.006
          ],
          [
            116.3463,
            40.024
          ]
        ]
      }
    },
    {
      "type": "Feature",
      "id": "ROAD-002",
      "properties": {
        "id": "ROAD-002",
        "layer": "ROAD_CENTERLINE",
        "source_type": "agent_generated_design",
        "confidence": "medium",
        "geometry_role": "design_proposal",
        "road_class": "cycleway",
        "name_zh": "开放验证骑行环西弧",
        "design_status": "conceptual_alignment_for_professional_deepening"
      },
      "geometry": {
        "type": "LineString",
        "coordinates": [
          [
            116.342,
            39.947
          ],
          [
            116.3428,
            39.972
          ],
          [
            116.343,
            39.996
          ],
          [
            116.3442,
            40.018
          ]
        ]
      }
    },
    {
      "type": "Feature",
      "id": "ROAD-003",
      "properties": {
        "id": "ROAD-003",
        "layer": "ROAD_CENTERLINE",
        "source_type": "agent_generated_design",
        "confidence": "medium",
        "geometry_role": "design_proposal",
        "road_class": "cycleway",
        "name_zh": "开放验证骑行环东弧",
        "design_status": "conceptual_alignment_for_professional_deepening"
      },
      "geometry": {
        "type": "LineString",
        "coordinates": [
          [
            116.3518,
            39.947
          ],
          [
            116.351,
            39.972
          ],
          [
            116.3518,
            39.996
          ],
          [
            116.3515,
            40.018
          ]
        ]
      }
    },
    {
      "type": "Feature",
      "id": "ROAD-004",
      "properties": {
        "id": "ROAD-004",
        "layer": "ROAD_CENTERLINE",
        "source_type": "agent_generated_design",
        "confidence": "medium",
        "geometry_role": "design_proposal",
        "road_class": "pedestrian",
        "name_zh": "众智园知识缝合线",
        "design_status": "conceptual_alignment_for_professional_deepening"
      },
      "geometry": {
        "type": "LineString",
        "coordinates": [
          [
            116.343,
            40.013
          ],
          [
            116.3525,
            40.013
          ]
        ]
      }
    },
    {
      "type": "Feature",
      "id": "ROAD-005",
      "properties": {
        "id": "ROAD-005",
        "layer": "ROAD_CENTERLINE",
        "source_type": "agent_generated_design",
        "confidence": "medium",
        "geometry_role": "design_proposal",
        "road_class": "pedestrian",
        "name_zh": "AI原点知识缝合线",
        "design_status": "conceptual_alignment_for_professional_deepening"
      },
      "geometry": {
        "type": "LineString",
        "coordinates": [
          [
            116.3423,
            39.9885
          ],
          [
            116.3527,
            39.9885
          ]
        ]
      }
    },
    {
      "type": "Feature",
      "id": "ROAD-006",
      "properties": {
        "id": "ROAD-006",
        "layer": "ROAD_CENTERLINE",
        "source_type": "agent_generated_design",
        "confidence": "medium",
        "geometry_role": "design_proposal",
        "road_class": "transit_connection",
        "name_zh": "大钟寺知识缝合线",
        "design_status": "conceptual_alignment_for_professional_deepening"
      },
      "geometry": {
        "type": "LineString",
        "coordinates": [
          [
            116.342,
            39.947
          ],
          [
            116.354,
            39.947
          ]
        ]
      }
    },
    {
      "type": "Feature",
      "id": "ROAD-007",
      "properties": {
        "id": "ROAD-007",
        "layer": "ROAD_CENTERLINE",
        "source_type": "agent_generated_design",
        "confidence": "medium",
        "geometry_role": "design_proposal",
        "road_class": "greenway",
        "name_zh": "小月河场景体验支线",
        "design_status": "conceptual_alignment_for_professional_deepening"
      },
      "geometry": {
        "type": "LineString",
        "coordinates": [
          [
            116.344,
            39.965
          ],
          [
            116.3495,
            39.972
          ],
          [
            116.352,
            39.98
          ]
        ]
      }
    }
  ]
}
