{
  "type": "FeatureCollection",
  "name": "three_commons_and_six_encounter_gates",
  "features": [
    {
      "type": "Feature",
      "id": "PUBLIC-COMMON-001",
      "properties": {
        "id": "PUBLIC-COMMON-001",
        "layer": "PUBLIC_SPACE",
        "source_type": "agent_generated_design",
        "confidence": "medium",
        "geometry_role": "design_proposal",
        "name_zh": "众智园同题场概念公共界面",
        "name_en": "Common Problem Yard conceptual public interface",
        "access_status": "candidate_pending_permission"
      },
      "geometry": {
        "type": "Polygon",
        "coordinates": [
          [
            [
              116.347,
              40.014
            ],
            [
              116.347,
              40.02
            ],
            [
              116.3503,
              40.02
            ],
            [
              116.3503,
              40.014
            ],
            [
              116.347,
              40.014
            ]
          ]
        ]
      }
    },
    {
      "type": "Feature",
      "id": "PUBLIC-COMMON-002",
      "properties": {
        "id": "PUBLIC-COMMON-002",
        "layer": "PUBLIC_SPACE",
        "source_type": "agent_generated_design",
        "confidence": "medium",
        "geometry_role": "design_proposal",
        "name_zh": "AI原点同桌场概念公共界面",
        "name_en": "Common Table Yard conceptual public interface",
        "access_status": "candidate_pending_permission"
      },
      "geometry": {
        "type": "Polygon",
        "coordinates": [
          [
            [
              116.347,
              39.985
            ],
            [
              116.347,
              39.9915
            ],
            [
              116.3503,
              39.9915
            ],
            [
              116.3503,
              39.985
            ],
            [
              116.347,
              39.985
            ]
          ]
        ]
      }
    },
    {
      "type": "Feature",
      "id": "PUBLIC-COMMON-003",
      "properties": {
        "id": "PUBLIC-COMMON-003",
        "layer": "PUBLIC_SPACE",
        "source_type": "agent_generated_design",
        "confidence": "medium",
        "geometry_role": "design_proposal",
        "name_zh": "大钟寺同城场概念公共界面",
        "name_en": "Common City Yard conceptual public interface",
        "access_status": "candidate_pending_permission"
      },
      "geometry": {
        "type": "Polygon",
        "coordinates": [
          [
            [
              116.347,
              39.944
            ],
            [
              116.347,
              39.9495
            ],
            [
              116.3503,
              39.9495
            ],
            [
              116.3503,
              39.944
            ],
            [
              116.347,
              39.944
            ]
          ]
        ]
      }
    },
    {
      "type": "Feature",
      "id": "PUBLIC-GATE-001",
      "properties": {
        "id": "PUBLIC-GATE-001",
        "layer": "PUBLIC_SPACE",
        "source_type": "agent_generated_design",
        "confidence": "medium",
        "geometry_role": "design_proposal",
        "name_zh": "相遇门 1 候选公共停留点",
        "name_en": "Encounter Gate 1 candidate public stopping point",
        "access_status": "candidate_pending_permission"
      },
      "geometry": {
        "type": "Polygon",
        "coordinates": [
          [
            [
              116.3497,
              39.94635
            ],
            [
              116.3497,
              39.94765
            ],
            [
              116.351,
              39.94765
            ],
            [
              116.351,
              39.94635
            ],
            [
              116.3497,
              39.94635
            ]
          ]
        ]
      }
    },
    {
      "type": "Feature",
      "id": "PUBLIC-GATE-002",
      "properties": {
        "id": "PUBLIC-GATE-002",
        "layer": "PUBLIC_SPACE",
        "source_type": "agent_generated_design",
        "confidence": "medium",
        "geometry_role": "design_proposal",
        "name_zh": "相遇门 2 候选公共停留点",
        "name_en": "Encounter Gate 2 candidate public stopping point",
        "access_status": "candidate_pending_permission"
      },
      "geometry": {
        "type": "Polygon",
        "coordinates": [
          [
            [
              116.3497,
              39.96085
            ],
            [
              116.3497,
              39.96215
            ],
            [
              116.351,
              39.96215
            ],
            [
              116.351,
              39.96085
            ],
            [
              116.3497,
              39.96085
            ]
          ]
        ]
      }
    },
    {
      "type": "Feature",
      "id": "PUBLIC-GATE-003",
      "properties": {
        "id": "PUBLIC-GATE-003",
        "layer": "PUBLIC_SPACE",
        "source_type": "agent_generated_design",
        "confidence": "medium",
        "geometry_role": "design_proposal",
        "name_zh": "相遇门 3 候选公共停留点",
        "name_en": "Encounter Gate 3 candidate public stopping point",
        "access_status": "candidate_pending_permission"
      },
      "geometry": {
        "type": "Polygon",
        "coordinates": [
          [
            [
              116.3497,
              39.98415
            ],
            [
              116.3497,
              39.98545
            ],
            [
              116.351,
              39.98545
            ],
            [
              116.351,
              39.98415
            ],
            [
              116.3497,
              39.98415
            ]
          ]
        ]
      }
    },
    {
      "type": "Feature",
      "id": "PUBLIC-GATE-004",
      "properties": {
        "id": "PUBLIC-GATE-004",
        "layer": "PUBLIC_SPACE",
        "source_type": "agent_generated_design",
        "confidence": "medium",
        "geometry_role": "design_proposal",
        "name_zh": "相遇门 4 候选公共停留点",
        "name_en": "Encounter Gate 4 candidate public stopping point",
        "access_status": "candidate_pending_permission"
      },
      "geometry": {
        "type": "Polygon",
        "coordinates": [
          [
            [
              116.3497,
              39.99085
            ],
            [
              116.3497,
              39.99215
            ],
            [
              116.351,
              39.99215
            ],
            [
              116.351,
              39.99085
            ],
            [
              116.3497,
              39.99085
            ]
          ]
        ]
      }
    },
    {
      "type": "Feature",
      "id": "PUBLIC-GATE-005",
      "properties": {
        "id": "PUBLIC-GATE-005",
        "layer": "PUBLIC_SPACE",
        "source_type": "agent_generated_design",
        "confidence": "medium",
        "geometry_role": "design_proposal",
        "name_zh": "相遇门 5 候选公共停留点",
        "name_en": "Encounter Gate 5 candidate public stopping point",
        "access_status": "candidate_pending_permission"
      },
      "geometry": {
        "type": "Polygon",
        "coordinates": [
          [
            [
              116.3497,
              40.00785
            ],
            [
              116.3497,
              40.00915
            ],
            [
              116.351,
              40.00915
            ],
            [
              116.351,
              40.00785
            ],
            [
              116.3497,
              40.00785
            ]
          ]
        ]
      }
    },
    {
      "type": "Feature",
      "id": "PUBLIC-GATE-006",
      "properties": {
        "id": "PUBLIC-GATE-006",
        "layer": "PUBLIC_SPACE",
        "source_type": "agent_generated_design",
        "confidence": "medium",
        "geometry_role": "design_proposal",
        "name_zh": "相遇门 6 候选公共停留点",
        "name_en": "Encounter Gate 6 candidate public stopping point",
        "access_status": "candidate_pending_permission"
      },
      "geometry": {
        "type": "Polygon",
        "coordinates": [
          [
            [
              116.3497,
              40.01885
            ],
            [
              116.3497,
              40.02015
            ],
            [
              116.351,
              40.02015
            ],
            [
              116.351,
              40.01885
            ],
            [
              116.3497,
              40.01885
            ]
          ]
        ]
      }
    }
  ]
}
