{
  "type": "FeatureCollection",
  "name": "building_design",
  "features": [
    {
      "type": "Feature",
      "id": "BLDG-001",
      "properties": {
        "id": "BLDG-001",
        "layer": "BUILDING_FOOTPRINT",
        "source_type": "agent_generated_design",
        "confidence": "medium",
        "geometry_role": "design_proposal",
        "building_type": "ai_r_and_d",
        "name_zh": "AI创新建筑基底",
        "area_sqm_declared": 178313.669
      },
      "geometry": {
        "type": "Polygon",
        "coordinates": [
          [
            [
              116.34193391999999,
              39.94075
            ],
            [
              116.34193391999999,
              39.96641666666667
            ],
            [
              116.34266608,
              39.96641666666667
            ],
            [
              116.34266608,
              39.94075
            ],
            [
              116.34193391999999,
              39.94075
            ]
          ]
        ]
      }
    },
    {
      "type": "Feature",
      "id": "BLDG-002",
      "properties": {
        "id": "BLDG-002",
        "layer": "BUILDING_FOOTPRINT",
        "source_type": "agent_generated_design",
        "confidence": "medium",
        "geometry_role": "design_proposal",
        "building_type": "ai_r_and_d",
        "name_zh": "AI创新建筑基底",
        "area_sqm_declared": 178238.792
      },
      "geometry": {
        "type": "Polygon",
        "coordinates": [
          [
            [
              116.34193391999999,
              39.96991666666666
            ],
            [
              116.34193391999999,
              39.995583333333336
            ],
            [
              116.34266608,
              39.995583333333336
            ],
            [
              116.34266608,
              39.96991666666666
            ],
            [
              116.34193391999999,
              39.96991666666666
            ]
          ]
        ]
      }
    },
    {
      "type": "Feature",
      "id": "BLDG-003",
      "properties": {
        "id": "BLDG-003",
        "layer": "BUILDING_FOOTPRINT",
        "source_type": "agent_generated_design",
        "confidence": "medium",
        "geometry_role": "design_proposal",
        "building_type": "ai_r_and_d",
        "name_zh": "AI创新建筑基底",
        "area_sqm_declared": 133144.693
      },
      "geometry": {
        "type": "Polygon",
        "coordinates": [
          [
            [
              116.34261463414633,
              40.02475
            ],
            [
              116.34266608,
              40.02475
            ],
            [
              116.34266608,
              39.99908333333333
            ],
            [
              116.34193391999999,
              39.99908333333333
            ],
            [
              116.34193391999999,
              40.01079535999974
            ],
            [
              116.34261463414633,
              40.02475
            ]
          ]
        ]
      }
    },
    {
      "type": "Feature",
      "id": "BLDG-004",
      "properties": {
        "id": "BLDG-004",
        "layer": "BUILDING_FOOTPRINT",
        "source_type": "agent_generated_design",
        "confidence": "medium",
        "geometry_role": "design_proposal",
        "building_type": "ai_r_and_d",
        "name_zh": "AI创新建筑基底",
        "area_sqm_declared": 178313.634
      },
      "geometry": {
        "type": "Polygon",
        "coordinates": [
          [
            [
              116.34276591999999,
              39.94075
            ],
            [
              116.34276591999999,
              39.96641666666667
            ],
            [
              116.34349808,
              39.96641666666667
            ],
            [
              116.34349808,
              39.94075
            ],
            [
              116.34276591999999,
              39.94075
            ]
          ]
        ]
      }
    },
    {
      "type": "Feature",
      "id": "BLDG-005",
      "properties": {
        "id": "BLDG-005",
        "layer": "BUILDING_FOOTPRINT",
        "source_type": "agent_generated_design",
        "confidence": "medium",
        "geometry_role": "design_proposal",
        "building_type": "ai_r_and_d",
        "name_zh": "AI创新建筑基底",
        "area_sqm_declared": 178238.757
      },
      "geometry": {
        "type": "Polygon",
        "coordinates": [
          [
            [
              116.34276591999999,
              39.96991666666666
            ],
            [
              116.34276591999999,
              39.995583333333336
            ],
            [
              116.34349808,
              39.995583333333336
            ],
            [
              116.34349808,
              39.96991666666666
            ],
            [
              116.34276591999999,
              39.96991666666666
            ]
          ]
        ]
      }
    },
    {
      "type": "Feature",
      "id": "BLDG-006",
      "properties": {
        "id": "BLDG-006",
        "layer": "BUILDING_FOOTPRINT",
        "source_type": "agent_generated_design",
        "confidence": "medium",
        "geometry_role": "design_proposal",
        "building_type": "ai_r_and_d",
        "name_zh": "AI创新建筑基底",
        "area_sqm_declared": 178163.834
      },
      "geometry": {
        "type": "Polygon",
        "coordinates": [
          [
            [
              116.34276591999999,
              39.99908333333333
            ],
            [
              116.34276591999999,
              40.02475
            ],
            [
              116.34349808,
              40.02475
            ],
            [
              116.34349808,
              39.99908333333333
            ],
            [
              116.34276591999999,
              39.99908333333333
            ]
          ]
        ]
      }
    },
    {
      "type": "Feature",
      "id": "BLDG-007",
      "properties": {
        "id": "BLDG-007",
        "layer": "BUILDING_FOOTPRINT",
        "source_type": "agent_generated_design",
        "confidence": "medium",
        "geometry_role": "design_proposal",
        "building_type": "ai_r_and_d",
        "name_zh": "AI创新建筑基底",
        "area_sqm_declared": 178313.599
      },
      "geometry": {
        "type": "Polygon",
        "coordinates": [
          [
            [
              116.34359792,
              39.94075
            ],
            [
              116.34359792,
              39.96641666666667
            ],
            [
              116.34433008,
              39.96641666666667
            ],
            [
              116.34433008,
              39.94075
            ],
            [
              116.34359792,
              39.94075
            ]
          ]
        ]
      }
    },
    {
      "type": "Feature",
      "id": "BLDG-008",
      "properties": {
        "id": "BLDG-008",
        "layer": "BUILDING_FOOTPRINT",
        "source_type": "agent_generated_design",
        "confidence": "medium",
        "geometry_role": "design_proposal",
        "building_type": "ai_r_and_d",
        "name_zh": "AI创新建筑基底",
        "area_sqm_declared": 178238.722
      },
      "geometry": {
        "type": "Polygon",
        "coordinates": [
          [
            [
              116.34359792,
              39.96991666666666
            ],
            [
              116.34359792,
              39.995583333333336
            ],
            [
              116.34433008,
              39.995583333333336
            ],
            [
              116.34433008,
              39.96991666666666
            ],
            [
              116.34359792,
              39.96991666666666
            ]
          ]
        ]
      }
    },
    {
      "type": "Feature",
      "id": "BLDG-009",
      "properties": {
        "id": "BLDG-009",
        "layer": "BUILDING_FOOTPRINT",
        "source_type": "agent_generated_design",
        "confidence": "medium",
        "geometry_role": "design_proposal",
        "building_type": "ai_r_and_d",
        "name_zh": "AI创新建筑基底",
        "area_sqm_declared": 178163.799
      },
      "geometry": {
        "type": "Polygon",
        "coordinates": [
          [
            [
              116.34359792,
              39.99908333333333
            ],
            [
              116.34359792,
              40.02475
            ],
            [
              116.34433008,
              40.02475
            ],
            [
              116.34433008,
              39.99908333333333
            ],
            [
              116.34359792,
              39.99908333333333
            ]
          ]
        ]
      }
    },
    {
      "type": "Feature",
      "id": "BLDG-010",
      "properties": {
        "id": "BLDG-010",
        "layer": "BUILDING_FOOTPRINT",
        "source_type": "agent_generated_design",
        "confidence": "medium",
        "geometry_role": "design_proposal",
        "building_type": "retail",
        "name_zh": "AI创新建筑基底",
        "area_sqm_declared": 156024.142
      },
      "geometry": {
        "type": "Polygon",
        "coordinates": [
          [
            [
              116.35066368,
              39.94075
            ],
            [
              116.35066368,
              39.96641666666667
            ],
            [
              116.35130432,
              39.96641666666667
            ],
            [
              116.35130432,
              39.94075
            ],
            [
              116.35066368,
              39.94075
            ]
          ]
        ]
      }
    },
    {
      "type": "Feature",
      "id": "BLDG-011",
      "properties": {
        "id": "BLDG-011",
        "layer": "BUILDING_FOOTPRINT",
        "source_type": "agent_generated_design",
        "confidence": "medium",
        "geometry_role": "design_proposal",
        "building_type": "retail",
        "name_zh": "AI创新建筑基底",
        "area_sqm_declared": 155958.626
      },
      "geometry": {
        "type": "Polygon",
        "coordinates": [
          [
            [
              116.35066368,
              39.96991666666666
            ],
            [
              116.35066368,
              39.995583333333336
            ],
            [
              116.35130432,
              39.995583333333336
            ],
            [
              116.35130432,
              39.96991666666666
            ],
            [
              116.35066368,
              39.96991666666666
            ]
          ]
        ]
      }
    },
    {
      "type": "Feature",
      "id": "BLDG-012",
      "properties": {
        "id": "BLDG-012",
        "layer": "BUILDING_FOOTPRINT",
        "source_type": "agent_generated_design",
        "confidence": "medium",
        "geometry_role": "design_proposal",
        "building_type": "retail",
        "name_zh": "AI创新建筑基底",
        "area_sqm_declared": 155893.068
      },
      "geometry": {
        "type": "Polygon",
        "coordinates": [
          [
            [
              116.35066368,
              39.99908333333333
            ],
            [
              116.35066368,
              40.02475
            ],
            [
              116.35130432,
              40.02475
            ],
            [
              116.35130432,
              39.99908333333333
            ],
            [
              116.35066368,
              39.99908333333333
            ]
          ]
        ]
      }
    },
    {
      "type": "Feature",
      "id": "BLDG-013",
      "properties": {
        "id": "BLDG-013",
        "layer": "BUILDING_FOOTPRINT",
        "source_type": "agent_generated_design",
        "confidence": "medium",
        "geometry_role": "design_proposal",
        "building_type": "retail",
        "name_zh": "AI创新建筑基底",
        "area_sqm_declared": 156024.116
      },
      "geometry": {
        "type": "Polygon",
        "coordinates": [
          [
            [
              116.35139167999999,
              39.94075
            ],
            [
              116.35139167999999,
              39.96641666666667
            ],
            [
              116.35203231999999,
              39.96641666666667
            ],
            [
              116.35203231999999,
              39.94075
            ],
            [
              116.35139167999999,
              39.94075
            ]
          ]
        ]
      }
    },
    {
      "type": "Feature",
      "id": "BLDG-014",
      "properties": {
        "id": "BLDG-014",
        "layer": "BUILDING_FOOTPRINT",
        "source_type": "agent_generated_design",
        "confidence": "medium",
        "geometry_role": "design_proposal",
        "building_type": "retail",
        "name_zh": "AI创新建筑基底",
        "area_sqm_declared": 155958.599
      },
      "geometry": {
        "type": "Polygon",
        "coordinates": [
          [
            [
              116.35139167999999,
              39.96991666666666
            ],
            [
              116.35139167999999,
              39.995583333333336
            ],
            [
              116.35203231999999,
              39.995583333333336
            ],
            [
              116.35203231999999,
              39.96991666666666
            ],
            [
              116.35139167999999,
              39.96991666666666
            ]
          ]
        ]
      }
    },
    {
      "type": "Feature",
      "id": "BLDG-015",
      "properties": {
        "id": "BLDG-015",
        "layer": "BUILDING_FOOTPRINT",
        "source_type": "agent_generated_design",
        "confidence": "medium",
        "geometry_role": "design_proposal",
        "building_type": "retail",
        "name_zh": "AI创新建筑基底",
        "area_sqm_declared": 155893.042
      },
      "geometry": {
        "type": "Polygon",
        "coordinates": [
          [
            [
              116.35139167999999,
              39.99908333333333
            ],
            [
              116.35139167999999,
              40.02475
            ],
            [
              116.35203231999999,
              40.02475
            ],
            [
              116.35203231999999,
              39.99908333333333
            ],
            [
              116.35139167999999,
              39.99908333333333
            ]
          ]
        ]
      }
    },
    {
      "type": "Feature",
      "id": "BLDG-016",
      "properties": {
        "id": "BLDG-016",
        "layer": "BUILDING_FOOTPRINT",
        "source_type": "agent_generated_design",
        "confidence": "medium",
        "geometry_role": "design_proposal",
        "building_type": "retail",
        "name_zh": "AI创新建筑基底",
        "area_sqm_declared": 156024.089
      },
      "geometry": {
        "type": "Polygon",
        "coordinates": [
          [
            [
              116.35211967999999,
              39.94075
            ],
            [
              116.35211967999999,
              39.96641666666667
            ],
            [
              116.35276031999999,
              39.96641666666667
            ],
            [
              116.35276031999999,
              39.94075
            ],
            [
              116.35211967999999,
              39.94075
            ]
          ]
        ]
      }
    },
    {
      "type": "Feature",
      "id": "BLDG-017",
      "properties": {
        "id": "BLDG-017",
        "layer": "BUILDING_FOOTPRINT",
        "source_type": "agent_generated_design",
        "confidence": "medium",
        "geometry_role": "design_proposal",
        "building_type": "retail",
        "name_zh": "AI创新建筑基底",
        "area_sqm_declared": 155958.573
      },
      "geometry": {
        "type": "Polygon",
        "coordinates": [
          [
            [
              116.35211967999999,
              39.96991666666666
            ],
            [
              116.35211967999999,
              39.995583333333336
            ],
            [
              116.35276031999999,
              39.995583333333336
            ],
            [
              116.35276031999999,
              39.96991666666666
            ],
            [
              116.35211967999999,
              39.96991666666666
            ]
          ]
        ]
      }
    },
    {
      "type": "Feature",
      "id": "BLDG-018",
      "properties": {
        "id": "BLDG-018",
        "layer": "BUILDING_FOOTPRINT",
        "source_type": "agent_generated_design",
        "confidence": "medium",
        "geometry_role": "design_proposal",
        "building_type": "retail",
        "name_zh": "AI创新建筑基底",
        "area_sqm_declared": 155893.015
      },
      "geometry": {
        "type": "Polygon",
        "coordinates": [
          [
            [
              116.35211967999999,
              39.99908333333333
            ],
            [
              116.35211967999999,
              40.02475
            ],
            [
              116.35276031999999,
              40.02475
            ],
            [
              116.35276031999999,
              39.99908333333333
            ],
            [
              116.35211967999999,
              39.99908333333333
            ]
          ]
        ]
      }
    },
    {
      "type": "Feature",
      "id": "BLDG-019",
      "properties": {
        "id": "BLDG-019",
        "layer": "BUILDING_FOOTPRINT",
        "source_type": "agent_generated_design",
        "confidence": "medium",
        "geometry_role": "design_proposal",
        "building_type": "residential",
        "name_zh": "AI创新建筑基底",
        "area_sqm_declared": 15400.698
      },
      "geometry": {
        "type": "Polygon",
        "coordinates": [
          [
            [
              116.34008402148147,
              39.96117522666661
            ],
            [
              116.34038432,
              39.96117522666661
            ],
            [
              116.34038432,
              39.95036447999994
            ],
            [
              116.34008402148147,
              39.96117522666661
            ]
          ]
        ]
      }
    },
    {
      "type": "Feature",
      "id": "BLDG-020",
      "properties": {
        "id": "BLDG-020",
        "layer": "BUILDING_FOOTPRINT",
        "source_type": "agent_generated_design",
        "confidence": "medium",
        "geometry_role": "design_proposal",
        "building_type": "residential",
        "name_zh": "AI创新建筑基底",
        "area_sqm_declared": 89189.604
      },
      "geometry": {
        "type": "Polygon",
        "coordinates": [
          [
            [
              116.33974368,
              39.973427519999845
            ],
            [
              116.33974368,
              39.97567704000007
            ],
            [
              116.3403300576344,
              39.984765893333226
            ],
            [
              116.34038432,
              39.984765893333226
            ],
            [
              116.34038432,
              39.96400610666661
            ],
            [
              116.34000538592592,
              39.96400610666661
            ],
            [
              116.33974368,
              39.973427519999845
            ]
          ]
        ]
      }
    },
    {
      "type": "Feature",
      "id": "BLDG-021",
      "properties": {
        "id": "BLDG-021",
        "layer": "BUILDING_FOOTPRINT",
        "source_type": "agent_generated_design",
        "confidence": "medium",
        "geometry_role": "design_proposal",
        "building_type": "residential",
        "name_zh": "AI创新建筑基底",
        "area_sqm_declared": 120099.831
      },
      "geometry": {
        "type": "Polygon",
        "coordinates": [
          [
            [
              116.34047168,
              39.94721952000015
            ],
            [
              116.34047168,
              39.96117522666661
            ],
            [
              116.34111232,
              39.96117522666661
            ],
            [
              116.34111232,
              39.940415439999995
            ],
            [
              116.34066068222222,
              39.940415439999995
            ],
            [
              116.34047168,
              39.94721952000015
            ]
          ]
        ]
      }
    },
    {
      "type": "Feature",
      "id": "BLDG-022",
      "properties": {
        "id": "BLDG-022",
        "layer": "BUILDING_FOOTPRINT",
        "source_type": "agent_generated_design",
        "confidence": "medium",
        "geometry_role": "design_proposal",
        "building_type": "residential",
        "name_zh": "AI创新建筑基底",
        "area_sqm_declared": 126158.404
      },
      "geometry": {
        "type": "Polygon",
        "coordinates": [
          [
            [
              116.34047168,
              39.96400610666661
            ],
            [
              116.34047168,
              39.984765893333226
            ],
            [
              116.34111232,
              39.984765893333226
            ],
            [
              116.34111232,
              39.96400610666661
            ],
            [
              116.34047168,
              39.96400610666661
            ]
          ]
        ]
      }
    },
    {
      "type": "Feature",
      "id": "BLDG-023",
      "properties": {
        "id": "BLDG-023",
        "layer": "BUILDING_FOOTPRINT",
        "source_type": "agent_generated_design",
        "confidence": "medium",
        "geometry_role": "design_proposal",
        "building_type": "residential",
        "name_zh": "AI创新建筑基底",
        "area_sqm_declared": 26427.618
      },
      "geometry": {
        "type": "Polygon",
        "coordinates": [
          [
            [
              116.34111232,
              39.996890959999895
            ],
            [
              116.34111232,
              39.98759677333322
            ],
            [
              116.34051269505376,
              39.98759677333322
            ],
            [
              116.34111232,
              39.996890959999895
            ]
          ]
        ]
      }
    },
    {
      "type": "Feature",
      "id": "BLDG-024",
      "properties": {
        "id": "BLDG-024",
        "layer": "BUILDING_FOOTPRINT",
        "source_type": "agent_generated_design",
        "confidence": "medium",
        "geometry_role": "design_proposal",
        "building_type": "residential",
        "name_zh": "AI创新建筑基底",
        "area_sqm_declared": 126201.238
      },
      "geometry": {
        "type": "Polygon",
        "coordinates": [
          [
            [
              116.34119967999999,
              39.940415439999995
            ],
            [
              116.34119967999999,
              39.96117522666661
            ],
            [
              116.34184031999999,
              39.96117522666661
            ],
            [
              116.34184031999999,
              39.940415439999995
            ],
            [
              116.34119967999999,
              39.940415439999995
            ]
          ]
        ]
      }
    },
    {
      "type": "Feature",
      "id": "BLDG-025",
      "properties": {
        "id": "BLDG-025",
        "layer": "BUILDING_FOOTPRINT",
        "source_type": "agent_generated_design",
        "confidence": "medium",
        "geometry_role": "design_proposal",
        "building_type": "residential",
        "name_zh": "AI创新建筑基底",
        "area_sqm_declared": 126158.382
      },
      "geometry": {
        "type": "Polygon",
        "coordinates": [
          [
            [
              116.34119967999999,
              39.96400610666661
            ],
            [
              116.34119967999999,
              39.984765893333226
            ],
            [
              116.34184031999999,
              39.984765893333226
            ],
            [
              116.34184031999999,
              39.96400610666661
            ],
            [
              116.34119967999999,
              39.96400610666661
            ]
          ]
        ]
      }
    },
    {
      "type": "Feature",
      "id": "BLDG-026",
      "properties": {
        "id": "BLDG-026",
        "layer": "BUILDING_FOOTPRINT",
        "source_type": "agent_generated_design",
        "confidence": "medium",
        "geometry_role": "design_proposal",
        "building_type": "residential",
        "name_zh": "AI创新建筑基底",
        "area_sqm_declared": 95259.401
      },
      "geometry": {
        "type": "Polygon",
        "coordinates": [
          [
            [
              116.3417,
              40.006
            ],
            [
              116.34181495414633,
              40.00835655999984
            ],
            [
              116.34184031999999,
              40.00835655999984
            ],
            [
              116.34184031999999,
              39.98759677333322
            ],
            [
              116.34119967999999,
              39.98759677333322
            ],
            [
              116.34119967999999,
              39.99824503999981
            ],
            [
              116.3417,
              40.006
            ]
          ]
        ]
      }
    }
  ]
}
