{
  "type": "FeatureCollection",
  "name": "green_space_design",
  "features": [
    {
      "type": "Feature",
      "id": "GREEN-001",
      "properties": {
        "id": "GREEN-001",
        "layer": "GREEN_SPACE",
        "source_type": "agent_generated_design",
        "confidence": "medium",
        "geometry_role": "design_proposal",
        "land_use_code": "1401",
        "name_zh": "主题绿道公园带",
        "area_sqm_declared": 1413707.87
      },
      "geometry": {
        "type": "Polygon",
        "coordinates": [
          [
            [
              116.34515999999999,
              39.9495
            ],
            [
              116.34515999999999,
              40.022999999999996
            ],
            [
              116.347188,
              40.022999999999996
            ],
            [
              116.347188,
              39.9495
            ],
            [
              116.34515999999999,
              39.9495
            ]
          ]
        ]
      }
    }
  ]
}
