{
  "type": "FeatureCollection",
  "name": "phasing_design",
  "features": [
    {
      "type": "Feature",
      "id": "PHASE-1",
      "properties": {
        "id": "PHASE-1",
        "layer": "PHASE",
        "source_type": "agent_generated_design",
        "confidence": "medium",
        "geometry_role": "design_proposal",
        "phase": "phase_1",
        "name_zh": "近期启动区",
        "area_sqm_declared": 4979198.562
      },
      "geometry": {
        "type": "Polygon",
        "coordinates": [
          [
            [
              116.3407,
              39.939
            ],
            [
              116.33972777777777,
              39.974
            ],
            [
              116.35458,
              39.974
            ],
            [
              116.3553,
              39.965
            ],
            [
              116.3553,
              39.939
            ],
            [
              116.3407,
              39.939
            ]
          ]
        ]
      }
    },
    {
      "type": "Feature",
      "id": "PHASE-2",
      "properties": {
        "id": "PHASE-2",
        "layer": "PHASE",
        "source_type": "agent_generated_design",
        "confidence": "medium",
        "geometry_role": "design_proposal",
        "phase": "phase_2",
        "name_zh": "中期发展区",
        "area_sqm_declared": 3106999.229
      },
      "geometry": {
        "type": "Polygon",
        "coordinates": [
          [
            [
              116.3533,
              39.99
            ],
            [
              116.35458,
              39.974
            ],
            [
              116.33972777777777,
              39.974
            ],
            [
              116.3397,
              39.975
            ],
            [
              116.34121612903226,
              39.9985
            ],
            [
              116.35376575342467,
              39.9985
            ],
            [
              116.3533,
              39.99
            ]
          ]
        ]
      }
    },
    {
      "type": "Feature",
      "id": "PHASE-3",
      "properties": {
        "id": "PHASE-3",
        "layer": "PHASE",
        "source_type": "agent_generated_design",
        "confidence": "medium",
        "geometry_role": "design_proposal",
        "phase": "phase_3",
        "name_zh": "远期协同区",
        "area_sqm_declared": 3326616.036
      },
      "geometry": {
        "type": "Polygon",
        "coordinates": [
          [
            [
              116.35376575342467,
              39.9985
            ],
            [
              116.34121612903226,
              39.9985
            ],
            [
              116.3417,
              40.006
            ],
            [
              116.3427,
              40.0265
            ],
            [
              116.3553,
              40.0265
            ],
            [
              116.35376575342467,
              39.9985
            ]
          ]
        ]
      }
    }
  ]
}
