{
 "type": "FeatureCollection",
 "features": [
  {
   "type": "Feature",
   "id": "LU-001",
   "properties": {
    "id": "LU-001",
    "layer": "LAND_USE",
    "source_type": "agent_generated_design",
    "confidence": "medium",
    "geometry_role": "design_proposal",
    "area_sqm_declared": 228234.443,
    "land_use_code": "07",
    "name_zh": "居住用地",
    "name_en_note": "MNR 2023 classification subset"
   },
   "geometry": {
    "type": "Polygon",
    "coordinates": [
     [
      [
       116.3407,
       39.939
      ],
      [
       116.340668,
       39.940152
      ],
      [
       116.340399,
       39.949836
      ],
      [
       116.340399,
       39.94984
      ],
      [
       116.340399,
       39.94984
      ],
      [
       116.340325,
       39.9525
      ],
      [
       116.340325,
       39.9525
      ],
      [
       116.340399,
       39.9525
      ],
      [
       116.340668,
       39.9525
      ],
      [
       116.3407,
       39.9525
      ],
      [
       116.340894,
       39.9525
      ],
      [
       116.341313,
       39.9525
      ],
      [
       116.3417,
       39.9525
      ],
      [
       116.341773,
       39.9525
      ],
      [
       116.3427,
       39.9525
      ],
      [
       116.3455,
       39.9525
      ],
      [
       116.348,
       39.9525
      ],
      [
       116.348,
       39.94984
      ],
      [
       116.3455,
       39.94984
      ],
      [
       116.3427,
       39.94984
      ],
      [
       116.341773,
       39.94984
      ],
      [
       116.3417,
       39.94984
      ],
      [
       116.341313,
       39.94984
      ],
      [
       116.340894,
       39.94984
      ],
      [
       116.340894,
       39.939
      ],
      [
       116.3407,
       39.939
      ]
     ]
    ]
   }
  },
  {
   "type": "Feature",
   "id": "LU-002",
   "properties": {
    "id": "LU-002",
    "layer": "LAND_USE",
    "source_type": "agent_generated_design",
    "confidence": "medium",
    "geometry_role": "design_proposal",
    "area_sqm_declared": 25279.264,
    "land_use_code": "07",
    "name_zh": "居住用地",
    "name_en_note": "MNR 2023 classification subset"
   },
   "geometry": {
    "type": "Polygon",
    "coordinates": [
     [
      [
       116.340668,
       39.99
      ],
      [
       116.340668,
       39.990004
      ],
      [
       116.3407,
       39.9905
      ],
      [
       116.3407,
       39.99
      ],
      [
       116.340894,
       39.99
      ],
      [
       116.340894,
       39.9835
      ],
      [
       116.3407,
       39.9835
      ],
      [
       116.340668,
       39.9835
      ],
      [
       116.340399,
       39.9835
      ],
      [
       116.340399,
       39.985835
      ],
      [
       116.340668,
       39.99
      ],
      [
       116.340668,
       39.99
      ]
     ]
    ]
   }
  },
  {
   "type": "Feature",
   "id": "LU-003",
   "properties": {
    "id": "LU-003",
    "layer": "LAND_USE",
    "source_type": "agent_generated_design",
    "confidence": "medium",
    "geometry_role": "design_proposal",
    "area_sqm_declared": 166841.505,
    "land_use_code": "07",
    "name_zh": "居住用地",
    "name_en_note": "MNR 2023 classification subset"
   },
   "geometry": {
    "type": "Polygon",
    "coordinates": [
     [
      [
       116.341313,
       40.0
      ],
      [
       116.341313,
       40.0
      ],
      [
       116.341313,
       40.000001
      ],
      [
       116.3417,
       40.006
      ],
      [
       116.341773,
       40.007497
      ],
      [
       116.341773,
       40.006
      ],
      [
       116.3427,
       40.006
      ],
      [
       116.3427,
       40.0
      ],
      [
       116.3427,
       39.9935
      ],
      [
       116.341773,
       39.9935
      ],
      [
       116.3417,
       39.9935
      ],
      [
       116.341313,
       39.9935
      ],
      [
       116.340894,
       39.9935
      ],
      [
       116.340894,
       39.993507
      ],
      [
       116.341313,
       40.0
      ]
     ]
    ]
   }
  },
  {
   "type": "Feature",
   "id": "LU-004",
   "properties": {
    "id": "LU-004",
    "layer": "LAND_USE",
    "source_type": "agent_generated_design",
    "confidence": "medium",
    "geometry_role": "design_proposal",
    "area_sqm_declared": 1666225.656,
    "land_use_code": "09",
    "name_zh": "商业服务业用地",
    "name_en_note": "MNR 2023 classification subset"
   },
   "geometry": {
    "type": "Polygon",
    "coordinates": [
     [
      [
       116.3455,
       39.94984
      ],
      [
       116.348,
       39.94984
      ],
      [
       116.348,
       39.9525
      ],
      [
       116.35,
       39.9525
      ],
      [
       116.352,
       39.9525
      ],
      [
       116.3533,
       39.9525
      ],
      [
       116.353492,
       39.9525
      ],
      [
       116.35382,
       39.9525
      ],
      [
       116.353848,
       39.9525
      ],
      [
       116.354177,
       39.9525
      ],
      [
       116.354259,
       39.9525
      ],
      [
       116.3545,
       39.9525
      ],
      [
       116.3553,
       39.9525
      ],
      [
       116.3553,
       39.94984
      ],
      [
       116.3553,
       39.939
      ],
      [
       116.3545,
       39.939
      ],
      [
       116.354259,
       39.939
      ],
      [
       116.354177,
       39.939
      ],
      [
       116.353848,
       39.939
      ],
      [
       116.35382,
       39.939
      ],
      [
       116.353492,
       39.939
      ],
      [
       116.3533,
       39.939
      ],
      [
       116.352,
       39.939
      ],
      [
       116.35,
       39.939
      ],
      [
       116.348,
       39.939
      ],
      [
       116.3455,
       39.939
      ],
      [
       116.3427,
       39.939
      ],
      [
       116.341773,
       39.939
      ],
      [
       116.3417,
       39.939
      ],
      [
       116.341313,
       39.939
      ],
      [
       116.340894,
       39.939
      ],
      [
       116.340894,
       39.94984
      ],
      [
       116.341313,
       39.94984
      ],
      [
       116.3417,
       39.94984
      ],
      [
       116.341773,
       39.94984
      ],
      [
       116.3427,
       39.94984
      ],
      [
       116.3455,
       39.94984
      ]
     ]
    ]
   }
  },
  {
   "type": "Feature",
   "id": "LU-005",
   "properties": {
    "id": "LU-005",
    "layer": "LAND_USE",
    "source_type": "agent_generated_design",
    "confidence": "medium",
    "geometry_role": "design_proposal",
    "area_sqm_declared": 112721.019,
    "land_use_code": "09",
    "name_zh": "商业服务业用地",
    "name_en_note": "MNR 2023 classification subset"
   },
   "geometry": {
    "type": "Polygon",
    "coordinates": [
     [
      [
       116.352,
       39.9935
      ],
      [
       116.3533,
       39.9935
      ],
      [
       116.353492,
       39.9935
      ],
      [
       116.3533,
       39.99
      ],
      [
       116.352,
       39.99
      ],
      [
       116.35,
       39.99
      ],
      [
       116.35,
       39.9935
      ],
      [
       116.352,
       39.9935
      ]
     ]
    ]
   }
  },
  {
   "type": "Feature",
   "id": "LU-006",
   "properties": {
    "id": "LU-006",
    "layer": "LAND_USE",
    "source_type": "agent_generated_design",
    "confidence": "medium",
    "geometry_role": "design_proposal",
    "area_sqm_declared": 812353.72,
    "land_use_code": "09",
    "name_zh": "商业服务业用地",
    "name_en_note": "MNR 2023 classification subset"
   },
   "geometry": {
    "type": "Polygon",
    "coordinates": [
     [
      [
       116.35,
       40.006
      ],
      [
       116.35,
       40.0075
      ],
      [
       116.35,
       40.0265
      ],
      [
       116.352,
       40.0265
      ],
      [
       116.3533,
       40.0265
      ],
      [
       116.353492,
       40.0265
      ],
      [
       116.35382,
       40.0265
      ],
      [
       116.353848,
       40.0265
      ],
      [
       116.354177,
       40.0265
      ],
      [
       116.354177,
       40.0075
      ],
      [
       116.354259,
       40.0075
      ],
      [
       116.354177,
       40.006005
      ],
      [
       116.354177,
       40.006
      ],
      [
       116.353848,
       40.006
      ],
      [
       116.35382,
       40.006
      ],
      [
       116.353492,
       40.006
      ],
      [
       116.3533,
       40.006
      ],
      [
       116.352,
       40.006
      ],
      [
       116.35,
       40.006
      ]
     ]
    ]
   }
  },
  {
   "type": "Feature",
   "id": "LU-007",
   "properties": {
    "id": "LU-007",
    "layer": "LAND_USE",
    "source_type": "agent_generated_design",
    "confidence": "medium",
    "geometry_role": "design_proposal",
    "area_sqm_declared": 2017754.982,
    "land_use_code": "14",
    "name_zh": "绿地与开敞空间用地",
    "name_en_note": "MNR 2023 classification subset"
   },
   "geometry": {
    "type": "Polygon",
    "coordinates": [
     [
      [
       116.340894,
       39.965
      ],
      [
       116.341313,
       39.965
      ],
      [
       116.3417,
       39.965
      ],
      [
       116.341773,
       39.965
      ],
      [
       116.3427,
       39.965
      ],
      [
       116.3455,
       39.965
      ],
      [
       116.348,
       39.965
      ],
      [
       116.35,
       39.965
      ],
      [
       116.352,
       39.965
      ],
      [
       116.3533,
       39.965
      ],
      [
       116.3533,
       39.975
      ],
      [
       116.3533,
       39.9835
      ],
      [
       116.353492,
       39.9835
      ],
      [
       116.35382,
       39.9835
      ],
      [
       116.353848,
       39.98315
      ],
      [
       116.354177,
       39.979037
      ],
      [
       116.354259,
       39.978013
      ],
      [
       116.3545,
       39.975
      ],
      [
       116.3553,
       39.965
      ],
      [
       116.3553,
       39.9525
      ],
      [
       116.3545,
       39.9525
      ],
      [
       116.354259,
       39.9525
      ],
      [
       116.354177,
       39.9525
      ],
      [
       116.353848,
       39.9525
      ],
      [
       116.35382,
       39.9525
      ],
      [
       116.353492,
       39.9525
      ],
      [
       116.3533,
       39.9525
      ],
      [
       116.352,
       39.9525
      ],
      [
       116.35,
       39.9525
      ],
      [
       116.348,
       39.9525
      ],
      [
       116.3455,
       39.9525
      ],
      [
       116.3427,
       39.9525
      ],
      [
       116.341773,
       39.9525
      ],
      [
       116.3417,
       39.9525
      ],
      [
       116.341313,
       39.9525
      ],
      [
       116.340894,
       39.9525
      ],
      [
       116.3407,
       39.9525
      ],
      [
       116.340668,
       39.9525
      ],
      [
       116.340399,
       39.9525
      ],
      [
       116.340325,
       39.9525
      ],
      [
       116.340325,
       39.9525
      ],
      [
       116.340248,
       39.955272
      ],
      [
       116.339978,
       39.964992
      ],
      [
       116.339978,
       39.965
      ],
      [
       116.340248,
       39.965
      ],
      [
       116.340325,
       39.965
      ],
      [
       116.340399,
       39.965
      ],
      [
       116.340668,
       39.965
      ],
      [
       116.3407,
       39.965
      ],
      [
       116.340894,
       39.965
      ]
     ]
    ]
   }
  },
  {
   "type": "Feature",
   "id": "LU-008",
   "properties": {
    "id": "LU-008",
    "layer": "LAND_USE",
    "source_type": "agent_generated_design",
    "confidence": "medium",
    "geometry_role": "design_proposal",
    "area_sqm_declared": 2353034.732,
    "land_use_code": "1207",
    "name_zh": "城镇道路用地",
    "name_en_note": "MNR 2023 classification subset"
   },
   "geometry": {
    "type": "Polygon",
    "coordinates": [
     [
      [
       116.3407,
       39.965
      ],
      [
       116.340668,
       39.965
      ],
      [
       116.340399,
       39.965
      ],
      [
       116.340325,
       39.965
      ],
      [
       116.340248,
       39.965
      ],
      [
       116.339978,
       39.965
      ],
      [
       116.339978,
       39.965
      ],
      [
       116.3397,
       39.975
      ],
      [
       116.339978,
       39.979309
      ],
      [
       116.340248,
       39.983494
      ],
      [
       116.340248,
       39.9835
      ],
      [
       116.340325,
       39.984688
      ],
      [
       116.340399,
       39.985835
      ],
      [
       116.340399,
       39.9835
      ],
      [
       116.340668,
       39.9835
      ],
      [
       116.3407,
       39.9835
      ],
      [
       116.340894,
       39.9835
      ],
      [
       116.341313,
       39.9835
      ],
      [
       116.3417,
       39.9835
      ],
      [
       116.341773,
       39.9835
      ],
      [
       116.3427,
       39.9835
      ],
      [
       116.3455,
       39.9835
      ],
      [
       116.348,
       39.9835
      ],
      [
       116.35,
       39.9835
      ],
      [
       116.352,
       39.9835
      ],
      [
       116.3533,
       39.9835
      ],
      [
       116.3533,
       39.975
      ],
      [
       116.3533,
       39.965
      ],
      [
       116.352,
       39.965
      ],
      [
       116.35,
       39.965
      ],
      [
       116.348,
       39.965
      ],
      [
       116.3455,
       39.965
      ],
      [
       116.3427,
       39.965
      ],
      [
       116.341773,
       39.965
      ],
      [
       116.3417,
       39.965
      ],
      [
       116.341313,
       39.965
      ],
      [
       116.340894,
       39.965
      ],
      [
       116.3407,
       39.965
      ]
     ]
    ]
   }
  },
  {
   "type": "Feature",
   "id": "LU-009",
   "properties": {
    "id": "LU-009",
    "layer": "LAND_USE",
    "source_type": "agent_generated_design",
    "confidence": "medium",
    "geometry_role": "design_proposal",
    "area_sqm_declared": 1319753.311,
    "land_use_code": "1207",
    "name_zh": "城镇道路用地",
    "name_en_note": "MNR 2023 classification subset"
   },
   "geometry": {
    "type": "Polygon",
    "coordinates": [
     [
      [
       116.3427,
       40.006
      ],
      [
       116.3455,
       40.006
      ],
      [
       116.348,
       40.006
      ],
      [
       116.35,
       40.006
      ],
      [
       116.352,
       40.006
      ],
      [
       116.3533,
       40.006
      ],
      [
       116.353492,
       40.006
      ],
      [
       116.35382,
       40.006
      ],
      [
       116.353848,
       40.006
      ],
      [
       116.354177,
       40.006
      ],
      [
       116.353848,
       40.000001
      ],
      [
       116.353848,
       40.0
      ],
      [
       116.35382,
       39.99949
      ],
      [
       116.353492,
       39.993504
      ],
      [
       116.353492,
       39.9935
      ],
      [
       116.3533,
       39.9935
      ],
      [
       116.352,
       39.9935
      ],
      [
       116.35,
       39.9935
      ],
      [
       116.348,
       39.9935
      ],
      [
       116.3455,
       39.9935
      ],
      [
       116.3427,
       39.9935
      ],
      [
       116.3427,
       40.0
      ],
      [
       116.3427,
       40.006
      ]
     ]
    ]
   }
  },
  {
   "type": "Feature",
   "id": "LU-010",
   "properties": {
    "id": "LU-010",
    "layer": "LAND_USE",
    "source_type": "agent_generated_design",
    "confidence": "medium",
    "geometry_role": "design_proposal",
    "area_sqm_declared": 780826.039,
    "land_use_code": "0803",
    "name_zh": "文化用地",
    "name_en_note": "MNR 2023 classification subset"
   },
   "geometry": {
    "type": "Polygon",
    "coordinates": [
     [
      [
       116.3417,
       39.99
      ],
      [
       116.341773,
       39.99
      ],
      [
       116.3427,
       39.99
      ],
      [
       116.3455,
       39.99
      ],
      [
       116.348,
       39.99
      ],
      [
       116.35,
       39.99
      ],
      [
       116.352,
       39.99
      ],
      [
       116.3533,
       39.99
      ],
      [
       116.353492,
       39.9876
      ],
      [
       116.35382,
       39.9835
      ],
      [
       116.35382,
       39.9835
      ],
      [
       116.353492,
       39.9835
      ],
      [
       116.3533,
       39.9835
      ],
      [
       116.352,
       39.9835
      ],
      [
       116.35,
       39.9835
      ],
      [
       116.348,
       39.9835
      ],
      [
       116.3455,
       39.9835
      ],
      [
       116.3427,
       39.9835
      ],
      [
       116.341773,
       39.9835
      ],
      [
       116.3417,
       39.9835
      ],
      [
       116.341313,
       39.9835
      ],
      [
       116.340894,
       39.9835
      ],
      [
       116.340894,
       39.99
      ],
      [
       116.341313,
       39.99
      ],
      [
       116.3417,
       39.99
      ]
     ]
    ]
   }
  },
  {
   "type": "Feature",
   "id": "LU-011",
   "properties": {
    "id": "LU-011",
    "layer": "LAND_USE",
    "source_type": "agent_generated_design",
    "confidence": "medium",
    "geometry_role": "design_proposal",
    "area_sqm_declared": 305929.346,
    "land_use_code": "08",
    "name_zh": "公共管理与公共服务用地",
    "name_en_note": "MNR 2023 classification subset"
   },
   "geometry": {
    "type": "Polygon",
    "coordinates": [
     [
      [
       116.340894,
       39.9935
      ],
      [
       116.341313,
       39.9935
      ],
      [
       116.3417,
       39.9935
      ],
      [
       116.341773,
       39.9935
      ],
      [
       116.3427,
       39.9935
      ],
      [
       116.3455,
       39.9935
      ],
      [
       116.348,
       39.9935
      ],
      [
       116.35,
       39.9935
      ],
      [
       116.35,
       39.99
      ],
      [
       116.348,
       39.99
      ],
      [
       116.3455,
       39.99
      ],
      [
       116.3427,
       39.99
      ],
      [
       116.341773,
       39.99
      ],
      [
       116.3417,
       39.99
      ],
      [
       116.341313,
       39.99
      ],
      [
       116.340894,
       39.99
      ],
      [
       116.3407,
       39.99
      ],
      [
       116.3407,
       39.9905
      ],
      [
       116.340894,
       39.9935
      ],
      [
       116.340894,
       39.9935
      ]
     ]
    ]
   }
  },
  {
   "type": "Feature",
   "id": "LU-012",
   "properties": {
    "id": "LU-012",
    "layer": "LAND_USE",
    "source_type": "agent_generated_design",
    "confidence": "medium",
    "geometry_role": "design_proposal",
    "area_sqm_declared": 1515391.005,
    "land_use_code": "08",
    "name_zh": "公共管理与公共服务用地",
    "name_en_note": "MNR 2023 classification subset"
   },
   "geometry": {
    "type": "Polygon",
    "coordinates": [
     [
      [
       116.341773,
       40.0075
      ],
      [
       116.3427,
       40.0265
      ],
      [
       116.3455,
       40.0265
      ],
      [
       116.348,
       40.0265
      ],
      [
       116.35,
       40.0265
      ],
      [
       116.35,
       40.0075
      ],
      [
       116.35,
       40.006
      ],
      [
       116.348,
       40.006
      ],
      [
       116.3455,
       40.006
      ],
      [
       116.3427,
       40.006
      ],
      [
       116.341773,
       40.006
      ],
      [
       116.341773,
       40.007497
      ],
      [
       116.341773,
       40.0075
      ]
     ]
    ]
   }
  },
  {
   "type": "Feature",
   "id": "LU-013",
   "properties": {
    "id": "LU-013",
    "layer": "LAND_USE",
    "source_type": "agent_generated_design",
    "confidence": "medium",
    "geometry_role": "design_proposal",
    "area_sqm_declared": 108505.152,
    "land_use_code": "1401",
    "name_zh": "1401",
    "name_en_note": "MNR 2023 classification subset"
   },
   "geometry": {
    "type": "Polygon",
    "coordinates": [
     [
      [
       116.354259,
       40.0075
      ],
      [
       116.354177,
       40.0075
      ],
      [
       116.354177,
       40.0265
      ],
      [
       116.354259,
       40.0265
      ],
      [
       116.3545,
       40.0265
      ],
      [
       116.3553,
       40.0265
      ],
      [
       116.3545,
       40.0119
      ],
      [
       116.354259,
       40.007502
      ],
      [
       116.354259,
       40.0075
      ]
     ]
    ]
   }
  }
 ]
}