{
  "type": "FeatureCollection",
  "name": "time_commons_green",
  "features": [
    {
      "type": "Feature",
      "id": "GREEN-TIME-SPINE",
      "properties": {
        "id": "GREEN-TIME-SPINE",
        "layer": "GREEN_SPACE",
        "source_type": "agent_generated_design",
        "confidence": "low",
        "geometry_role": "design_proposal",
        "area_sqm_declared": 1202423.817,
        "land_use_code": "1401",
        "name_zh": "京张慢时间蓝绿公地",
        "role_zh": "遮荫、休息、步行骑行与低干预场景的概念性连续空间"
      },
      "geometry": {
        "type": "Polygon",
        "coordinates": [
          [
            [
              116.3496219513975,
              39.945986037934176
            ],
            [
              116.34961687798618,
              39.94591355037125
            ],
            [
              116.34898192256145,
              39.940663550371255
            ],
            [
              116.34755234015853,
              39.94083644962875
            ],
            [
              116.34815547484774,
              39.94582334633845
            ],
            [
              116.34805991405278,
              39.94585753853762
            ],
            [
              116.34795789375265,
              39.94590579054601
            ],
            [
              116.34786109423203,
              39.94596380994586
            ],
            [
              116.3477704477232,
              39.94603103797864
            ],
            [
              116.34768682720164,
              39.94610682720164
            ],
            [
              116.34761103797864,
              39.94619044772322
            ],
            [
              116.34754380994585,
              39.946281094232035
            ],
            [
              116.347485790546,
              39.946377893752654
            ],
            [
              116.34743753853762,
              39.94647991405279
            ],
            [
              116.34739951861391,
              39.94658617262116
            ],
            [
              116.34737209692754,
              39.94669564612969
            ],
            [
              116.34735553756433,
              39.946807280288624
            ],
            [
              116.34735,
              39.946920000000006
            ],
            [
              116.34735553756433,
              39.94703271971139
            ],
            [
              116.34737209692754,
              39.94714435387032
            ],
            [
              116.34739951861391,
              39.94725382737885
            ],
            [
              116.34743753853762,
              39.947360085947224
            ],
            [
              116.347485790546,
              39.94746210624736
            ],
            [
              116.34754380994585,
              39.94755890576798
            ],
            [
              116.34761103797864,
              39.94764955227679
            ],
            [
              116.34768682720164,
              39.94773317279837
            ],
            [
              116.3477704477232,
              39.94780896202137
            ],
            [
              116.34786109423203,
              39.94787619005415
            ],
            [
              116.34795789375265,
              39.947934209454004
            ],
            [
              116.34805991405278,
              39.947982461462395
            ],
            [
              116.34816617262116,
              39.948020481386095
            ],
            [
              116.34822140777585,
              39.94803431707209
            ],
            [
              116.34828319927864,
              39.951220200650724
            ],
            [
              116.34775280376907,
              39.95640006853527
            ],
            [
              116.34682249412108,
              39.96162354426235
            ],
            [
              116.34588430039958,
              39.96687333508978
            ],
            [
              116.34587682223396,
              39.96692660063926
            ],
            [
              116.34533881564691,
              39.972176600639266
            ],
            [
              116.34533578396204,
              39.9722821775223
            ],
            [
              116.34557064638972,
              39.9775321775223
            ],
            [
              116.34557716475946,
              39.97760183308806
            ],
            [
              116.34632644623497,
              39.98284629300802
            ],
            [
              116.34691883408732,
              39.98750920200844
            ],
            [
              116.34686109423203,
              39.987543809945855
            ],
            [
              116.3467704477232,
              39.98761103797864
            ],
            [
              116.34668682720164,
              39.987686827201635
            ],
            [
              116.34661103797863,
              39.987770447723214
            ],
            [
              116.34654380994584,
              39.98786109423203
            ],
            [
              116.346485790546,
              39.98795789375265
            ],
            [
              116.34643753853761,
              39.98805991405278
            ],
            [
              116.34639951861391,
              39.988166172621156
            ],
            [
              116.34637209692754,
              39.988275646129686
            ],
            [
              116.34635553756432,
              39.98838728028862
            ],
            [
              116.34635,
              39.9885
            ],
            [
              116.34635553756432,
              39.988612719711384
            ],
            [
              116.34637209692754,
              39.98872435387032
            ],
            [
              116.34639951861391,
              39.98883382737885
            ],
            [
              116.34643753853761,
              39.98894008594722
            ],
            [
              116.346485790546,
              39.989042106247354
            ],
            [
              116.34654380994584,
              39.98913890576797
            ],
            [
              116.34661103797863,
              39.98922955227679
            ],
            [
              116.34668682720164,
              39.98931317279837
            ],
            [
              116.3467704477232,
              39.989388962021366
            ],
            [
              116.34686109423203,
              39.98945619005415
            ],
            [
              116.34695789375264,
              39.989514209454
            ],
            [
              116.34705991405278,
              39.98956246146239
            ],
            [
              116.34712814044593,
              39.9895868732562
            ],
            [
              116.3474643160036,
              39.99328815054031
            ],
            [
              116.34754416050049,
              39.99848257665722
            ],
            [
              116.3472112958632,
              40.00369813690385
            ],
            [
              116.34678850876344,
              40.00894213919825
            ],
            [
              116.3467863838633,
              40.008982871152746
            ],
            [
              116.34666145065967,
              40.01423287115274
            ],
            [
              116.34666341132424,
              40.01430578629864
            ],
            [
              116.34707141294031,
              40.019555786298646
            ],
            [
              116.34707892791467,
              40.019617663366866
            ],
            [
              116.34794858126546,
              40.02486766336686
            ],
            [
              116.34936922243352,
              40.02463233663313
            ],
            [
              116.34850466702963,
              40.01941311236833
            ],
            [
              116.34838663836742,
              40.01789436721566
            ],
            [
              116.34838728028862,
              40.01789446243568
            ],
            [
              116.3485,
              40.017900000000004
            ],
            [
              116.34861271971138,
              40.01789446243568
            ],
            [
              116.34872435387032,
              40.01787790307247
            ],
            [
              116.34883382737884,
              40.01785048138609
            ],
            [
              116.34894008594722,
              40.01781246146239
            ],
            [
              116.34904210624735,
              40.017764209454
            ],
            [
              116.34913890576797,
              40.01770619005415
            ],
            [
              116.3492295522768,
              40.017638962021366
            ],
            [
              116.34931317279836,
              40.01756317279837
            ],
            [
              116.34938896202137,
              40.01747955227679
            ],
            [
              116.34945619005416,
              40.01738890576797
            ],
            [
              116.349514209454,
              40.01729210624735
            ],
            [
              116.34956246146238,
              40.01719008594722
            ],
            [
              116.34960048138609,
              40.01708382737885
            ],
            [
              116.34962790307246,
              40.01697435387032
            ],
            [
              116.34964446243568,
              40.01686271971138
            ],
            [
              116.34965,
              40.01675
            ],
            [
              116.34964446243568,
              40.01663728028862
            ],
            [
              116.34962790307246,
              40.016525646129686
            ],
            [
              116.34960048138609,
              40.016416172621156
            ],
            [
              116.34956246146238,
              40.01630991405278
            ],
            [
              116.349514209454,
              40.01620789375265
            ],
            [
              116.34945619005416,
              40.01611109423203
            ],
            [
              116.34938896202137,
              40.016020447723214
            ],
            [
              116.34931317279836,
              40.015936827201635
            ],
            [
              116.3492295522768,
              40.01586103797864
            ],
            [
              116.34913890576797,
              40.015793809945855
            ],
            [
              116.34904210624735,
              40.015735790546
            ],
            [
              116.34894008594722,
              40.01568753853761
            ],
            [
              116.34883382737884,
              40.01564951861391
            ],
            [
              116.34872435387032,
              40.01562209692754
            ],
            [
              116.34861271971138,
              40.015605537564326
            ],
            [
              116.3485,
              40.0156
            ],
            [
              116.34838728028862,
              40.015605537564326
            ],
            [
              116.34827564612968,
              40.01562209692754
            ],
            [
              116.34821130235319,
              40.01563821420452
            ],
            [
              116.34810191186241,
              40.01423062155289
            ],
            [
              116.34822549094773,
              40.009037524929866
            ],
            [
              116.34864712206178,
              40.00380786080175
            ],
            [
              116.34864798885924,
              40.00379585814744
            ],
            [
              116.34898305149166,
              39.998545858147445
            ],
            [
              116.34898442832801,
              39.99848893405234
            ],
            [
              116.34890372959454,
              39.993238934052336
            ],
            [
              116.3489008630577,
              39.993184872711794
            ],
            [
              116.34852291635438,
              39.98902369705319
            ],
            [
              116.34856246146238,
              39.98894008594722
            ],
            [
              116.34860048138609,
              39.98883382737885
            ],
            [
              116.34862790307245,
              39.98872435387032
            ],
            [
              116.34864446243567,
              39.988612719711384
            ],
            [
              116.34864999999999,
              39.9885
            ],
            [
              116.34864446243567,
              39.98838728028862
            ],
            [
              116.34862790307245,
              39.988275646129686
            ],
            [
              116.34860048138609,
              39.988166172621156
            ],
            [
              116.34856246146238,
              39.98805991405278
            ],
            [
              116.348514209454,
              39.98795789375265
            ],
            [
              116.34845619005415,
              39.98786109423203
            ],
            [
              116.34840662279669,
              39.98779426052213
            ],
            [
              116.34775425906895,
              39.98265925870613
            ],
            [
              116.34775276224799,
              39.982648166911936
            ],
            [
              116.34700764248804,
              39.97743283616583
            ],
            [
              116.34677671171274,
              39.97227072240275
            ],
            [
              116.34730657651849,
              39.967100171898
            ],
            [
              116.34824007303698,
              39.96187666491022
            ],
            [
              116.3491751813421,
              39.956626246537
            ],
            [
              116.3491825908124,
              39.956573341324415
            ],
            [
              116.3497201675397,
              39.95132334132442
            ],
            [
              116.34972377727456,
              39.95123603793418
            ],
            [
              116.34964250779072,
              39.94704589685734
            ],
            [
              116.34964446243568,
              39.94703271971139
            ],
            [
              116.34965,
              39.946920000000006
            ],
            [
              116.34964446243568,
              39.946807280288624
            ],
            [
              116.34963688954615,
              39.94675622801431
            ],
            [
              116.3496219513975,
              39.945986037934176
            ]
          ]
        ]
      }
    }
  ]
}
