{
 "type": "FeatureCollection",
 "name": "green_space",
 "features": [
  {
   "type": "Feature",
   "id": "GRN-BELT",
   "properties": {
    "id": "GRN-BELT",
    "layer": "GREEN_SPACE",
    "source_type": "agent_generated_provisional",
    "confidence": "low",
    "geometry_role": "agent_design_layer",
    "official_boundary": false,
    "green_type": "park_belt",
    "name_zh": "京张遗址公园活力带绿地",
    "basis": "provisional_concept"
   },
   "geometry": {
    "type": "Polygon",
    "coordinates": [
     [
      [
       116.344,
       40.026
      ],
      [
       116.349,
       40.026
      ],
      [
       116.349,
       39.94
      ],
      [
       116.344,
       39.94
      ],
      [
       116.344,
       40.026
      ]
     ]
    ]
   }
  }
 ]
}