{
  "type": "FeatureCollection",
  "name": "land_use",
  "metadata": {
    "coordinate_reference_system": "EPSG:4326",
    "area_calculation_crs": "EPSG:4548",
    "source": "Derived from provisional boundaries in brief/site-package/geometry/provisional_boundaries.geojson",
    "boundary_status": "provisional_constraint",
    "official_boundary": false,
    "usage_note": "All geometries are derived from provisional boundaries. Do not use as official redline, approval basis, or precise area calculation basis."
  },
  "features": [
    {
      "type": "Feature",
      "id": "LU-001",
      "properties": {
        "id": "LU-001",
        "layer": "LAND_USE",
        "source_type": "agent_inferred_from_public_data",
        "confidence": "medium",
        "geometry_role": "provisional_constraint",
        "official_boundary": false,
        "boundary_precision": "provisional_rough",
        "land_use_code": "AI_SERVICE_ZONE",
        "land_use_label_zh": "AI服务区-众智园数据工厂",
        "name_zh": "AI服务区-众智园数据工厂",
        "area_sqm_declared": 455023.831,
        "area_sqm_calculated": 455023.831
      },
      "geometry": {
        "type": "Polygon",
        "coordinates": [
          [
            [
              116.3455,
              40.016000000000005
            ],
            [
              116.3515,
              40.016000000000005
            ],
            [
              116.3515,
              40.024
            ],
            [
              116.3455,
              40.024
            ],
            [
              116.3455,
              40.016000000000005
            ]
          ]
        ]
      }
    },
    {
      "type": "Feature",
      "id": "LU-002",
      "properties": {
        "id": "LU-002",
        "layer": "LAND_USE",
        "source_type": "agent_inferred_from_public_data",
        "confidence": "medium",
        "geometry_role": "provisional_constraint",
        "official_boundary": false,
        "boundary_precision": "provisional_rough",
        "land_use_code": "AI_SERVICE_ZONE",
        "land_use_label_zh": "AI服务区-众智园共创中心",
        "name_zh": "AI服务区-众智园共创中心",
        "area_sqm_declared": 341307.257,
        "area_sqm_calculated": 341307.257
      },
      "geometry": {
        "type": "Polygon",
        "coordinates": [
          [
            [
              116.3455,
              40.009
            ],
            [
              116.3515,
              40.009
            ],
            [
              116.3515,
              40.015
            ],
            [
              116.3455,
              40.015
            ],
            [
              116.3455,
              40.009
            ]
          ]
        ]
      }
    },
    {
      "type": "Feature",
      "id": "LU-003",
      "properties": {
        "id": "LU-003",
        "layer": "LAND_USE",
        "source_type": "agent_inferred_from_public_data",
        "confidence": "medium",
        "geometry_role": "provisional_constraint",
        "official_boundary": false,
        "boundary_precision": "provisional_rough",
        "land_use_code": "1401",
        "land_use_label_zh": "京张遗址公园活力带-北段",
        "name_zh": "京张遗址公园活力带-北段",
        "area_sqm_declared": 606716.439,
        "area_sqm_calculated": 606716.439
      },
      "geometry": {
        "type": "Polygon",
        "coordinates": [
          [
            [
              116.343,
              40.01
            ],
            [
              116.347,
              40.01
            ],
            [
              116.347,
              40.026
            ],
            [
              116.343,
              40.026
            ],
            [
              116.343,
              40.01
            ]
          ]
        ]
      }
    },
    {
      "type": "Feature",
      "id": "LU-004",
      "properties": {
        "id": "LU-004",
        "layer": "LAND_USE",
        "source_type": "agent_inferred_from_public_data",
        "confidence": "medium",
        "geometry_role": "provisional_constraint",
        "official_boundary": false,
        "boundary_precision": "provisional_rough",
        "land_use_code": "AI_SERVICE_ZONE",
        "land_use_label_zh": "AI服务区-原点社区服务客厅",
        "name_zh": "AI服务区-原点社区服务客厅",
        "area_sqm_declared": 341415.609,
        "area_sqm_calculated": 341415.609
      },
      "geometry": {
        "type": "Polygon",
        "coordinates": [
          [
            [
              116.3445,
              39.987
            ],
            [
              116.3505,
              39.987
            ],
            [
              116.3505,
              39.993
            ],
            [
              116.3445,
              39.993
            ],
            [
              116.3445,
              39.987
            ]
          ]
        ]
      }
    },
    {
      "type": "Feature",
      "id": "LU-005",
      "properties": {
        "id": "LU-005",
        "layer": "LAND_USE",
        "source_type": "agent_inferred_from_public_data",
        "confidence": "medium",
        "geometry_role": "provisional_constraint",
        "official_boundary": false,
        "boundary_precision": "provisional_rough",
        "land_use_code": "0702",
        "land_use_label_zh": "社区服务与配套-原点社区",
        "name_zh": "社区服务与配套-原点社区",
        "area_sqm_declared": 379372.765,
        "area_sqm_calculated": 379372.765
      },
      "geometry": {
        "type": "Polygon",
        "coordinates": [
          [
            [
              116.3425,
              39.982
            ],
            [
              116.3475,
              39.982
            ],
            [
              116.3475,
              39.989999999999995
            ],
            [
              116.3425,
              39.989999999999995
            ],
            [
              116.3425,
              39.982
            ]
          ]
        ]
      }
    },
    {
      "type": "Feature",
      "id": "LU-006",
      "properties": {
        "id": "LU-006",
        "layer": "LAND_USE",
        "source_type": "agent_inferred_from_public_data",
        "confidence": "medium",
        "geometry_role": "provisional_constraint",
        "official_boundary": false,
        "boundary_precision": "provisional_rough",
        "land_use_code": "1401",
        "land_use_label_zh": "京张遗址公园活力带-中段",
        "name_zh": "京张遗址公园活力带-中段",
        "area_sqm_declared": 455240.65,
        "area_sqm_calculated": 455240.65
      },
      "geometry": {
        "type": "Polygon",
        "coordinates": [
          [
            [
              116.34400000000001,
              39.981
            ],
            [
              116.348,
              39.981
            ],
            [
              116.348,
              39.993
            ],
            [
              116.34400000000001,
              39.993
            ],
            [
              116.34400000000001,
              39.981
            ]
          ]
        ]
      }
    },
    {
      "type": "Feature",
      "id": "LU-007",
      "properties": {
        "id": "LU-007",
        "layer": "LAND_USE",
        "source_type": "agent_inferred_from_public_data",
        "confidence": "medium",
        "geometry_role": "provisional_constraint",
        "official_boundary": false,
        "boundary_precision": "provisional_rough",
        "land_use_code": "0802",
        "land_use_label_zh": "AI研发创新-近校成果转化街",
        "name_zh": "AI研发创新-近校成果转化街",
        "area_sqm_declared": 227610.167,
        "area_sqm_calculated": 227610.167
      },
      "geometry": {
        "type": "Polygon",
        "coordinates": [
          [
            [
              116.35050000000001,
              39.986000000000004
            ],
            [
              116.3535,
              39.986000000000004
            ],
            [
              116.3535,
              39.994
            ],
            [
              116.35050000000001,
              39.994
            ],
            [
              116.35050000000001,
              39.986000000000004
            ]
          ]
        ]
      }
    },
    {
      "type": "Feature",
      "id": "LU-008",
      "properties": {
        "id": "LU-008",
        "layer": "LAND_USE",
        "source_type": "agent_inferred_from_public_data",
        "confidence": "medium",
        "geometry_role": "provisional_constraint",
        "official_boundary": false,
        "boundary_precision": "provisional_rough",
        "land_use_code": "AI_SERVICE_ZONE",
        "land_use_label_zh": "AI服务区-大钟寺企业数据港",
        "name_zh": "AI服务区-大钟寺企业数据港",
        "area_sqm_declared": 227751.335,
        "area_sqm_calculated": 227751.335
      },
      "geometry": {
        "type": "Polygon",
        "coordinates": [
          [
            [
              116.3455,
              39.945
            ],
            [
              116.3515,
              39.945
            ],
            [
              116.3515,
              39.949000000000005
            ],
            [
              116.3455,
              39.949000000000005
            ],
            [
              116.3455,
              39.945
            ]
          ]
        ]
      }
    },
    {
      "type": "Feature",
      "id": "LU-009",
      "properties": {
        "id": "LU-009",
        "layer": "LAND_USE",
        "source_type": "agent_inferred_from_public_data",
        "confidence": "medium",
        "geometry_role": "provisional_constraint",
        "official_boundary": false,
        "boundary_precision": "provisional_rough",
        "land_use_code": "05",
        "land_use_label_zh": "产业服务与商业服务-大钟寺",
        "name_zh": "产业服务与商业服务-大钟寺",
        "area_sqm_declared": 151834.099,
        "area_sqm_calculated": 151834.099
      },
      "geometry": {
        "type": "Polygon",
        "coordinates": [
          [
            [
              116.35000000000001,
              39.945
            ],
            [
              116.354,
              39.945
            ],
            [
              116.354,
              39.949000000000005
            ],
            [
              116.35000000000001,
              39.949000000000005
            ],
            [
              116.35000000000001,
              39.945
            ]
          ]
        ]
      }
    },
    {
      "type": "Feature",
      "id": "LU-010",
      "properties": {
        "id": "LU-010",
        "layer": "LAND_USE",
        "source_type": "agent_inferred_from_public_data",
        "confidence": "medium",
        "geometry_role": "provisional_constraint",
        "official_boundary": false,
        "boundary_precision": "provisional_rough",
        "land_use_code": "1401",
        "land_use_label_zh": "京张遗址公园活力带-南段",
        "name_zh": "京张遗址公园活力带-南段",
        "area_sqm_declared": 170813.521,
        "area_sqm_calculated": 170813.521
      },
      "geometry": {
        "type": "Polygon",
        "coordinates": [
          [
            [
              116.3465,
              39.944
            ],
            [
              116.34949999999999,
              39.944
            ],
            [
              116.34949999999999,
              39.95
            ],
            [
              116.3465,
              39.95
            ],
            [
              116.3465,
              39.944
            ]
          ]
        ]
      }
    },
    {
      "type": "Feature",
      "id": "LU-011",
      "properties": {
        "id": "LU-011",
        "layer": "LAND_USE",
        "source_type": "agent_inferred_from_public_data",
        "confidence": "medium",
        "geometry_role": "provisional_constraint",
        "official_boundary": false,
        "boundary_precision": "provisional_rough",
        "land_use_code": "0701",
        "land_use_label_zh": "居住用地-清河沿线",
        "name_zh": "居住用地-清河沿线",
        "area_sqm_declared": 151709.776,
        "area_sqm_calculated": 151709.776
      },
      "geometry": {
        "type": "Polygon",
        "coordinates": [
          [
            [
              116.342,
              40.001999999999995
            ],
            [
              116.34599999999999,
              40.001999999999995
            ],
            [
              116.34599999999999,
              40.006
            ],
            [
              116.342,
              40.006
            ],
            [
              116.342,
              40.001999999999995
            ]
          ]
        ]
      }
    },
    {
      "type": "Feature",
      "id": "LU-012",
      "properties": {
        "id": "LU-012",
        "layer": "LAND_USE",
        "source_type": "agent_inferred_from_public_data",
        "confidence": "medium",
        "geometry_role": "provisional_constraint",
        "official_boundary": false,
        "boundary_precision": "provisional_rough",
        "land_use_code": "0701",
        "land_use_label_zh": "居住用地-知春路沿线",
        "name_zh": "居住用地-知春路沿线",
        "area_sqm_declared": 379460.304,
        "area_sqm_calculated": 379460.304
      },
      "geometry": {
        "type": "Polygon",
        "coordinates": [
          [
            [
              116.3415,
              39.966
            ],
            [
              116.34649999999999,
              39.966
            ],
            [
              116.34649999999999,
              39.974
            ],
            [
              116.3415,
              39.974
            ],
            [
              116.3415,
              39.966
            ]
          ]
        ]
      }
    },
    {
      "type": "Feature",
      "id": "LU-013",
      "properties": {
        "id": "LU-013",
        "layer": "LAND_USE",
        "source_type": "agent_inferred_from_public_data",
        "confidence": "medium",
        "geometry_role": "provisional_constraint",
        "official_boundary": false,
        "boundary_precision": "provisional_rough",
        "land_use_code": "0701",
        "land_use_label_zh": "居住用地-西直门沿线",
        "name_zh": "居住用地-西直门沿线",
        "area_sqm_declared": 189806.589,
        "area_sqm_calculated": 189806.589
      },
      "geometry": {
        "type": "Polygon",
        "coordinates": [
          [
            [
              116.3425,
              39.94
            ],
            [
              116.3475,
              39.94
            ],
            [
              116.3475,
              39.944
            ],
            [
              116.3425,
              39.944
            ],
            [
              116.3425,
              39.94
            ]
          ]
        ]
      }
    },
    {
      "type": "Feature",
      "id": "LU-014",
      "properties": {
        "id": "LU-014",
        "layer": "LAND_USE",
        "source_type": "agent_inferred_from_public_data",
        "confidence": "medium",
        "geometry_role": "provisional_constraint",
        "official_boundary": false,
        "boundary_precision": "provisional_rough",
        "land_use_code": "1301",
        "land_use_label_zh": "公共服务设施-医疗教育北",
        "name_zh": "公共服务设施-医疗教育北",
        "area_sqm_declared": 227577.468,
        "area_sqm_calculated": 227577.468
      },
      "geometry": {
        "type": "Polygon",
        "coordinates": [
          [
            [
              116.347,
              39.998
            ],
            [
              116.353,
              39.998
            ],
            [
              116.353,
              40.002
            ],
            [
              116.347,
              40.002
            ],
            [
              116.347,
              39.998
            ]
          ]
        ]
      }
    },
    {
      "type": "Feature",
      "id": "LU-015",
      "properties": {
        "id": "LU-015",
        "layer": "LAND_USE",
        "source_type": "agent_inferred_from_public_data",
        "confidence": "medium",
        "geometry_role": "provisional_constraint",
        "official_boundary": false,
        "boundary_precision": "provisional_rough",
        "land_use_code": "1301",
        "land_use_label_zh": "公共服务设施-医疗教育南",
        "name_zh": "公共服务设施-医疗教育南",
        "area_sqm_declared": 227692.255,
        "area_sqm_calculated": 227692.255
      },
      "geometry": {
        "type": "Polygon",
        "coordinates": [
          [
            [
              116.347,
              39.963
            ],
            [
              116.353,
              39.963
            ],
            [
              116.353,
              39.967000000000006
            ],
            [
              116.347,
              39.967000000000006
            ],
            [
              116.347,
              39.963
            ]
          ]
        ]
      }
    },
    {
      "type": "Feature",
      "id": "LU-016",
      "properties": {
        "id": "LU-016",
        "layer": "LAND_USE",
        "source_type": "agent_inferred_from_public_data",
        "confidence": "medium",
        "geometry_role": "provisional_constraint",
        "official_boundary": false,
        "boundary_precision": "provisional_rough",
        "land_use_code": "AI_SERVICE_ZONE",
        "land_use_label_zh": "AI服务区-服务舱站点群北",
        "name_zh": "AI服务区-服务舱站点群北",
        "area_sqm_declared": 75861.396,
        "area_sqm_calculated": 75861.396
      },
      "geometry": {
        "type": "Polygon",
        "coordinates": [
          [
            [
              116.345,
              39.997
            ],
            [
              116.34899999999999,
              39.997
            ],
            [
              116.34899999999999,
              39.998999999999995
            ],
            [
              116.345,
              39.998999999999995
            ],
            [
              116.345,
              39.997
            ]
          ]
        ]
      }
    },
    {
      "type": "Feature",
      "id": "LU-017",
      "properties": {
        "id": "LU-017",
        "layer": "LAND_USE",
        "source_type": "agent_inferred_from_public_data",
        "confidence": "medium",
        "geometry_role": "provisional_constraint",
        "official_boundary": false,
        "boundary_precision": "provisional_rough",
        "land_use_code": "AI_SERVICE_ZONE",
        "land_use_label_zh": "AI服务区-服务舱站点群中",
        "name_zh": "AI服务区-服务舱站点群中",
        "area_sqm_declared": 75886.542,
        "area_sqm_calculated": 75886.542
      },
      "geometry": {
        "type": "Polygon",
        "coordinates": [
          [
            [
              116.345,
              39.974000000000004
            ],
            [
              116.34899999999999,
              39.974000000000004
            ],
            [
              116.34899999999999,
              39.976
            ],
            [
              116.345,
              39.976
            ],
            [
              116.345,
              39.974000000000004
            ]
          ]
        ]
      }
    },
    {
      "type": "Feature",
      "id": "LU-018",
      "properties": {
        "id": "LU-018",
        "layer": "LAND_USE",
        "source_type": "agent_inferred_from_public_data",
        "confidence": "medium",
        "geometry_role": "provisional_constraint",
        "official_boundary": false,
        "boundary_precision": "provisional_rough",
        "land_use_code": "1401",
        "land_use_label_zh": "小月河场景赋能翼滨水绿带",
        "name_zh": "小月河场景赋能翼滨水绿带",
        "area_sqm_declared": 474290.274,
        "area_sqm_calculated": 474290.274
      },
      "geometry": {
        "type": "Polygon",
        "coordinates": [
          [
            [
              116.35125000000001,
              39.965
            ],
            [
              116.35375,
              39.965
            ],
            [
              116.35375,
              39.985
            ],
            [
              116.35125000000001,
              39.985
            ],
            [
              116.35125000000001,
              39.965
            ]
          ]
        ]
      }
    }
  ]
}