{
  "type": "FeatureCollection",
  "name": "phasing",
  "metadata": {
    "coordinate_reference_system": "EPSG:4326",
    "area_calculation_crs": "EPSG:4548",
    "source": "Derived from provisional boundaries in brief/site-package/geometry/provisional_boundaries.geojson",
    "boundary_status": "provisional_constraint",
    "official_boundary": false,
    "usage_note": "All geometries are derived from provisional boundaries. Do not use as official redline, approval basis, or precise area calculation basis."
  },
  "features": [
    {
      "type": "Feature",
      "id": "PHASE-001",
      "properties": {
        "id": "PHASE-001",
        "layer": "PHASE",
        "source_type": "agent_inferred_from_public_data",
        "confidence": "medium",
        "geometry_role": "provisional_constraint",
        "official_boundary": false,
        "boundary_precision": "provisional_rough",
        "phase": "near_term",
        "phase_en": "near_term",
        "name_zh": "近期试点-数据公共主轴与三心试点",
        "area_sqm_declared": 1896808.024,
        "area_sqm_calculated": 1896808.024
      },
      "geometry": {
        "type": "Polygon",
        "coordinates": [
          [
            [
              116.3425,
              39.978
            ],
            [
              116.35249999999999,
              39.978
            ],
            [
              116.35249999999999,
              39.998
            ],
            [
              116.3425,
              39.998
            ],
            [
              116.3425,
              39.978
            ]
          ]
        ]
      }
    },
    {
      "type": "Feature",
      "id": "PHASE-002",
      "properties": {
        "id": "PHASE-002",
        "layer": "PHASE",
        "source_type": "agent_inferred_from_public_data",
        "confidence": "medium",
        "geometry_role": "provisional_constraint",
        "official_boundary": false,
        "boundary_precision": "provisional_rough",
        "phase": "mid_term",
        "phase_en": "mid_term",
        "name_zh": "中期拓展-服务舱网络全覆盖",
        "area_sqm_declared": 4173759.095,
        "area_sqm_calculated": 4173759.095
      },
      "geometry": {
        "type": "Polygon",
        "coordinates": [
          [
            [
              116.342,
              39.955
            ],
            [
              116.353,
              39.955
            ],
            [
              116.353,
              39.995000000000005
            ],
            [
              116.342,
              39.995000000000005
            ],
            [
              116.342,
              39.955
            ]
          ]
        ]
      }
    },
    {
      "type": "Feature",
      "id": "PHASE-003",
      "properties": {
        "id": "PHASE-003",
        "layer": "PHASE",
        "source_type": "agent_inferred_from_public_data",
        "confidence": "medium",
        "geometry_role": "provisional_constraint",
        "official_boundary": false,
        "boundary_precision": "provisional_rough",
        "phase": "long_term",
        "phase_en": "long_term",
        "name_zh": "长期治理-全域数据公共带运营",
        "area_sqm_declared": 9105463.591,
        "area_sqm_calculated": 9105463.591
      },
      "geometry": {
        "type": "Polygon",
        "coordinates": [
          [
            [
              116.3415,
              39.942
            ],
            [
              116.3535,
              39.942
            ],
            [
              116.3535,
              40.022
            ],
            [
              116.3415,
              40.022
            ],
            [
              116.3415,
              39.942
            ]
          ]
        ]
      }
    }
  ]
}