{
  "type": "FeatureCollection",
  "name": "public_space",
  "metadata": {
    "coordinate_reference_system": "EPSG:4326",
    "area_calculation_crs": "EPSG:4548",
    "source": "Derived from provisional boundaries in brief/site-package/geometry/provisional_boundaries.geojson",
    "boundary_status": "provisional_constraint",
    "official_boundary": false,
    "usage_note": "All geometries are derived from provisional boundaries. Do not use as official redline, approval basis, or precise area calculation basis."
  },
  "features": [
    {
      "type": "Feature",
      "id": "PUBLIC-001",
      "properties": {
        "id": "PUBLIC-001",
        "layer": "PUBLIC_SPACE",
        "source_type": "agent_inferred_from_public_data",
        "confidence": "medium",
        "geometry_role": "provisional_constraint",
        "official_boundary": false,
        "boundary_precision": "provisional_rough",
        "space_type": "service_plaza",
        "name_zh": "市民服务公共客厅广场",
        "area_sqm_declared": 85352.672,
        "area_sqm_calculated": 85352.672
      },
      "geometry": {
        "type": "Polygon",
        "coordinates": [
          [
            [
              116.346,
              39.9895
            ],
            [
              116.34899999999999,
              39.9895
            ],
            [
              116.34899999999999,
              39.9925
            ],
            [
              116.346,
              39.9925
            ],
            [
              116.346,
              39.9895
            ]
          ]
        ]
      }
    },
    {
      "type": "Feature",
      "id": "PUBLIC-002",
      "properties": {
        "id": "PUBLIC-002",
        "layer": "PUBLIC_SPACE",
        "source_type": "agent_inferred_from_public_data",
        "confidence": "medium",
        "geometry_role": "provisional_constraint",
        "official_boundary": false,
        "boundary_precision": "provisional_rough",
        "space_type": "landmark_plaza",
        "name_zh": "共创之环展示广场",
        "area_sqm_declared": 59276.96,
        "area_sqm_calculated": 59276.96
      },
      "geometry": {
        "type": "Polygon",
        "coordinates": [
          [
            [
              116.34625,
              39.98475
            ],
            [
              116.34875,
              39.98475
            ],
            [
              116.34875,
              39.987249999999996
            ],
            [
              116.34625,
              39.987249999999996
            ],
            [
              116.34625,
              39.98475
            ]
          ]
        ]
      }
    },
    {
      "type": "Feature",
      "id": "PUBLIC-003",
      "properties": {
        "id": "PUBLIC-003",
        "layer": "PUBLIC_SPACE",
        "source_type": "agent_inferred_from_public_data",
        "confidence": "medium",
        "geometry_role": "provisional_constraint",
        "official_boundary": false,
        "boundary_precision": "provisional_rough",
        "space_type": "landmark_plaza",
        "name_zh": "市民AI广场",
        "area_sqm_declared": 74397.699,
        "area_sqm_calculated": 74397.699
      },
      "geometry": {
        "type": "Polygon",
        "coordinates": [
          [
            [
              116.3471,
              39.946600000000004
            ],
            [
              116.3499,
              39.946600000000004
            ],
            [
              116.3499,
              39.9494
            ],
            [
              116.3471,
              39.9494
            ],
            [
              116.3471,
              39.946600000000004
            ]
          ]
        ]
      }
    },
    {
      "type": "Feature",
      "id": "PUBLIC-004",
      "properties": {
        "id": "PUBLIC-004",
        "layer": "PUBLIC_SPACE",
        "source_type": "agent_inferred_from_public_data",
        "confidence": "medium",
        "geometry_role": "provisional_constraint",
        "official_boundary": false,
        "boundary_precision": "provisional_rough",
        "space_type": "landmark_plaza",
        "name_zh": "数据灯塔广场",
        "area_sqm_declared": 59247.04,
        "area_sqm_calculated": 59247.04
      },
      "geometry": {
        "type": "Polygon",
        "coordinates": [
          [
            [
              116.34725,
              40.01975
            ],
            [
              116.34975,
              40.01975
            ],
            [
              116.34975,
              40.02225
            ],
            [
              116.34725,
              40.02225
            ],
            [
              116.34725,
              40.01975
            ]
          ]
        ]
      }
    },
    {
      "type": "Feature",
      "id": "PUBLIC-005",
      "properties": {
        "id": "PUBLIC-005",
        "layer": "PUBLIC_SPACE",
        "source_type": "agent_inferred_from_public_data",
        "confidence": "medium",
        "geometry_role": "provisional_constraint",
        "official_boundary": false,
        "boundary_precision": "provisional_rough",
        "space_type": "station_plaza",
        "name_zh": "大钟寺站前共享广场",
        "area_sqm_declared": 71173.82,
        "area_sqm_calculated": 71173.82
      },
      "geometry": {
        "type": "Polygon",
        "coordinates": [
          [
            [
              116.34750000000001,
              39.944250000000004
            ],
            [
              116.3505,
              39.944250000000004
            ],
            [
              116.3505,
              39.94675
            ],
            [
              116.34750000000001,
              39.94675
            ],
            [
              116.34750000000001,
              39.944250000000004
            ]
          ]
        ]
      }
    }
  ]
}