{
  "type": "FeatureCollection",
  "name": "building_footprints",
  "features": [
    {
      "type": "Feature",
      "id": "BLDG-001",
      "properties": {
        "id": "BLDG-001",
        "layer": "BUILDING_FOOTPRINT",
        "source_type": "agent_generated_design",
        "confidence": "medium",
        "geometry_role": "design_proposal",
        "building_type": "ai_r_and_d",
        "building_strategy": "new",
        "name_zh": "智源椎-AI研发示范建筑",
        "name_en": "Source Vertebra - AI R&D Demonstration Building",
        "key_area_id": "zhongzhiyuan_ai_acceleration_area",
        "area_sqm_declared": 86500
      },
      "geometry": {
        "type": "Polygon",
        "coordinates": [
          [
            [116.341572, 40.014],
            [116.341572, 40.018],
            [116.343044, 40.018],
            [116.343044, 40.014],
            [116.341572, 40.014]
          ]
        ]
      }
    },
    {
      "type": "Feature",
      "id": "BLDG-002",
      "properties": {
        "id": "BLDG-002",
        "layer": "BUILDING_FOOTPRINT",
        "source_type": "agent_generated_design",
        "confidence": "medium",
        "geometry_role": "design_proposal",
        "building_type": "existing_office",
        "building_strategy": "retain",
        "name_zh": "AI原点社区-保留办公建筑",
        "name_en": "AI Origin Community - Retained Office Building",
        "key_area_id": "ai_origin_community",
        "area_sqm_declared": 52300
      },
      "geometry": {
        "type": "Polygon",
        "coordinates": [
          [
            [116.3475, 39.975],
            [116.3475, 39.978],
            [116.3495, 39.978],
            [116.3495, 39.975],
            [116.3475, 39.975]
          ]
        ]
      }
    },
    {
      "type": "Feature",
      "id": "BLDG-003",
      "properties": {
        "id": "BLDG-003",
        "layer": "BUILDING_FOOTPRINT",
        "source_type": "agent_generated_design",
        "confidence": "medium",
        "geometry_role": "design_proposal",
        "building_type": "mixed_use",
        "building_strategy": "renovate",
        "name_zh": "AI原点社区-改造混合功能建筑",
        "name_en": "AI Origin Community - Renovated Mixed-Use Building",
        "key_area_id": "ai_origin_community",
        "area_sqm_declared": 41800
      },
      "geometry": {
        "type": "Polygon",
        "coordinates": [
          [
            [116.3500, 39.976],
            [116.3500, 39.979],
            [116.3520, 39.979],
            [116.3520, 39.976],
            [116.3500, 39.976]
          ]
        ]
      }
    },
    {
      "type": "Feature",
      "id": "BLDG-004",
      "properties": {
        "id": "BLDG-004",
        "layer": "BUILDING_FOOTPRINT",
        "source_type": "agent_generated_design",
        "confidence": "medium",
        "geometry_role": "design_proposal",
        "building_type": "commercial",
        "building_strategy": "new",
        "name_zh": "智汇椎-大钟寺商业新建筑",
        "name_en": "Convergence Vertebra - Dazhongsi New Commercial Building",
        "key_area_id": "dazhongsi_ai_industry_cluster",
        "area_sqm_declared": 68200
      },
      "geometry": {
        "type": "Polygon",
        "coordinates": [
          [
            [116.3480, 39.948],
            [116.3480, 39.952],
            [116.3500, 39.952],
            [116.3500, 39.948],
            [116.3480, 39.948]
          ]
        ]
      }
    },
    {
      "type": "Feature",
      "id": "BLDG-005",
      "properties": {
        "id": "BLDG-005",
        "layer": "BUILDING_FOOTPRINT",
        "source_type": "agent_generated_design",
        "confidence": "medium",
        "geometry_role": "design_proposal",
        "building_type": "incubator",
        "building_strategy": "renew",
        "name_zh": "智汇椎-大钟寺更新孵化建筑",
        "name_en": "Convergence Vertebra - Dazhongsi Renewed Incubator Building",
        "key_area_id": "dazhongsi_ai_industry_cluster",
        "area_sqm_declared": 62000
      },
      "geometry": {
        "type": "Polygon",
        "coordinates": [
          [
            [116.3420, 39.950],
            [116.3420, 39.953],
            [116.3440, 39.953],
            [116.3440, 39.950],
            [116.3420, 39.950]
          ]
        ]
      }
    }
  ]
}
