{"type": "FeatureCollection", "name": "green_space", "features": [{"type": "Feature", "id": "GREEN-88777865", "properties": {"id": "GREEN-88777865", "osm_id": 88777865, "layer": "GREEN_SPACE", "source_type": "osm", "confidence": "high", "geometry_role": "existing_condition", "source_id": "DATA-SRC-OSM-20260820", "osm_tags": {"dog": "no", "leisure": "park", "name": "绿园", "name:zh": "绿园", "name:zh-Hans": "绿园", "name:zh-Hant": "綠園"}, "category": "park"}, "geometry": {"type": "Polygon", "coordinates": [[[116.3406285, 39.9833072], [116.3414316, 39.9833301], [116.3414356, 39.9832901], [116.3413015, 39.983288], [116.3413095, 39.9831246], [116.3415201, 39.9831298], [116.3415188, 39.983212], [116.3415919, 39.9832117], [116.3416335, 39.9820998], [116.3415035, 39.9819487], [116.3408641, 39.981915], [116.34014553742837, 39.98190583013984], [116.34023520053796, 39.983295608338366], [116.3406285, 39.9833072]]]}}, {"type": "Feature", "id": "GREEN-232724484", "properties": {"id": "GREEN-232724484", "osm_id": 232724484, "layer": "GREEN_SPACE", "source_type": "osm", "confidence": "high", "geometry_role": "existing_condition", "source_id": "DATA-SRC-OSM-20260820", "osm_tags": {"leisure": "park"}, "category": "park"}, "geometry": {"type": "Polygon", "coordinates": [[[116.3411039, 39.9426413], [116.3418476, 39.9424641], [116.3436602, 39.9419668], [116.3440515, 39.9418747], [116.3444546, 39.9419731], [116.3447922, 39.9421347], [116.3449446, 39.9419463], [116.3451326, 39.941578], [116.3442384, 39.9414291], [116.343909, 39.9414293], [116.3435373, 39.9414889], [116.3433448, 39.9415285], [116.3431368, 39.9415816], [116.3417713, 39.9418493], [116.3409881, 39.9418575], [116.3408815, 39.9418542], [116.3408528, 39.9417442], [116.34062389281075, 39.94173985881269], [116.34060078108493, 39.94257188094257], [116.3411039, 39.9426413]]]}}, {"type": "Feature", "id": "GREEN-232724486", "properties": {"id": "GREEN-232724486", "osm_id": 232724486, "layer": "GREEN_SPACE", "source_type": "osm", "confidence": "high", "geometry_role": "existing_condition", "source_id": "DATA-SRC-OSM-20260820", "osm_tags": {"leisure": "park"}, "category": "park"}, "geometry": {"type": "Polygon", "coordinates": [[[116.3539268, 39.9438685], [116.3536747, 39.9438397], [116.3527265, 39.9436141], [116.3526729, 39.9435195], [116.351026, 39.9430794], [116.3508369, 39.9430788], [116.3506773, 39.9431288], [116.3505861, 39.9432316], [116.3504775, 39.9433667], [116.3504721, 39.9434202], [116.3504937, 39.9435702], [116.3504771, 39.9447369], [116.3504803, 39.9453069], [116.3505471, 39.945505], [116.3505382, 39.9461573], [116.3504999, 39.9462323], [116.3504882, 39.946554], [116.3506545, 39.946554], [116.3508507, 39.9466251], [116.3534373, 39.9464962], [116.3538743, 39.9464519], [116.3540821, 39.9463042], [116.3542508, 39.9461814], [116.3534501, 39.9460659], [116.3513862, 39.9461807], [116.3507891, 39.9462139], [116.3507334, 39.9439914], [116.3509938, 39.9435647], [116.3512714, 39.9434407], [116.35329, 39.9440451], [116.3553, 39.94460466983493], [116.3553, 39.94423377132953], [116.3539268, 39.9438685]]]}}, {"type": "Feature", "id": "GREEN-232724489", "properties": {"id": "GREEN-232724489", "osm_id": 232724489, "layer": "GREEN_SPACE", "source_type": "osm", "confidence": "high", "geometry_role": "existing_condition", "source_id": "DATA-SRC-OSM-20260820", "osm_tags": {"leisure": "park"}, "category": "park"}, "geometry": {"type": "Polygon", "coordinates": [[[116.3501288, 39.9497659], [116.3505848, 39.9484499], [116.3506559, 39.9482531], [116.3506398, 39.9481832], [116.3507028, 39.9481415], [116.3506827, 39.9480598], [116.3506398, 39.9480393], [116.3506666, 39.9479077], [116.3505164, 39.9473607], [116.3504668, 39.9468049], [116.3503984, 39.9468055], [116.3503434, 39.9481086], [116.3503166, 39.9484417], [116.3502093, 39.94882], [116.3498351, 39.9498899], [116.3498083, 39.9499392], [116.3498874, 39.9499921], [116.3501288, 39.9497659]]]}}, {"type": "Feature", "id": "GREEN-232724490", "properties": {"id": "GREEN-232724490", "osm_id": 232724490, "layer": "GREEN_SPACE", "source_type": "osm", "confidence": "high", "geometry_role": "existing_condition", "source_id": "DATA-SRC-OSM-20260820", "osm_tags": {"alt_name": "北土城公园", "emergency": "designated", "leisure": "park", "name": "元大都城垣遗址公园"}, "category": "park"}, "geometry": {"type": "Polygon", "coordinates": [[[116.3484017, 39.973618], [116.348376, 39.9746749], [116.3487072, 39.9746661], [116.3486979, 39.9750313], [116.3492217, 39.9750356], [116.3493255, 39.9750418], [116.3497521, 39.9750675], [116.351346, 39.975081], [116.3544913972373, 39.975107534533755], [116.3546093398251, 39.9736332521863], [116.3484017, 39.973618]]]}}, {"type": "Feature", "id": "GREEN-232724492", "properties": {"id": "GREEN-232724492", "osm_id": 232724492, "layer": "GREEN_SPACE", "source_type": "osm", "confidence": "high", "geometry_role": "existing_condition", "source_id": "DATA-SRC-OSM-20260820", "osm_tags": {"leisure": "park", "name": "元大都城垣遗址公园", "name:zh": "元大都城垣遗址公园", "name:zh-Hans": "元大都城垣遗址公园", "name:zh-Hant": "元大都城垣遺址公園"}, "category": "park"}, "geometry": {"type": "Polygon", "coordinates": [[[116.3487682, 39.9568931], [116.348532, 39.9568966], [116.3478817, 39.9580713], [116.3476213, 39.9585902], [116.3474963, 39.9589893], [116.347489, 39.9593731], [116.3474353, 39.960106], [116.3475097, 39.9601156], [116.3474756, 39.9605917], [116.3474006, 39.9606226], [116.3472743, 39.9636296], [116.3472982, 39.9637707], [116.3474255, 39.9637803], [116.3476773, 39.9638864], [116.3476665, 39.9643593], [116.3477363, 39.964902], [116.3477041, 39.9656749], [116.3476236, 39.9660655], [116.3475753, 39.9668878], [116.3476142, 39.9672502], [116.347664, 39.9675677], [116.3476535, 39.9678822], [116.3475248, 39.9685862], [116.3474064, 39.9705874], [116.3473798, 39.9709099], [116.3472803, 39.9721173], [116.3471904, 39.9729935], [116.3471408, 39.9739878], [116.3471825, 39.9740994], [116.3472544, 39.9741881], [116.3473358, 39.9742804], [116.3474346, 39.9743624], [116.3475975, 39.9744087], [116.3478919, 39.9744297], [116.3479625, 39.9727521], [116.3480264, 39.9713776], [116.3479754, 39.9712723], [116.3479874, 39.9708315], [116.3480609, 39.9708031], [116.3482491, 39.9677953], [116.3481985, 39.9677607], [116.3482062, 39.9674865], [116.3482452, 39.9674609], [116.3483138, 39.966078], [116.3483847, 39.9652153], [116.3483478, 39.9651881], [116.3483625, 39.9648938], [116.3483987, 39.9648678], [116.3484412, 39.9637652], [116.3487798, 39.9572167], [116.3487682, 39.9568931]]]}}, {"type": "Feature", "id": "GREEN-265003799", "properties": {"id": "GREEN-265003799", "osm_id": 265003799, "layer": "GREEN_SPACE", "source_type": "osm", "confidence": "high", "geometry_role": "existing_condition", "source_id": "DATA-SRC-OSM-20260820", "osm_tags": {"leisure": "park"}, "category": "park"}, "geometry": {"type": "Polygon", "coordinates": [[[116.3444309, 39.9840102], [116.3437101, 39.9839875], [116.3436792, 39.9845628], [116.3436777, 39.9845919], [116.3443985, 39.9846146], [116.3444309, 39.9840102]]]}}, {"type": "Feature", "id": "GREEN-290283261", "properties": {"id": "GREEN-290283261", "osm_id": 290283261, "layer": "GREEN_SPACE", "source_type": "osm", "confidence": "high", "geometry_role": "existing_condition", "source_id": "DATA-SRC-OSM-20260820", "osm_tags": {"landuse": "grass"}, "category": "grass"}, "geometry": {"type": "Polygon", "coordinates": [[[116.3450156, 39.994989], [116.3462285, 39.995035], [116.3462512, 39.9946827], [116.3450383, 39.9946368], [116.3450156, 39.994989]]]}}, {"type": "Feature", "id": "GREEN-325387939", "properties": {"id": "GREEN-325387939", "osm_id": 325387939, "layer": "GREEN_SPACE", "source_type": "osm", "confidence": "high", "geometry_role": "existing_condition", "source_id": "DATA-SRC-OSM-20260820", "osm_tags": {"landuse": "grass"}, "category": "grass"}, "geometry": {"type": "Polygon", "coordinates": [[[116.3526895, 39.9669139], [116.3546792, 39.9668993], [116.3546834, 39.9666859], [116.3538007, 39.9666939], [116.3530874, 39.9666903], [116.35269, 39.9666856], [116.3526895, 39.9669139]]]}}, {"type": "Feature", "id": "GREEN-325387940", "properties": {"id": "GREEN-325387940", "osm_id": 325387940, "layer": "GREEN_SPACE", "source_type": "osm", "confidence": "high", "geometry_role": "existing_condition", "source_id": "DATA-SRC-OSM-20260820", "osm_tags": {"landuse": "grass"}, "category": "grass"}, "geometry": {"type": "Polygon", "coordinates": [[[116.3549041, 39.9667112], [116.3550181, 39.966885], [116.3551492419807, 39.96688447524125], [116.3551630199773, 39.966712250283855], [116.3549041, 39.9667112]]]}}, {"type": "Feature", "id": "GREEN-365805612", "properties": {"id": "GREEN-365805612", "osm_id": 365805612, "layer": "GREEN_SPACE", "source_type": "osm", "confidence": "high", "geometry_role": "existing_condition", "source_id": "DATA-SRC-OSM-20260820", "osm_tags": {"leisure": "park", "name": "青年园", "name:zh": "青年园", "name:zh-Hans": "青年园", "name:zh-Hant": "青年園"}, "category": "park"}, "geometry": {"type": "Polygon", "coordinates": [[[116.3535084, 39.9951495], [116.35358242429064, 39.99515424330406], [116.35355186557622, 39.99459654676587], [116.3535084, 39.9951495]]]}}, {"type": "Feature", "id": "GREEN-399054822", "properties": {"id": "GREEN-399054822", "osm_id": 399054822, "layer": "GREEN_SPACE", "source_type": "osm", "confidence": "high", "geometry_role": "existing_condition", "source_id": "DATA-SRC-OSM-20260820", "osm_tags": {"landuse": "forest", "name": "小松林", "name:zh": "小松林", "name:zh-Hans": "小松林", "name:zh-Hant": "小松林"}, "category": "forest"}, "geometry": {"type": "Polygon", "coordinates": [[[116.3512936, 39.9618829], [116.3513064, 39.9616348], [116.3510817, 39.961628], [116.351069, 39.9618761], [116.3512936, 39.9618829]]]}}, {"type": "Feature", "id": "GREEN-399054823", "properties": {"id": "GREEN-399054823", "osm_id": 399054823, "layer": "GREEN_SPACE", "source_type": "osm", "confidence": "high", "geometry_role": "existing_condition", "source_id": "DATA-SRC-OSM-20260820", "osm_tags": {"landuse": "grass"}, "category": "grass"}, "geometry": {"type": "Polygon", "coordinates": [[[116.3512483, 39.9615163], [116.3512517, 39.9613757], [116.3511263, 39.9613739], [116.3511229, 39.9615144], [116.3512483, 39.9615163]]]}}, {"type": "Feature", "id": "GREEN-435148053", "properties": {"id": "GREEN-435148053", "osm_id": 435148053, "layer": "GREEN_SPACE", "source_type": "osm", "confidence": "high", "geometry_role": "existing_condition", "source_id": "DATA-SRC-OSM-20260820", "osm_tags": {"leisure": "park", "name": "元大都公园明光村小区处"}, "category": "park"}, "geometry": {"type": "Polygon", "coordinates": [[[116.3484485, 39.9565771], [116.3485442, 39.9564554], [116.3485839, 39.9562334], [116.3485652, 39.9560491], [116.3485442, 39.9560085], [116.3483737, 39.9559667], [116.3480585, 39.9559291], [116.3478694, 39.9559703], [116.3476849, 39.9560652], [116.3476195, 39.9561994], [116.3475448, 39.9564518], [116.3475191, 39.9566093], [116.3484485, 39.9565771]]]}}, {"type": "Feature", "id": "GREEN-437731457", "properties": {"id": "GREEN-437731457", "osm_id": 437731457, "layer": "GREEN_SPACE", "source_type": "osm", "confidence": "high", "geometry_role": "existing_condition", "source_id": "DATA-SRC-OSM-20260820", "osm_tags": {"leisure": "park", "name": "冬日广场", "name:zh": "冬日广场", "name:zh-Hans": "冬日广场", "name:zh-Hant": "冬日廣場"}, "category": "park"}, "geometry": {"type": "Polygon", "coordinates": [[[116.341616, 39.9896858], [116.3416315, 39.9891988], [116.3416377, 39.9890046], [116.3410924, 39.9889944], [116.3410709, 39.9896756], [116.341616, 39.9896858]]]}}, {"type": "Feature", "id": "GREEN-437731466", "properties": {"id": "GREEN-437731466", "osm_id": 437731466, "layer": "GREEN_SPACE", "source_type": "osm", "confidence": "high", "geometry_role": "existing_condition", "source_id": "DATA-SRC-OSM-20260820", "osm_tags": {"leisure": "park", "name": "小花园", "name:zh": "小花园", "name:zh-Hans": "小花园", "name:zh-Hant": "小花園"}, "category": "park"}, "geometry": {"type": "Polygon", "coordinates": [[[116.3446282, 39.9906485], [116.3446393, 39.9902261], [116.3441525, 39.9902187], [116.3441415, 39.990641], [116.3446282, 39.9906485]]]}}, {"type": "Feature", "id": "GREEN-437945145", "properties": {"id": "GREEN-437945145", "osm_id": 437945145, "layer": "GREEN_SPACE", "source_type": "osm", "confidence": "high", "geometry_role": "existing_condition", "source_id": "DATA-SRC-OSM-20260820", "osm_tags": {"leisure": "park", "name": "花园", "name:zh": "花园", "name:zh-Hans": "花园", "name:zh-Hant": "花園"}, "category": "park"}, "geometry": {"type": "Polygon", "coordinates": [[[116.3458437, 39.9911695], [116.3458633, 39.9907026], [116.3448259, 39.9906771], [116.3448064, 39.9911441], [116.3458437, 39.9911695]]]}}, {"type": "Feature", "id": "GREEN-489134502", "properties": {"id": "GREEN-489134502", "osm_id": 489134502, "layer": "GREEN_SPACE", "source_type": "osm", "confidence": "high", "geometry_role": "existing_condition", "source_id": "DATA-SRC-OSM-20260820", "osm_tags": {"leisure": "park"}, "category": "park"}, "geometry": {"type": "Polygon", "coordinates": [[[116.3544559, 39.9499702], [116.3543945, 39.9502117], [116.3547198, 39.9502211], [116.3547318, 39.9499746], [116.3544559, 39.9499702]]]}}, {"type": "Feature", "id": "GREEN-492129735", "properties": {"id": "GREEN-492129735", "osm_id": 492129735, "layer": "EXISTING_WATER", "source_type": "osm", "confidence": "high", "geometry_role": "existing_condition", "source_id": "DATA-SRC-OSM-20260820", "osm_tags": {"intermittent": "no", "natural": "water", "salt": "no", "water": "canal"}, "category": "water"}, "geometry": {"type": "Polygon", "coordinates": [[[116.3430072, 40.0253607], [116.3434595, 40.0254236], [116.3436899, 40.0254151], [116.3455145, 40.0256939], [116.3460124, 40.0258504], [116.3462094, 40.0258846], [116.3485133, 40.0261976], [116.3503342, 40.0264765], [116.35049939409282, 40.0265], [116.3547685385652, 40.0265], [116.3525378, 40.0263285], [116.3516051, 40.0262118], [116.3463655, 40.0254151], [116.3456483, 40.0253638], [116.344177, 40.0251503], [116.3442265, 40.0250745], [116.3441434, 40.0250604], [116.3440851, 40.0250506], [116.3440452, 40.0251303], [116.3437531, 40.0250878], [116.3435859, 40.0250309], [116.3431051, 40.0249311], [116.342969, 40.0249028], [116.34261926870352, 40.024845008422126], [116.34264194898175, 40.02530995412601], [116.3430072, 40.0253607]]]}}, {"type": "Feature", "id": "GREEN-534630798", "properties": {"id": "GREEN-534630798", "osm_id": 534630798, "layer": "GREEN_SPACE", "source_type": "osm", "confidence": "high", "geometry_role": "existing_condition", "source_id": "DATA-SRC-OSM-20260820", "osm_tags": {"barrier": "kerb", "landuse": "grass"}, "category": "grass"}, "geometry": {"type": "Polygon", "coordinates": [[[116.3510097, 39.962372], [116.3510148, 39.9623802], [116.3510236, 39.96239], [116.3510335, 39.9623953], [116.3510479, 39.9623976], [116.3511777, 39.9623988], [116.3511846, 39.962183], [116.351195, 39.9619751], [116.3510287, 39.9619709], [116.3510086, 39.9623636], [116.3510097, 39.962372]]]}}, {"type": "Feature", "id": "GREEN-543823927", "properties": {"id": "GREEN-543823927", "osm_id": 543823927, "layer": "GREEN_SPACE", "source_type": "osm", "confidence": "high", "geometry_role": "existing_condition", "source_id": "DATA-SRC-OSM-20260820", "osm_tags": {"landuse": "grass"}, "category": "grass"}, "geometry": {"type": "Polygon", "coordinates": [[[116.3501972, 39.9888701], [116.350226, 39.9888566], [116.3502619, 39.9888553], [116.3502918, 39.9888711], [116.3504292, 39.9888687], [116.3504844, 39.9882987], [116.3501015, 39.9882889], [116.3500774, 39.9888679], [116.3501972, 39.9888701]]]}}, {"type": "Feature", "id": "GREEN-543823928", "properties": {"id": "GREEN-543823928", "osm_id": 543823928, "layer": "GREEN_SPACE", "source_type": "osm", "confidence": "high", "geometry_role": "existing_condition", "source_id": "DATA-SRC-OSM-20260820", "osm_tags": {"landuse": "grass"}, "category": "grass"}, "geometry": {"type": "Polygon", "coordinates": [[[116.3501724, 39.9893255], [116.3501751, 39.9892442], [116.3503058, 39.9892467], [116.3503084, 39.9891708], [116.3504196, 39.989173], [116.3504282, 39.9889179], [116.3502732, 39.9889102], [116.3502425, 39.9889226], [116.3502241, 39.9889126], [116.3500774, 39.988911], [116.3500635, 39.9893234], [116.3501724, 39.9893255]]]}}, {"type": "Feature", "id": "GREEN-543827762", "properties": {"id": "GREEN-543827762", "osm_id": 543827762, "layer": "GREEN_SPACE", "source_type": "osm", "confidence": "high", "geometry_role": "existing_condition", "source_id": "DATA-SRC-OSM-20260820", "osm_tags": {"landuse": "grass"}, "category": "grass"}, "geometry": {"type": "Polygon", "coordinates": [[[116.3483107, 39.9887602], [116.3479178, 39.9887468], [116.3479081, 39.9888222], [116.3479096, 39.9888867], [116.3483026, 39.9889001], [116.3483107, 39.9887602]]]}}, {"type": "Feature", "id": "GREEN-543827763", "properties": {"id": "GREEN-543827763", "osm_id": 543827763, "layer": "GREEN_SPACE", "source_type": "osm", "confidence": "high", "geometry_role": "existing_condition", "source_id": "DATA-SRC-OSM-20260820", "osm_tags": {"landuse": "grass"}, "category": "grass"}, "geometry": {"type": "Polygon", "coordinates": [[[116.3486672, 39.9889171], [116.3486728, 39.988767], [116.3485206, 39.9887636], [116.3485149, 39.9889138], [116.3486672, 39.9889171]]]}}, {"type": "Feature", "id": "GREEN-543828354", "properties": {"id": "GREEN-543828354", "osm_id": 543828354, "layer": "GREEN_SPACE", "source_type": "osm", "confidence": "high", "geometry_role": "existing_condition", "source_id": "DATA-SRC-OSM-20260820", "osm_tags": {"landuse": "grass"}, "category": "grass"}, "geometry": {"type": "Polygon", "coordinates": [[[116.3498929, 39.9863907], [116.3499042, 39.9862011], [116.3499568, 39.9861549], [116.3499617, 39.9859514], [116.3497971, 39.9859465], [116.3497444, 39.9859785], [116.34972, 39.9863846], [116.3498929, 39.9863907]]]}}, {"type": "Feature", "id": "GREEN-543828355", "properties": {"id": "GREEN-543828355", "osm_id": 543828355, "layer": "GREEN_SPACE", "source_type": "osm", "confidence": "high", "geometry_role": "existing_condition", "source_id": "DATA-SRC-OSM-20260820", "osm_tags": {"landuse": "grass"}, "category": "grass"}, "geometry": {"type": "Polygon", "coordinates": [[[116.3500355, 39.9867483], [116.3500413, 39.9866444], [116.3500703, 39.9866435], [116.3502445, 39.9866501], [116.3502077, 39.9872889], [116.3503103, 39.9871943], [116.3503513, 39.986457], [116.350352, 39.9864442], [116.3499349, 39.9864306], [116.3499332, 39.986462], [116.3499288, 39.9865269], [116.3499293, 39.9865318], [116.349926, 39.9865907], [116.3499175, 39.9867444], [116.3500355, 39.9867483]]]}}, {"type": "Feature", "id": "GREEN-543828356", "properties": {"id": "GREEN-543828356", "osm_id": 543828356, "layer": "GREEN_SPACE", "source_type": "osm", "confidence": "high", "geometry_role": "existing_condition", "source_id": "DATA-SRC-OSM-20260820", "osm_tags": {"landuse": "grass"}, "category": "grass"}, "geometry": {"type": "Polygon", "coordinates": [[[116.3508344, 39.9870913], [116.3508366, 39.9870281], [116.3508384, 39.9869787], [116.3508665, 39.9869793], [116.3508721, 39.9868211], [116.3505595, 39.9868146], [116.35055, 39.9870855], [116.3508344, 39.9870913]]]}}, {"type": "Feature", "id": "GREEN-543828357", "properties": {"id": "GREEN-543828357", "osm_id": 543828357, "layer": "GREEN_SPACE", "source_type": "osm", "confidence": "high", "geometry_role": "existing_condition", "source_id": "DATA-SRC-OSM-20260820", "osm_tags": {"landuse": "grass"}, "category": "grass"}, "geometry": {"type": "Polygon", "coordinates": [[[116.3499629, 39.9871379], [116.3499765, 39.986817], [116.3498792, 39.9868145], [116.3498656, 39.9871354], [116.3499629, 39.9871379]]]}}, {"type": "Feature", "id": "GREEN-543828493", "properties": {"id": "GREEN-543828493", "osm_id": 543828493, "layer": "GREEN_SPACE", "source_type": "osm", "confidence": "high", "geometry_role": "existing_condition", "source_id": "DATA-SRC-OSM-20260820", "osm_tags": {"leisure": "park"}, "category": "park"}, "geometry": {"type": "Polygon", "coordinates": [[[116.3498418, 39.9826499], [116.3498361, 39.9827994], [116.3498151, 39.9832869], [116.3505886, 39.9833065], [116.3505725, 39.9836819], [116.3506888, 39.9836848], [116.3508908, 39.9836881], [116.3509023, 39.9832672], [116.3509559, 39.9832663], [116.3509587, 39.9830211], [116.3511732, 39.9830172], [116.3511762, 39.9828586], [116.3509806, 39.9828536], [116.3509799, 39.9826331], [116.3507876, 39.9826201], [116.3508033, 39.982201], [116.350692, 39.9821985], [116.3506839, 39.9824152], [116.3506829, 39.9824417], [116.3505245, 39.9824383], [116.3505194, 39.9825748], [116.3499107, 39.9825614], [116.3498418, 39.9826499]]]}}, {"type": "Feature", "id": "GREEN-543828494", "properties": {"id": "GREEN-543828494", "osm_id": 543828494, "layer": "GREEN_SPACE", "source_type": "osm", "confidence": "high", "geometry_role": "existing_condition", "source_id": "DATA-SRC-OSM-20260820", "osm_tags": {"landuse": "recreation_ground"}, "category": "recreation_ground"}, "geometry": {"type": "Polygon", "coordinates": [[[116.353628, 39.984455], [116.3536259, 39.9844877], [116.3536117, 39.9847076], [116.35372320312598, 39.98470996092523], [116.35374320062516, 39.98445999218557], [116.353628, 39.984455]]]}}, {"type": "Feature", "id": "GREEN-543828495", "properties": {"id": "GREEN-543828495", "osm_id": 543828495, "layer": "GREEN_SPACE", "source_type": "osm", "confidence": "high", "geometry_role": "existing_condition", "source_id": "DATA-SRC-OSM-20260820", "osm_tags": {"leisure": "park"}, "category": "park"}, "geometry": {"type": "Polygon", "coordinates": [[[116.3503962, 39.9846366], [116.351559, 39.9846575], [116.3515569, 39.9847253], [116.351694, 39.9847277], [116.351783, 39.9847253], [116.3517951, 39.9842889], [116.3516065, 39.9842862], [116.350417, 39.9842548], [116.3503704, 39.9842772], [116.3503588, 39.9846276], [116.3503962, 39.9846366]]]}}, {"type": "Feature", "id": "GREEN-543831705", "properties": {"id": "GREEN-543831705", "osm_id": 543831705, "layer": "GREEN_SPACE", "source_type": "osm", "confidence": "high", "geometry_role": "existing_condition", "source_id": "DATA-SRC-OSM-20260820", "osm_tags": {"leisure": "park"}, "category": "park"}, "geometry": {"type": "Polygon", "coordinates": [[[116.348127, 39.9830192], [116.3486428, 39.9830377], [116.3487065, 39.9829797], [116.3487278, 39.9828695], [116.3487128, 39.9827311], [116.3486561, 39.9826788], [116.3484507, 39.9826608], [116.3482262, 39.982659], [116.3481317, 39.9826643], [116.3480624, 39.9827612], [116.3480532, 39.9828875], [116.348127, 39.9830192]]]}}, {"type": "Feature", "id": "GREEN-543832868", "properties": {"id": "GREEN-543832868", "osm_id": 543832868, "layer": "GREEN_SPACE", "source_type": "osm", "confidence": "high", "geometry_role": "existing_condition", "source_id": "DATA-SRC-OSM-20260820", "osm_tags": {"leisure": "park"}, "category": "park"}, "geometry": {"type": "Polygon", "coordinates": [[[116.3499736, 39.9813029], [116.3502421, 39.9813071], [116.350246, 39.9811638], [116.3499775, 39.9811596], [116.3499736, 39.9813029]]]}}, {"type": "Feature", "id": "GREEN-543837052", "properties": {"id": "GREEN-543837052", "osm_id": 543837052, "layer": "GREEN_SPACE", "source_type": "osm", "confidence": "high", "geometry_role": "existing_condition", "source_id": "DATA-SRC-OSM-20260820", "osm_tags": {"landuse": "recreation_ground"}, "category": "recreation_ground"}, "geometry": {"type": "Polygon", "coordinates": [[[116.3492325, 39.9894342], [116.3492401, 39.9892549], [116.3493436, 39.9892575], [116.3495698, 39.9892626], [116.349578, 39.9890467], [116.3493583, 39.9890448], [116.3492607, 39.9890476], [116.34913, 39.9890708], [116.3490763, 39.9891012], [116.3489852, 39.9891012], [116.3489479, 39.9890851], [116.3489082, 39.9890422], [116.3487825, 39.9890392], [116.3487672, 39.9894193], [116.3492325, 39.9894342]]]}}, {"type": "Feature", "id": "GREEN-543837318", "properties": {"id": "GREEN-543837318", "osm_id": 543837318, "layer": "GREEN_SPACE", "source_type": "osm", "confidence": "high", "geometry_role": "existing_condition", "source_id": "DATA-SRC-OSM-20260820", "osm_tags": {"landuse": "recreation_ground"}, "category": "recreation_ground"}, "geometry": {"type": "Polygon", "coordinates": [[[116.3489369, 39.9886526], [116.3489888, 39.9886255], [116.3490894, 39.9886137], [116.3492594, 39.9886594], [116.349426, 39.9886672], [116.3495957, 39.9886763], [116.3496088, 39.9883728], [116.3493013, 39.988365], [116.3493097, 39.9881708], [116.3488203, 39.9881631], [116.3487957, 39.9886484], [116.3489369, 39.9886526]]]}}, {"type": "Feature", "id": "GREEN-543837608", "properties": {"id": "GREEN-543837608", "osm_id": 543837608, "layer": "GREEN_SPACE", "source_type": "osm", "confidence": "high", "geometry_role": "existing_condition", "source_id": "DATA-SRC-OSM-20260820", "osm_tags": {"landuse": "grass"}, "category": "grass"}, "geometry": {"type": "Polygon", "coordinates": [[[116.3475974, 39.9890092], [116.3476033, 39.9889065], [116.3474709, 39.988902], [116.3474582, 39.9891209], [116.3475974, 39.9890092]]]}}, {"type": "Feature", "id": "GREEN-543837609", "properties": {"id": "GREEN-543837609", "osm_id": 543837609, "layer": "GREEN_SPACE", "source_type": "osm", "confidence": "high", "geometry_role": "existing_condition", "source_id": "DATA-SRC-OSM-20260820", "osm_tags": {"landuse": "grass"}, "category": "grass"}, "geometry": {"type": "Polygon", "coordinates": [[[116.3476033, 39.9885505], [116.3475017, 39.9884422], [116.3474926, 39.9886729], [116.3475984, 39.9886753], [116.3476033, 39.9885505]]]}}, {"type": "Feature", "id": "GREEN-544023360", "properties": {"id": "GREEN-544023360", "osm_id": 544023360, "layer": "GREEN_SPACE", "source_type": "osm", "confidence": "high", "geometry_role": "existing_condition", "source_id": "DATA-SRC-OSM-20260820", "osm_tags": {"leisure": "park", "name": "来园", "name:zh": "来园", "name:zh-Hans": "来园", "name:zh-Hant": "來園"}, "category": "park"}, "geometry": {"type": "Polygon", "coordinates": [[[116.3439119, 39.9932279], [116.3439574, 39.9927804], [116.3430471, 39.9927513], [116.3430319, 39.9932047], [116.3439119, 39.9932279]]]}}, {"type": "Feature", "id": "GREEN-544023363", "properties": {"id": "GREEN-544023363", "osm_id": 544023363, "layer": "GREEN_SPACE", "source_type": "osm", "confidence": "high", "geometry_role": "existing_condition", "source_id": "DATA-SRC-OSM-20260820", "osm_tags": {"leisure": "park", "name": "北语苗圃园", "name:zh": "北语苗圃园", "name:zh-Hans": "北语苗圃园", "name:zh-Hant": "北語苗圃園"}, "category": "park"}, "geometry": {"type": "Polygon", "coordinates": [[[116.3434947, 39.9949657], [116.343563, 39.9937219], [116.3429712, 39.9937103], [116.3428953, 39.9949425], [116.3434947, 39.9949657]]]}}, {"type": "Feature", "id": "GREEN-544023364", "properties": {"id": "GREEN-544023364", "osm_id": 544023364, "layer": "GREEN_SPACE", "source_type": "osm", "confidence": "high", "geometry_role": "existing_condition", "source_id": "DATA-SRC-OSM-20260820", "osm_tags": {"leisure": "park"}, "category": "park"}, "geometry": {"type": "Polygon", "coordinates": [[[116.3437754, 39.994663], [116.3439417, 39.994663], [116.3439309, 39.9948479], [116.3445639, 39.9948767], [116.3446283, 39.9940095], [116.344006, 39.9939849], [116.344006, 39.9941123], [116.3436612, 39.9941025], [116.3436388, 39.9946577], [116.3437754, 39.994663]]]}}, {"type": "Feature", "id": "GREEN-544023366", "properties": {"id": "GREEN-544023366", "osm_id": 544023366, "layer": "GREEN_SPACE", "source_type": "osm", "confidence": "high", "geometry_role": "existing_condition", "source_id": "DATA-SRC-OSM-20260820", "osm_tags": {"leisure": "park", "name": "凌霜园", "name:zh": "凌霜园", "name:zh-Hans": "凌霜园", "name:zh-Hant": "淩霜園"}, "category": "park"}, "geometry": {"type": "Polygon", "coordinates": [[[116.3460193, 39.9941834], [116.3460301, 39.9940436], [116.3456975, 39.9937888], [116.3450108, 39.9937724], [116.3450055, 39.9941628], [116.3460193, 39.9941834]]]}}, {"type": "Feature", "id": "GREEN-544023371", "properties": {"id": "GREEN-544023371", "osm_id": 544023371, "layer": "GREEN_SPACE", "source_type": "osm", "confidence": "high", "geometry_role": "existing_condition", "source_id": "DATA-SRC-OSM-20260820", "osm_tags": {"leisure": "park"}, "category": "park"}, "geometry": {"type": "Polygon", "coordinates": [[[116.3434927, 39.9927038], [116.3435034, 39.9923751], [116.343439, 39.9923093], [116.343439, 39.9921819], [116.3431386, 39.9921696], [116.343144, 39.9922477], [116.3432084, 39.9923216], [116.3432406, 39.9923586], [116.3429616, 39.9925148], [116.3427685, 39.9923963], [116.342367, 39.9923929], [116.342146, 39.9923859], [116.3421301, 39.9926874], [116.3434927, 39.9927038]]]}}, {"type": "Feature", "id": "GREEN-544025734", "properties": {"id": "GREEN-544025734", "osm_id": 544025734, "layer": "GREEN_SPACE", "source_type": "osm", "confidence": "high", "geometry_role": "existing_condition", "source_id": "DATA-SRC-OSM-20260820", "osm_tags": {"leisure": "park"}, "category": "park"}, "geometry": {"type": "Polygon", "coordinates": [[[116.3458879, 39.9937066], [116.3459045, 39.9935297], [116.3454646, 39.9935215], [116.3454807, 39.993316], [116.3447795, 39.9932987], [116.3447726, 39.9934927], [116.3443864, 39.9934845], [116.344375, 39.9936767], [116.3458879, 39.9937066]]]}}, {"type": "Feature", "id": "GREEN-544025735", "properties": {"id": "GREEN-544025735", "osm_id": 544025735, "layer": "GREEN_SPACE", "source_type": "osm", "confidence": "high", "geometry_role": "existing_condition", "source_id": "DATA-SRC-OSM-20260820", "osm_tags": {"leisure": "park"}, "category": "park"}, "geometry": {"type": "Polygon", "coordinates": [[[116.3411413, 39.9935542], [116.3418602, 39.9935892], [116.341887, 39.9932419], [116.34087547959152, 39.99321993366846], [116.34089341185604, 39.993497883768725], [116.3411413, 39.9935542]]]}}, {"type": "Feature", "id": "GREEN-544563038", "properties": {"id": "GREEN-544563038", "osm_id": 544563038, "layer": "GREEN_SPACE", "source_type": "osm", "confidence": "high", "geometry_role": "existing_condition", "source_id": "DATA-SRC-OSM-20260820", "osm_tags": {"landuse": "recreation_ground"}, "category": "recreation_ground"}, "geometry": {"type": "Polygon", "coordinates": [[[116.3514348, 39.9825567], [116.3514415, 39.982361], [116.351078, 39.9823537], [116.3510714, 39.9825494], [116.3514348, 39.9825567]]]}}, {"type": "Feature", "id": "GREEN-553293667", "properties": {"id": "GREEN-553293667", "osm_id": 553293667, "layer": "GREEN_SPACE", "source_type": "osm", "confidence": "high", "geometry_role": "existing_condition", "source_id": "DATA-SRC-OSM-20260820", "osm_tags": {"leisure": "park", "name": "唯实园", "name:en": "Vision Garden", "name:zh": "唯实园", "name:zh-Hans": "唯实园", "name:zh-Hant": "唯實園"}, "category": "park"}, "geometry": {"type": "Polygon", "coordinates": [[[116.3458012, 39.977583], [116.3458067, 39.9774702], [116.3459581, 39.9774745], [116.3460075, 39.9766026], [116.3443187, 39.9765548], [116.3442163, 39.9765513], [116.3441535, 39.97793], [116.3457799, 39.9779666], [116.3458012, 39.977583]]]}}, {"type": "Feature", "id": "GREEN-609207824", "properties": {"id": "GREEN-609207824", "osm_id": 609207824, "layer": "GREEN_SPACE", "source_type": "osm", "confidence": "high", "geometry_role": "existing_condition", "source_id": "DATA-SRC-OSM-20260820", "osm_tags": {"landuse": "grass"}, "category": "grass"}, "geometry": {"type": "Polygon", "coordinates": [[[116.3516247, 40.0055325], [116.3516302, 40.0053321], [116.3511707, 40.0053248], [116.3511652, 40.0055252], [116.3516247, 40.0055325]]]}}, {"type": "Feature", "id": "GREEN-609213505", "properties": {"id": "GREEN-609213505", "osm_id": 609213505, "layer": "GREEN_SPACE", "source_type": "osm", "confidence": "high", "geometry_role": "existing_condition", "source_id": "DATA-SRC-OSM-20260820", "osm_tags": {"name": "校友林", "name:zh": "校友林", "name:zh-Hans": "校友林", "name:zh-Hant": "校友林", "natural": "wood"}, "category": "wood"}, "geometry": {"type": "Polygon", "coordinates": [[[116.351991, 40.0011764], [116.3520195, 40.0008042], [116.3509055, 40.0007871], [116.3508872, 40.0011406], [116.351991, 40.0011764]]]}}, {"type": "Feature", "id": "GREEN-609213506", "properties": {"id": "GREEN-609213506", "osm_id": 609213506, "layer": "GREEN_SPACE", "source_type": "osm", "confidence": "high", "geometry_role": "existing_condition", "source_id": "DATA-SRC-OSM-20260820", "osm_tags": {"leisure": "park"}, "category": "park"}, "geometry": {"type": "Polygon", "coordinates": [[[116.3518924, 40.0028997], [116.3519525, 40.002146], [116.3501159, 40.0020672], [116.3500675, 40.0028432], [116.3518924, 40.0028997]]]}}, {"type": "Feature", "id": "GREEN-609225888", "properties": {"id": "GREEN-609225888", "osm_id": 609225888, "layer": "GREEN_SPACE", "source_type": "osm", "confidence": "high", "geometry_role": "existing_condition", "source_id": "DATA-SRC-OSM-20260820", "osm_tags": {"leisure": "park"}, "category": "park"}, "geometry": {"type": "Polygon", "coordinates": [[[116.3507414, 40.0046393], [116.3507506, 40.0042989], [116.3500089, 40.0042871], [116.3499996, 40.0046275], [116.3507414, 40.0046393]]]}}, {"type": "Feature", "id": "GREEN-609239434", "properties": {"id": "GREEN-609239434", "osm_id": 609239434, "layer": "GREEN_SPACE", "source_type": "osm", "confidence": "high", "geometry_role": "existing_condition", "source_id": "DATA-SRC-OSM-20260820", "osm_tags": {"leisure": "park"}, "category": "park"}, "geometry": {"type": "Polygon", "coordinates": [[[116.3519466, 40.0020845], [116.3519749, 40.0016914], [116.3510087, 40.0016182], [116.3501346, 40.0015775], [116.3501133, 40.0020005], [116.3519466, 40.0020845]]]}}, {"type": "Feature", "id": "GREEN-656808581", "properties": {"id": "GREEN-656808581", "osm_id": 656808581, "layer": "GREEN_SPACE", "source_type": "osm", "confidence": "high", "geometry_role": "existing_condition", "source_id": "DATA-SRC-OSM-20260820", "osm_tags": {"leisure": "park"}, "category": "park"}, "geometry": {"type": "Polygon", "coordinates": [[[116.3542121, 39.9754454], [116.3541896, 39.9770912], [116.35433261125266, 39.9770923593418], [116.35446424809419, 39.97544689882269], [116.3542121, 39.9754454]]]}}, {"type": "Feature", "id": "GREEN-919970121", "properties": {"id": "GREEN-919970121", "osm_id": 919970121, "layer": "GREEN_SPACE", "source_type": "osm", "confidence": "high", "geometry_role": "existing_condition", "source_id": "DATA-SRC-OSM-20260820", "osm_tags": {"leisure": "park", "name": "小月河公园"}, "category": "park"}, "geometry": {"type": "Polygon", "coordinates": [[[116.3425856, 40.0206126], [116.3432131, 40.0208222], [116.3438866, 40.0209573], [116.3441042, 40.020496], [116.3442055, 40.0202626], [116.3442902, 40.0200856], [116.3443318, 40.0199132], [116.3443464, 40.0196493], [116.3442847, 40.0193875], [116.34235361810558, 40.01939917116452], [116.34240625243902, 40.02047817499989], [116.3425856, 40.0206126]]]}}, {"type": "Feature", "id": "GREEN-929515630", "properties": {"id": "GREEN-929515630", "osm_id": 929515630, "layer": "GREEN_SPACE", "source_type": "osm", "confidence": "high", "geometry_role": "existing_condition", "source_id": "DATA-SRC-OSM-20260820", "osm_tags": {"landuse": "forest"}, "category": "forest"}, "geometry": {"type": "Polygon", "coordinates": [[[116.3485533, 40.019407], [116.346659, 40.0192276], [116.3465648, 40.0200865], [116.3460341, 40.0198258], [116.346102, 40.0186838], [116.345879, 40.0185375], [116.3458193, 40.0204987], [116.3459951, 40.0206483], [116.3485533, 40.019407]]]}}, {"type": "Feature", "id": "GREEN-929515631", "properties": {"id": "GREEN-929515631", "osm_id": 929515631, "layer": "GREEN_SPACE", "source_type": "osm", "confidence": "high", "geometry_role": "existing_condition", "source_id": "DATA-SRC-OSM-20260820", "osm_tags": {"landuse": "forest"}, "category": "forest"}, "geometry": {"type": "Polygon", "coordinates": [[[116.3483291, 40.0192634], [116.3486096, 40.0192782], [116.3488457, 40.0192467], [116.3492103, 40.0189086], [116.3507599, 40.0168347], [116.353217, 40.0136497], [116.3525072, 40.0137484], [116.350563, 40.0162375], [116.3483682, 40.0153994], [116.3480017, 40.015919], [116.3481989, 40.0162179], [116.3482474, 40.0164022], [116.3486608, 40.0166195], [116.3486118, 40.0168945], [116.3487485, 40.0169992], [116.3485337, 40.0176722], [116.3491391, 40.0178068], [116.3490024, 40.018061], [116.3485923, 40.0180162], [116.3481236, 40.0181209], [116.3479374, 40.0192375], [116.3483291, 40.0192634]]]}}, {"type": "Feature", "id": "GREEN-929726058", "properties": {"id": "GREEN-929726058", "osm_id": 929726058, "layer": "EXISTING_WATER", "source_type": "osm", "confidence": "high", "geometry_role": "existing_condition", "source_id": "DATA-SRC-OSM-20260820", "osm_tags": {"natural": "water", "water": "river"}, "category": "water"}, "geometry": {"type": "Polygon", "coordinates": [[[116.3536615, 40.0053824], [116.353442, 40.0055967], [116.3533104, 40.0057396], [116.3531129, 40.0059707], [116.3529675, 40.0062333], [116.3529593, 40.0063005], [116.3529209, 40.0063888], [116.3528194, 40.0065001], [116.3527508, 40.0066535], [116.3525423, 40.0070758], [116.352194, 40.0077923], [116.3519498, 40.0083049], [116.3514808, 40.0093029], [116.3509761, 40.0102946], [116.3504823, 40.011198], [116.3499474, 40.0120614], [116.3495771, 40.0126098], [116.3488914, 40.0136833], [116.3486527, 40.0141098], [116.3485485, 40.0143093], [116.3479752, 40.0153429], [116.3470278, 40.0166942], [116.3466974, 40.0171823], [116.3466139, 40.0173075], [116.3463737, 40.0175631], [116.3461317, 40.0179222], [116.3459643, 40.0182108], [116.3460247, 40.0182327], [116.3461034, 40.0182645], [116.3461484, 40.0181831], [116.3463706, 40.0178323], [116.3465818, 40.0175277], [116.3466915, 40.0173576], [116.346878, 40.0171391], [116.3469493, 40.0171328], [116.347273, 40.0166286], [116.3479039, 40.0157526], [116.3484415, 40.0149522], [116.3488502, 40.0142358], [116.3490806, 40.0138514], [116.3494537, 40.0132211], [116.3500928, 40.0122925], [116.3501943, 40.0121371], [116.3506195, 40.0114312], [116.3507978, 40.0111013], [116.3510638, 40.0106055], [116.3519005, 40.0089226], [116.3527288, 40.0072607], [116.3527755, 40.0071305], [116.3527755, 40.0071137], [116.3530031, 40.0065989], [116.3530333, 40.0064476], [116.3530717, 40.0063384], [116.3531897, 40.0061703], [116.3532226, 40.0061178], [116.3534749, 40.0058005], [116.35412908167969, 40.005130740654195], [116.35411713719446, 40.00491275379904], [116.3536615, 40.0053824]]]}}, {"type": "Feature", "id": "GREEN-929728762", "properties": {"id": "GREEN-929728762", "osm_id": 929728762, "layer": "EXISTING_WATER", "source_type": "osm", "confidence": "high", "geometry_role": "existing_condition", "source_id": "DATA-SRC-OSM-20260820", "osm_tags": {"natural": "water", "water": "river"}, "category": "water"}, "geometry": {"type": "Polygon", "coordinates": [[[116.3442589, 40.0209525], [116.344172, 40.0210992], [116.3440092, 40.021377], [116.3439161, 40.0215325], [116.3437003, 40.0220056], [116.3436961, 40.0220898], [116.3437173, 40.0222486], [116.3437596, 40.0224041], [116.3438357, 40.0225305], [116.3439711, 40.022754], [116.3440558, 40.0229225], [116.3441404, 40.0232206], [116.3441362, 40.0234021], [116.3441235, 40.0235641], [116.344115, 40.0237358], [116.3441054, 40.0237865], [116.3441175, 40.0238869], [116.3441446, 40.0239432], [116.3442165, 40.0240792], [116.3442462, 40.0242218], [116.3442462, 40.0244227], [116.3441996, 40.0245977], [116.3442624, 40.0246227], [116.3442969, 40.0246139], [116.3443392, 40.0245199], [116.3443562, 40.0242996], [116.3443562, 40.0240663], [116.3444027, 40.0238946], [116.3443773, 40.0237164], [116.3443054, 40.0235738], [116.3442715, 40.0232206], [116.3441573, 40.0228415], [116.3439584, 40.0224884], [116.3438823, 40.0223555], [116.3438484, 40.0220931], [116.3438484, 40.0220056], [116.3440896, 40.0215001], [116.3442546, 40.0212538], [116.34439, 40.0210335], [116.3452193, 40.0196823], [116.3451441, 40.0196625], [116.3450458, 40.0196467], [116.3442589, 40.0209525]]]}}, {"type": "Feature", "id": "GREEN-929728767", "properties": {"id": "GREEN-929728767", "osm_id": 929728767, "layer": "EXISTING_WATER", "source_type": "osm", "confidence": "high", "geometry_role": "existing_condition", "source_id": "DATA-SRC-OSM-20260820", "osm_tags": {"golf": "water_hazard", "natural": "water"}, "category": "water"}, "geometry": {"type": "Polygon", "coordinates": [[[116.3492155, 40.0250781], [116.3492872, 40.0250479], [116.349428, 40.0250393], [116.3495181, 40.0250762], [116.3497041, 40.0251347], [116.3498656, 40.0251535], [116.3500377, 40.0251815], [116.3501482, 40.0252125], [116.3503036, 40.0252693], [116.350482, 40.0253539], [116.3505804, 40.0254277], [116.3507619, 40.025489], [116.3509127, 40.0254927], [116.3510629, 40.0254419], [116.351219, 40.0253694], [116.3513537, 40.0253472], [116.3515851, 40.0253491], [116.351746, 40.0253291], [116.3519955, 40.0253687], [116.3521345, 40.0253985], [116.3525438, 40.0255569], [116.3527419, 40.0256914], [116.3528129, 40.0257629], [116.3530184, 40.0259174], [116.353265, 40.0259661], [116.3533995, 40.0259603], [116.3533098, 40.0258888], [116.3532239, 40.0258659], [116.3530259, 40.0258316], [116.3529324, 40.0257572], [116.3528988, 40.0256713], [116.3528465, 40.0256141], [116.3526896, 40.0255798], [116.3523831, 40.0254396], [116.3522038, 40.025328], [116.3519721, 40.0251391], [116.3517404, 40.0251363], [116.3516844, 40.0251534], [116.351591, 40.0251849], [116.351449, 40.0251906], [116.3513518, 40.0251763], [116.3508175, 40.0252192], [116.3505484, 40.0252192], [116.3504513, 40.0251992], [116.3502906, 40.0251105], [116.3500776, 40.0250418], [116.3497237, 40.0250205], [116.3496239, 40.0249787], [116.3494883, 40.0248807], [116.3493846, 40.0248349], [116.3492564, 40.0248195], [116.3492257, 40.0248358], [116.3491547, 40.0248501], [116.3491046, 40.0249165], [116.3489551, 40.0250596], [116.3489249, 40.0251256], [116.3489578, 40.0251639], [116.3490008, 40.0251916], [116.3490569, 40.0251925], [116.3491122, 40.0251635], [116.3492155, 40.0250781]]]}}, {"type": "Feature", "id": "GREEN-929743787", "properties": {"id": "GREEN-929743787", "osm_id": 929743787, "layer": "GREEN_SPACE", "source_type": "osm", "confidence": "high", "geometry_role": "existing_condition", "source_id": "DATA-SRC-OSM-20260820", "osm_tags": {"landuse": "grass"}, "category": "grass"}, "geometry": {"type": "Polygon", "coordinates": [[[116.3549805, 40.0255469], [116.3550219, 40.0255425], [116.3550596, 40.0255195], [116.3550803, 40.0254848], [116.3551199, 40.0254387], [116.3551707, 40.0253983], [116.3552009, 40.0253723], [116.3552235, 40.0253406], [116.3552065, 40.0252973], [116.3551783, 40.0252901], [116.3550973, 40.0252685], [116.3550445, 40.0252685], [116.3549579, 40.0252743], [116.3548618, 40.02528], [116.3548015, 40.0252743], [116.3547281, 40.0252541], [116.3546716, 40.0252382], [116.3546395, 40.0252339], [116.3545981, 40.0252396], [116.3545604, 40.0252281], [116.3545133, 40.0252281], [116.3544794, 40.0252108], [116.3543513, 40.0251747], [116.3542741, 40.0251747], [116.3542157, 40.0251531], [116.3541423, 40.0251661], [116.3540933, 40.0251444], [116.3540142, 40.0251516], [116.3539369, 40.0252108], [116.3538936, 40.0252281], [116.3539652, 40.0252483], [116.3540161, 40.0252555], [116.3540443, 40.0252757], [116.3540726, 40.0253175], [116.3540763, 40.0253348], [116.354114, 40.0253045], [116.3541554, 40.0253118], [116.3542892, 40.0253348], [116.3543815, 40.0253622], [116.3543984, 40.0253334], [116.3544399, 40.0253348], [116.3545058, 40.0253442], [116.354632, 40.0253824], [116.3546904, 40.0253637], [116.3547413, 40.0253752], [116.354777, 40.0253911], [116.3549428, 40.0255238], [116.3549805, 40.0255469]]]}}, {"type": "Feature", "id": "GREEN-930935491", "properties": {"id": "GREEN-930935491", "osm_id": 930935491, "layer": "GREEN_SPACE", "source_type": "osm", "confidence": "high", "geometry_role": "existing_condition", "source_id": "DATA-SRC-OSM-20260820", "osm_tags": {"landuse": "forest"}, "category": "forest"}, "geometry": {"type": "Polygon", "coordinates": [[[116.3535084, 40.0067312], [116.3534594, 40.0068381], [116.35423174078986, 40.00700426941492], [116.35422376084522, 40.00685863542521], [116.3535084, 40.0067312]]]}}, {"type": "Feature", "id": "GREEN-930946250", "properties": {"id": "GREEN-930946250", "osm_id": 930946250, "layer": "GREEN_SPACE", "source_type": "osm", "confidence": "high", "geometry_role": "existing_condition", "source_id": "DATA-SRC-OSM-20260820", "osm_tags": {"leisure": "park"}, "category": "park"}, "geometry": {"type": "Polygon", "coordinates": [[[116.3535906, 40.0133575], [116.3540259, 40.0127888], [116.3542372, 40.0120338], [116.35448157305837, 40.011563708315194], [116.35444337768827, 40.01086664281076], [116.3539427, 40.0109208], [116.3528673, 40.012676], [116.352432, 40.0127545], [116.3521823, 40.0133477], [116.352592, 40.0134164], [116.3535906, 40.0133575]]]}}, {"type": "Feature", "id": "GREEN-930946251", "properties": {"id": "GREEN-930946251", "osm_id": 930946251, "layer": "GREEN_SPACE", "source_type": "osm", "confidence": "high", "geometry_role": "existing_condition", "source_id": "DATA-SRC-OSM-20260820", "osm_tags": {"landuse": "forest"}, "category": "forest"}, "geometry": {"type": "Polygon", "coordinates": [[[116.3526496, 40.0132889], [116.352624, 40.0132154], [116.352496, 40.013029], [116.3525792, 40.0128035], [116.352496, 40.012828], [116.3522656, 40.0132987], [116.3524512, 40.0132791], [116.3526496, 40.0132889]]]}}, {"type": "Feature", "id": "GREEN-930946252", "properties": {"id": "GREEN-930946252", "osm_id": 930946252, "layer": "GREEN_SPACE", "source_type": "osm", "confidence": "high", "geometry_role": "existing_condition", "source_id": "DATA-SRC-OSM-20260820", "osm_tags": {"landuse": "forest"}, "category": "forest"}, "geometry": {"type": "Polygon", "coordinates": [[[116.353469, 40.0134164], [116.3538723, 40.0128869], [116.3540515, 40.0124407], [116.3539043, 40.012475], [116.3536162, 40.0125633], [116.3531938, 40.0125143], [116.3528289, 40.0129065], [116.3527329, 40.0131663], [116.3531297, 40.0134213], [116.353469, 40.0134164]]]}}, {"type": "Feature", "id": "GREEN-930946253", "properties": {"id": "GREEN-930946253", "osm_id": 930946253, "layer": "GREEN_SPACE", "source_type": "osm", "confidence": "high", "geometry_role": "existing_condition", "source_id": "DATA-SRC-OSM-20260820", "osm_tags": {"landuse": "forest"}, "category": "forest"}, "geometry": {"type": "Polygon", "coordinates": [[[116.3539875, 40.0109699], [116.3538659, 40.0112297], [116.3540579, 40.0113082], [116.3541411, 40.0115141], [116.3540579, 40.0117249], [116.3539043, 40.0117739], [116.3538531, 40.0118622], [116.3540451, 40.0119848], [116.3537891, 40.0120583], [116.353661, 40.0123034], [116.3535266, 40.0123476], [116.3533154, 40.0120926], [116.3531874, 40.0122495], [116.353405, 40.0124701], [116.3536675, 40.0124848], [116.3538211, 40.0123819], [116.3538979, 40.0122936], [116.3540771, 40.0123623], [116.3542692, 40.0117837], [116.35447360740152, 40.01141833507757], [116.35444723065747, 40.01093695949882], [116.3539875, 40.0109699]]]}}, {"type": "Feature", "id": "GREEN-930946254", "properties": {"id": "GREEN-930946254", "osm_id": 930946254, "layer": "EXISTING_WATER", "source_type": "osm", "confidence": "high", "geometry_role": "existing_condition", "source_id": "DATA-SRC-OSM-20260820", "osm_tags": {"natural": "water", "water": "lake"}, "category": "water"}, "geometry": {"type": "Polygon", "coordinates": [[[116.3536536, 40.0122746], [116.3536847, 40.0122481], [116.3537161, 40.0121746], [116.3537369, 40.0121176], [116.3537916, 40.0120254], [116.3538477, 40.0119611], [116.3538591, 40.0118889], [116.3538494, 40.0118253], [116.3538698, 40.0117125], [116.3539453, 40.0117143], [116.3540478, 40.0116328], [116.3541099, 40.0115577], [116.3541109, 40.0114917], [116.354087, 40.0114287], [116.3540336, 40.0113554], [116.3538842, 40.0113134], [116.3538135, 40.0113107], [116.3537381, 40.0113905], [116.3537273, 40.011474], [116.3536542, 40.0115088], [116.353574, 40.011596], [116.3534386, 40.0116584], [116.353362, 40.0117432], [116.3533038, 40.0118354], [116.3532405, 40.0118934], [116.3532413, 40.0119477], [116.3532707, 40.0119934], [116.3533693, 40.0120418], [116.3534099, 40.0120629], [116.3534405, 40.0120887], [116.353466, 40.0121567], [116.3534982, 40.0122232], [116.3535465, 40.0122657], [116.3535887, 40.0122812], [116.3536536, 40.0122746]]]}}, {"type": "Feature", "id": "GREEN-930946270", "properties": {"id": "GREEN-930946270", "osm_id": 930946270, "layer": "GREEN_SPACE", "source_type": "osm", "confidence": "high", "geometry_role": "existing_condition", "source_id": "DATA-SRC-OSM-20260820", "osm_tags": {"landuse": "forest"}, "category": "forest"}, "geometry": {"type": "Polygon", "coordinates": [[[116.3506769, 40.0198799], [116.3505085, 40.019622], [116.3507462, 40.0197206], [116.3512513, 40.0187422], [116.3510532, 40.018598], [116.3513008, 40.0182188], [116.3508948, 40.0180216], [116.3500826, 40.0192124], [116.3501123, 40.0197054], [116.3502708, 40.0199937], [116.3506769, 40.0198799]]]}}, {"type": "Feature", "id": "GREEN-930946271", "properties": {"id": "GREEN-930946271", "osm_id": 930946271, "layer": "GREEN_SPACE", "source_type": "osm", "confidence": "high", "geometry_role": "existing_condition", "source_id": "DATA-SRC-OSM-20260820", "osm_tags": {"landuse": "forest"}, "category": "forest"}, "geometry": {"type": "Polygon", "coordinates": [[[116.3516079, 40.0176727], [116.3518258, 40.0177258], [116.3520437, 40.0173389], [116.3515782, 40.0171796], [116.3512711, 40.0175816], [116.3511325, 40.0177258], [116.3514692, 40.017794], [116.3516079, 40.0176727]]]}}, {"type": "Feature", "id": "GREEN-930946272", "properties": {"id": "GREEN-930946272", "osm_id": 930946272, "layer": "GREEN_SPACE", "source_type": "osm", "confidence": "high", "geometry_role": "existing_condition", "source_id": "DATA-SRC-OSM-20260820", "osm_tags": {"leisure": "park"}, "category": "park"}, "geometry": {"type": "Polygon", "coordinates": [[[116.3527653, 40.0202605], [116.3518281, 40.0202684], [116.3510615, 40.0194328], [116.350974, 40.0197737], [116.3501925, 40.0200506], [116.3506472, 40.020555], [116.3511622, 40.0208735], [116.3515683, 40.0209873], [116.3519307, 40.0210655], [116.3527575, 40.021116], [116.3546683, 40.0211466], [116.35500904069544, 40.02118999269164], [116.35495635952475, 40.02022856132674], [116.3527653, 40.0202605]]]}}, {"type": "Feature", "id": "GREEN-949446452", "properties": {"id": "GREEN-949446452", "osm_id": 949446452, "layer": "GREEN_SPACE", "source_type": "osm", "confidence": "high", "geometry_role": "existing_condition", "source_id": "DATA-SRC-OSM-20260820", "osm_tags": {"building": "yes", "leisure": "park", "name": "海棠园"}, "category": "park"}, "geometry": {"type": "Polygon", "coordinates": [[[116.3438823, 39.9810923], [116.343896, 39.9808387], [116.3438007, 39.9808357], [116.3437022, 39.9808325], [116.3436885, 39.9810861], [116.3438823, 39.9810923]]]}}, {"type": "Feature", "id": "GREEN-949452368", "properties": {"id": "GREEN-949452368", "osm_id": 949452368, "layer": "GREEN_SPACE", "source_type": "osm", "confidence": "high", "geometry_role": "existing_condition", "source_id": "DATA-SRC-OSM-20260820", "osm_tags": {"leisure": "park"}, "category": "park"}, "geometry": {"type": "Polygon", "coordinates": [[[116.341326, 39.9844358], [116.3406745, 39.9844188], [116.3404196, 39.9844127], [116.34030704654013, 39.98440922137201], [116.3403331830485, 39.984814337251784], [116.3407582, 39.9848145], [116.3407752, 39.9846319], [116.3413068, 39.9846439], [116.341326, 39.9844358]]]}}, {"type": "Feature", "id": "GREEN-960760116", "properties": {"id": "GREEN-960760116", "osm_id": 960760116, "layer": "GREEN_SPACE", "source_type": "osm", "confidence": "high", "geometry_role": "existing_condition", "source_id": "DATA-SRC-OSM-20260820", "osm_tags": {"landuse": "forest"}, "category": "forest"}, "geometry": {"type": "Polygon", "coordinates": [[[116.3452637, 40.0208361], [116.3454058, 40.0207635], [116.3455162, 40.0189847], [116.3450595, 40.019581], [116.345275, 40.0196715], [116.3445145, 40.0210074], [116.3449222, 40.0210994], [116.3452637, 40.0208361]]]}}, {"type": "Feature", "id": "GREEN-989032283", "properties": {"id": "GREEN-989032283", "osm_id": 989032283, "layer": "EXISTING_WATER", "source_type": "osm", "confidence": "high", "geometry_role": "existing_condition", "source_id": "DATA-SRC-OSM-20260820", "osm_tags": {"natural": "water", "water": "river"}, "category": "water"}, "geometry": {"type": "Polygon", "coordinates": [[[116.3530779, 39.9745049], [116.3490868, 39.9744259], [116.3485085, 39.9744969], [116.3478572, 39.9745249], [116.3476049, 39.9744818], [116.3473506, 39.9743895], [116.3471875, 39.9742188], [116.3471071, 39.9739952], [116.3471185, 39.9737829], [116.3471698, 39.9728078], [116.3472182, 39.9719332], [116.3472966, 39.9707135], [116.3473079, 39.9699345], [116.3473722, 39.9687452], [116.347467, 39.9680986], [116.3475443, 39.9674401], [116.3475681, 39.9672221], [116.3475347, 39.9667216], [116.3475865, 39.9659142], [116.3476204, 39.9655944], [116.3476963, 39.9649654], [116.3476777, 39.9647729], [116.3476093, 39.9642599], [116.347628, 39.9637749], [116.3476356, 39.9635801], [116.3476906, 39.9629877], [116.3477243, 39.9622856], [116.3477659, 39.9615204], [116.347812, 39.9606231], [116.3478401, 39.9600067], [116.3478777, 39.959305], [116.3479152, 39.9583941], [116.3478874, 39.9583427], [116.347854, 39.9583343], [116.3478217, 39.9583293], [116.3477741, 39.9584143], [116.3477113, 39.9596047], [116.3476947, 39.9600046], [116.3476692, 39.9606418], [116.3476399, 39.9606612], [116.3476361, 39.960747], [116.347654, 39.9608053], [116.3475982, 39.9617331], [116.3475589, 39.9625419], [116.3475007, 39.9634867], [116.3474883, 39.9639956], [116.3474643, 39.9642867], [116.3475775, 39.9648191], [116.3475862, 39.9652204], [116.3474808, 39.9658261], [116.3474567, 39.9666219], [116.34744, 39.9671559], [116.3473715, 39.9678574], [116.3472658, 39.9684845], [116.3472104, 39.968744], [116.3471711, 39.9699065], [116.3471399, 39.9707062], [116.3470972, 39.9719705], [116.347068, 39.9728046], [116.3469869, 39.9738561], [116.3470166, 39.9740571], [116.3470958, 39.9743414], [116.3472034, 39.9744575], [116.347468, 39.9745714], [116.3478369, 39.9746375], [116.3484643, 39.9746342], [116.3491555, 39.9745936], [116.3545286328188, 39.97464208976497], [116.35453833661309, 39.97452079233634], [116.3530779, 39.9745049]]]}}, {"type": "Feature", "id": "GREEN-994926042", "properties": {"id": "GREEN-994926042", "osm_id": 994926042, "layer": "GREEN_SPACE", "source_type": "osm", "confidence": "high", "geometry_role": "existing_condition", "source_id": "DATA-SRC-OSM-20260820", "osm_tags": {"leisure": "park", "name": "东升清河培黎公园", "name:zh": "东升清河培黎公园", "name:zh-Hans": "东升清河培黎公园", "name:zh-Hant": "東昇清河培黎公園"}, "category": "park"}, "geometry": {"type": "Polygon", "coordinates": [[[116.3427148, 40.0216039], [116.3430924, 40.0215612], [116.3437576, 40.0215316], [116.344028, 40.0211175], [116.3429422, 40.0208973], [116.3425774, 40.0207461], [116.34241414647767, 40.02064000279212], [116.34246116585365, 40.0216039], [116.3427148, 40.0216039]]]}}, {"type": "Feature", "id": "GREEN-1003840130", "properties": {"id": "GREEN-1003840130", "osm_id": 1003840130, "layer": "GREEN_SPACE", "source_type": "osm", "confidence": "high", "geometry_role": "existing_condition", "source_id": "DATA-SRC-OSM-20260820", "osm_tags": {"leisure": "park"}, "category": "park"}, "geometry": {"type": "Polygon", "coordinates": [[[116.3457424, 40.0061968], [116.3459458, 40.0060872], [116.3459607, 40.0059059], [116.345338, 40.0059178], [116.3453411, 40.0061811], [116.3457424, 40.0061968]]]}}, {"type": "Feature", "id": "GREEN-1018982605", "properties": {"id": "GREEN-1018982605", "osm_id": 1018982605, "layer": "EXISTING_WATER", "source_type": "osm", "confidence": "high", "geometry_role": "existing_condition", "source_id": "DATA-SRC-OSM-20260820", "osm_tags": {"natural": "water", "water": "river"}, "category": "water"}, "geometry": {"type": "Polygon", "coordinates": [[[116.3539917, 39.9462536], [116.3534546, 39.9462024], [116.3512818, 39.946335], [116.3508418, 39.9464374], [116.3509237, 39.9465561], [116.3510724, 39.9465258], [116.3535858, 39.9464115], [116.3538582, 39.9464118], [116.3539917, 39.9462536]]]}}, {"type": "Feature", "id": "GREEN-1041132177", "properties": {"id": "GREEN-1041132177", "osm_id": 1041132177, "layer": "GREEN_SPACE", "source_type": "osm", "confidence": "high", "geometry_role": "existing_condition", "source_id": "DATA-SRC-OSM-20260820", "osm_tags": {"leisure": "park"}, "category": "park"}, "geometry": {"type": "Polygon", "coordinates": [[[116.3474135, 40.0104626], [116.347435, 40.0101339], [116.3467108, 40.0101215], [116.3467001, 40.0102941], [116.3474135, 40.0104626]]]}}, {"type": "Feature", "id": "GREEN-1041132178", "properties": {"id": "GREEN-1041132178", "osm_id": 1041132178, "layer": "GREEN_SPACE", "source_type": "osm", "confidence": "high", "geometry_role": "existing_condition", "source_id": "DATA-SRC-OSM-20260820", "osm_tags": {"leisure": "park"}, "category": "park"}, "geometry": {"type": "Polygon", "coordinates": [[[116.3476212, 40.0097968], [116.3476364, 40.0095767], [116.3471939, 40.0095633], [116.3471791, 40.009779], [116.3476212, 40.0097968]]]}}, {"type": "Feature", "id": "GREEN-1041416782", "properties": {"id": "GREEN-1041416782", "osm_id": 1041416782, "layer": "GREEN_SPACE", "source_type": "osm", "confidence": "high", "geometry_role": "existing_condition", "source_id": "DATA-SRC-OSM-20260820", "osm_tags": {"leisure": "park"}, "category": "park"}, "geometry": {"type": "Polygon", "coordinates": [[[116.345196, 40.0074921], [116.3452053, 40.0070736], [116.3432133, 40.0070643], [116.3432159, 40.007485], [116.345196, 40.0074921]]]}}, {"type": "Feature", "id": "GREEN-1044616164", "properties": {"id": "GREEN-1044616164", "osm_id": 1044616164, "layer": "GREEN_SPACE", "source_type": "osm", "confidence": "high", "geometry_role": "existing_condition", "source_id": "DATA-SRC-OSM-20260820", "osm_tags": {"leisure": "park", "name": "王庄公园（东区）", "name:zh": "王庄公园（东区）", "name:zh-Hans": "王庄公园（东区）", "name:zh-Hant": "王莊公園（東區）"}, "category": "park"}, "geometry": {"type": "Polygon", "coordinates": [[[116.3425621, 39.9993375], [116.3425746, 39.9991427], [116.342521, 39.9991411], [116.3425222, 39.9990949], [116.34125249527906, 39.99906367682549], [116.34126807427482, 39.99930515125974], [116.3425621, 39.9993375]]]}}, {"type": "Feature", "id": "GREEN-1055249598", "properties": {"id": "GREEN-1055249598", "osm_id": 1055249598, "layer": "GREEN_SPACE", "source_type": "osm", "confidence": "high", "geometry_role": "existing_condition", "source_id": "DATA-SRC-OSM-20260820", "osm_tags": {"landuse": "forest"}, "category": "forest"}, "geometry": {"type": "Polygon", "coordinates": [[[116.3548456, 40.0231512], [116.3545847, 40.022877], [116.3545938, 40.0228119], [116.3547425, 40.0228421], [116.35511371757501, 40.023100345743934], [116.3551007055656, 40.02286287657224], [116.3550307, 40.0228468], [116.3549427, 40.0227631], [116.3550065, 40.0227375], [116.35509301878392, 40.0227225928064], [116.35508547177984, 40.0225848599821], [116.3549518, 40.0225586], [116.354879, 40.0226051], [116.3548699, 40.022698], [116.3546211, 40.0226121], [116.3544936, 40.0223936], [116.3544056, 40.0223402], [116.3542751, 40.0223262], [116.3541993, 40.0224819], [116.3542084, 40.0228282], [116.3542994, 40.0230792], [116.3545877, 40.0233673], [116.3547121, 40.0234138], [116.3550914, 40.0234672], [116.35513398432327, 40.023470213899635], [116.35512370411234, 40.02328260005027], [116.3548456, 40.0231512]]]}}, {"type": "Feature", "id": "GREEN-1070127512", "properties": {"id": "GREEN-1070127512", "osm_id": 1070127512, "layer": "GREEN_SPACE", "source_type": "osm", "confidence": "high", "geometry_role": "existing_condition", "source_id": "DATA-SRC-OSM-20260820", "osm_tags": {"landuse": "forest"}, "category": "forest"}, "geometry": {"type": "Polygon", "coordinates": [[[116.3479779, 40.0243309], [116.3499173, 40.0246905], [116.35079, 40.0247804], [116.3509048, 40.024159], [116.3508487, 40.0241609], [116.350841, 40.0240554], [116.3504582, 40.023989], [116.3506062, 40.0233637], [116.35042, 40.0233246], [116.3504761, 40.0230842], [116.3501163, 40.0229924], [116.350226, 40.0228029], [116.3501826, 40.0226973], [116.3499071, 40.0228888], [116.349708, 40.0230178], [116.3490752, 40.0232484], [116.3482101, 40.0235395], [116.3479779, 40.0243309]]]}}, {"type": "Feature", "id": "GREEN-1070127515", "properties": {"id": "GREEN-1070127515", "osm_id": 1070127515, "layer": "GREEN_SPACE", "source_type": "osm", "confidence": "high", "geometry_role": "existing_condition", "source_id": "DATA-SRC-OSM-20260820", "osm_tags": {"landuse": "forest"}, "category": "forest"}, "geometry": {"type": "Polygon", "coordinates": [[[116.3537265, 40.0223568], [116.3537211, 40.0220293], [116.3536958, 40.0220045], [116.3521007, 40.0220445], [116.3517363, 40.022057], [116.3511769, 40.0221661], [116.3511607, 40.022249], [116.3512328, 40.0225364], [116.3518932, 40.0226401], [116.3520574, 40.0221385], [116.3530607, 40.0223029], [116.3537138, 40.0224038], [116.3537265, 40.0223568]]]}}, {"type": "Feature", "id": "GREEN-1070127516", "properties": {"id": "GREEN-1070127516", "osm_id": 1070127516, "layer": "GREEN_SPACE", "source_type": "osm", "confidence": "high", "geometry_role": "existing_condition", "source_id": "DATA-SRC-OSM-20260820", "osm_tags": {"landuse": "forest"}, "category": "forest"}, "geometry": {"type": "Polygon", "coordinates": [[[116.3511187, 40.0225188], [116.3510777, 40.0222923], [116.3509563, 40.0222376], [116.3504814, 40.0224084], [116.3511187, 40.0225188]]]}}, {"type": "Feature", "id": "GREEN-1118949257", "properties": {"id": "GREEN-1118949257", "osm_id": 1118949257, "layer": "GREEN_SPACE", "source_type": "osm", "confidence": "high", "geometry_role": "existing_condition", "source_id": "DATA-SRC-OSM-20260820", "osm_tags": {"leisure": "park", "name": "元大都城垣遗址公园", "name:zh": "元大都城垣遗址公园", "name:zh-Hans": "元大都城垣遗址公园", "name:zh-Hant": "元大都城垣遺址公園"}, "category": "park"}, "geometry": {"type": "Polygon", "coordinates": [[[116.3475473, 39.9569561], [116.3474747, 39.9570065], [116.3474629, 39.9572348], [116.3474401, 39.9580105], [116.3480656, 39.956966], [116.3475473, 39.9569561]]]}}, {"type": "Feature", "id": "GREEN-1150992484", "properties": {"id": "GREEN-1150992484", "osm_id": 1150992484, "layer": "GREEN_SPACE", "source_type": "osm", "confidence": "high", "geometry_role": "existing_condition", "source_id": "DATA-SRC-OSM-20260820", "osm_tags": {"leisure": "park"}, "category": "park"}, "geometry": {"type": "Polygon", "coordinates": [[[116.3500192, 40.0137788], [116.3500715, 40.0136592], [116.3501585, 40.0135367], [116.3501859, 40.0134624], [116.3503309, 40.0133136], [116.3503459, 40.0131415], [116.3504291, 40.0130241], [116.3505121, 40.012991], [116.350664, 40.0127268], [116.3501196, 40.0125966], [116.3494459, 40.0135841], [116.3494255, 40.0138651], [116.3501003, 40.0138739], [116.3500192, 40.0137788]]]}}, {"type": "Feature", "id": "GREEN-1206659892", "properties": {"id": "GREEN-1206659892", "osm_id": 1206659892, "layer": "GREEN_SPACE", "source_type": "osm", "confidence": "high", "geometry_role": "existing_condition", "source_id": "DATA-SRC-OSM-20260820", "osm_tags": {"leisure": "park", "name": "雨水花园", "opening_hours": "all time"}, "category": "park"}, "geometry": {"type": "Polygon", "coordinates": [[[116.3423833, 40.004515], [116.3423887, 40.0044143], [116.34159792591218, 40.004417851638735], [116.34160410335494, 40.00451360200147], [116.3423833, 40.004515]]]}}, {"type": "Feature", "id": "GREEN-1215950375", "properties": {"id": "GREEN-1215950375", "osm_id": 1215950375, "layer": "EXISTING_WATER", "source_type": "osm", "confidence": "high", "geometry_role": "existing_condition", "source_id": "DATA-SRC-OSM-20260820", "osm_tags": {"intermittent": "yes", "natural": "water", "water": "basin"}, "category": "water"}, "geometry": {"type": "Polygon", "coordinates": [[[116.3404416, 39.9786628], [116.3404418, 39.9786531], [116.3404688, 39.9786534], [116.3404684, 39.9786439], [116.3404964, 39.9786437], [116.3404981, 39.9786273], [116.3404098, 39.9786269], [116.3404086, 39.9786626], [116.3404416, 39.9786628]]]}}, {"type": "Feature", "id": "GREEN-1215950376", "properties": {"id": "GREEN-1215950376", "osm_id": 1215950376, "layer": "EXISTING_WATER", "source_type": "osm", "confidence": "high", "geometry_role": "existing_condition", "source_id": "DATA-SRC-OSM-20260820", "osm_tags": {"intermittent": "yes", "natural": "water", "water": "basin"}, "category": "water"}, "geometry": {"type": "Polygon", "coordinates": [[[116.3404517, 39.9786038], [116.3404539, 39.9785926], [116.3404769, 39.9785939], [116.3404777, 39.9785828], [116.3405014, 39.9785832], [116.3405012, 39.9785687], [116.3404139, 39.9785685], [116.3404152, 39.9786038], [116.3404517, 39.9786038]]]}}, {"type": "Feature", "id": "GREEN-1315076526", "properties": {"id": "GREEN-1315076526", "osm_id": 1315076526, "layer": "GREEN_SPACE", "source_type": "osm", "confidence": "high", "geometry_role": "existing_condition", "source_id": "DATA-SRC-OSM-20260820", "osm_tags": {"leisure": "park"}, "category": "park"}, "geometry": {"type": "Polygon", "coordinates": [[[116.3484737, 39.9851713], [116.3499832, 39.9852182], [116.3500084, 39.9846409], [116.3484957, 39.984605], [116.3484737, 39.9851713]]]}}, {"type": "Feature", "id": "GREEN-1339237328", "properties": {"id": "GREEN-1339237328", "osm_id": 1339237328, "layer": "GREEN_SPACE", "source_type": "osm", "confidence": "high", "geometry_role": "existing_condition", "source_id": "DATA-SRC-OSM-20260820", "osm_tags": {"leisure": "park"}, "category": "park"}, "geometry": {"type": "Polygon", "coordinates": [[[116.3528403, 39.9868344], [116.3523785, 39.9868207], [116.3523178, 39.9868742], [116.3523178, 39.9873438], [116.3523664, 39.9873857], [116.3528428, 39.9873903], [116.3528403, 39.9868344]]]}}, {"type": "Feature", "id": "GREEN-1375860719", "properties": {"id": "GREEN-1375860719", "osm_id": 1375860719, "layer": "GREEN_SPACE", "source_type": "osm", "confidence": "high", "geometry_role": "existing_condition", "source_id": "DATA-SRC-OSM-20260820", "osm_tags": {"landuse": "grass"}, "category": "grass"}, "geometry": {"type": "Polygon", "coordinates": [[[116.3519196, 39.9613356], [116.3519246, 39.9612258], [116.351799, 39.9612224], [116.3517939, 39.9613322], [116.3519196, 39.9613356]]]}}, {"type": "Feature", "id": "GREEN-1375860720", "properties": {"id": "GREEN-1375860720", "osm_id": 1375860720, "layer": "GREEN_SPACE", "source_type": "osm", "confidence": "high", "geometry_role": "existing_condition", "source_id": "DATA-SRC-OSM-20260820", "osm_tags": {"landuse": "grass"}, "category": "grass"}, "geometry": {"type": "Polygon", "coordinates": [[[116.3519063, 39.9616228], [116.3519082, 39.9615528], [116.3517415, 39.9615501], [116.3517396, 39.9616201], [116.3519063, 39.9616228]]]}}, {"type": "Feature", "id": "GREEN-1376682983", "properties": {"id": "GREEN-1376682983", "osm_id": 1376682983, "layer": "GREEN_SPACE", "source_type": "osm", "confidence": "high", "geometry_role": "existing_condition", "source_id": "DATA-SRC-OSM-20260820", "osm_tags": {"landuse": "grass"}, "category": "grass"}, "geometry": {"type": "Polygon", "coordinates": [[[116.3519398, 39.9618074], [116.3519376, 39.961867], [116.3519521, 39.9618751], [116.3522289, 39.9618804], [116.3522409, 39.9618687], [116.3522427, 39.9618131], [116.3519398, 39.9618074]]]}}, {"type": "Feature", "id": "GREEN-1376682984", "properties": {"id": "GREEN-1376682984", "osm_id": 1376682984, "layer": "GREEN_SPACE", "source_type": "osm", "confidence": "high", "geometry_role": "existing_condition", "source_id": "DATA-SRC-OSM-20260820", "osm_tags": {"landuse": "grass"}, "category": "grass"}, "geometry": {"type": "Polygon", "coordinates": [[[116.3515618, 39.9618015], [116.3515596, 39.9618689], [116.351815, 39.9618745], [116.3518466, 39.961861], [116.3518472, 39.9618072], [116.3515618, 39.9618015]]]}}, {"type": "Feature", "id": "GREEN-1376682985", "properties": {"id": "GREEN-1376682985", "osm_id": 1376682985, "layer": "GREEN_SPACE", "source_type": "osm", "confidence": "high", "geometry_role": "existing_condition", "source_id": "DATA-SRC-OSM-20260820", "osm_tags": {"landuse": "grass"}, "category": "grass"}, "geometry": {"type": "Polygon", "coordinates": [[[116.3515478, 39.96187], [116.3515516, 39.961602], [116.35133, 39.9616], [116.3513185, 39.9618661], [116.3515478, 39.96187]]]}}, {"type": "Feature", "id": "GREEN-1376682992", "properties": {"id": "GREEN-1376682992", "osm_id": 1376682992, "layer": "GREEN_SPACE", "source_type": "osm", "confidence": "high", "geometry_role": "existing_condition", "source_id": "DATA-SRC-OSM-20260820", "osm_tags": {"landuse": "grass"}, "category": "grass"}, "geometry": {"type": "Polygon", "coordinates": [[[116.3515809, 39.9612718], [116.3515939, 39.9610438], [116.3518037, 39.9610482], [116.3518037, 39.9610207], [116.3514728, 39.9610165], [116.3514618, 39.9612667], [116.3515809, 39.9612718]]]}}, {"type": "Feature", "id": "GREEN-1376682993", "properties": {"id": "GREEN-1376682993", "osm_id": 1376682993, "layer": "GREEN_SPACE", "source_type": "osm", "confidence": "high", "geometry_role": "existing_condition", "source_id": "DATA-SRC-OSM-20260820", "osm_tags": {"landuse": "grass"}, "category": "grass"}, "geometry": {"type": "Polygon", "coordinates": [[[116.3522704, 39.9610573], [116.3522725, 39.9610306], [116.3520145, 39.9610281], [116.352014, 39.9610503], [116.3522704, 39.9610573]]]}}, {"type": "Feature", "id": "GREEN-1378572137", "properties": {"id": "GREEN-1378572137", "osm_id": 1378572137, "layer": "GREEN_SPACE", "source_type": "osm", "confidence": "high", "geometry_role": "existing_condition", "source_id": "DATA-SRC-OSM-20260820", "osm_tags": {"landuse": "grass"}, "category": "grass"}, "geometry": {"type": "Polygon", "coordinates": [[[116.3529165, 39.9606417], [116.3529219, 39.9603401], [116.3528522, 39.9603401], [116.3528434, 39.9606417], [116.3529165, 39.9606417]]]}}, {"type": "Feature", "id": "GREEN-1378572138", "properties": {"id": "GREEN-1378572138", "osm_id": 1378572138, "layer": "GREEN_SPACE", "source_type": "osm", "confidence": "high", "geometry_role": "existing_condition", "source_id": "DATA-SRC-OSM-20260820", "osm_tags": {"landuse": "grass"}, "category": "grass"}, "geometry": {"type": "Polygon", "coordinates": [[[116.3525778, 39.9608998], [116.3525941, 39.9609252], [116.3526198, 39.9609418], [116.3529043, 39.9609392], [116.3529124, 39.9607144], [116.3525846, 39.9607155], [116.3525778, 39.9608998]]]}}, {"type": "Feature", "id": "GREEN-1383258964", "properties": {"id": "GREEN-1383258964", "osm_id": 1383258964, "layer": "GREEN_SPACE", "source_type": "osm", "confidence": "high", "geometry_role": "existing_condition", "source_id": "DATA-SRC-OSM-20260820", "osm_tags": {"leisure": "park"}, "category": "park"}, "geometry": {"type": "Polygon", "coordinates": [[[116.3532497, 40.0072582], [116.3528826, 40.0080438], [116.354307556657, 40.008387908990194], [116.35425767505087, 40.007477569678514], [116.3532497, 40.0072582]]]}}, {"type": "Feature", "id": "GREEN-1387672335", "properties": {"id": "GREEN-1387672335", "osm_id": 1387672335, "layer": "GREEN_SPACE", "source_type": "osm", "confidence": "high", "geometry_role": "existing_condition", "source_id": "DATA-SRC-OSM-20260820", "osm_tags": {"landuse": "grass"}, "category": "grass"}, "geometry": {"type": "Polygon", "coordinates": [[[116.3493131, 39.9590785], [116.3493198, 39.958988], [116.3491457, 39.9589804], [116.349139, 39.9590709], [116.3493131, 39.9590785]]]}}, {"type": "Feature", "id": "GREEN-1388209138", "properties": {"id": "GREEN-1388209138", "osm_id": 1388209138, "layer": "EXISTING_WATER", "source_type": "osm", "confidence": "high", "geometry_role": "existing_condition", "source_id": "DATA-SRC-OSM-20260820", "osm_tags": {"natural": "water", "water": "pond"}, "category": "water"}, "geometry": {"type": "Polygon", "coordinates": [[[116.350192, 40.0143688], [116.3502373, 40.0143506], [116.3503052, 40.0143506], [116.3503326, 40.0143634], [116.3503684, 40.014346], [116.3503672, 40.0143168], [116.3503922, 40.0142794], [116.3504662, 40.0142593], [116.3505031, 40.014273], [116.350558, 40.0142438], [116.3505639, 40.0142155], [116.3505925, 40.0141798], [116.3506414, 40.0141442], [116.3507308, 40.014126], [116.3508023, 40.0141378], [116.3508524, 40.0141561], [116.3509025, 40.0141579], [116.3509108, 40.0141415], [116.3509466, 40.0141141], [116.3509156, 40.0140228], [116.3503946, 40.0141214], [116.3503815, 40.0141607], [116.350366, 40.0142282], [116.3503148, 40.0142784], [116.3502265, 40.0142967], [116.3501312, 40.0142748], [116.3500954, 40.0143341], [116.350192, 40.0143688]]]}}, {"type": "Feature", "id": "GREEN-1389976010", "properties": {"id": "GREEN-1389976010", "osm_id": 1389976010, "layer": "GREEN_SPACE", "source_type": "osm", "confidence": "high", "geometry_role": "existing_condition", "source_id": "DATA-SRC-OSM-20260820", "osm_tags": {"landuse": "grass"}, "category": "grass"}, "geometry": {"type": "Polygon", "coordinates": [[[116.3402265, 39.9808346], [116.3402291, 39.9807368], [116.3407199, 39.9807446], [116.3407208, 39.9807124], [116.3407969, 39.9807136], [116.3407933, 39.9808465], [116.3409829, 39.9808495], [116.340988, 39.9806619], [116.3401511, 39.9806485], [116.3401461, 39.9808333], [116.3402265, 39.9808346]]]}}, {"type": "Feature", "id": "GREEN-1390040867", "properties": {"id": "GREEN-1390040867", "osm_id": 1390040867, "layer": "GREEN_SPACE", "source_type": "osm", "confidence": "high", "geometry_role": "existing_condition", "source_id": "DATA-SRC-OSM-20260820", "osm_tags": {"landuse": "grass"}, "category": "grass"}, "geometry": {"type": "Polygon", "coordinates": [[[116.3416298, 39.9802494], [116.3413049, 39.9802437], [116.3413037, 39.9803553], [116.3413912, 39.9803572], [116.3414014, 39.9803504], [116.3414298, 39.9803505], [116.3414405, 39.9803573], [116.3414696, 39.9803577], [116.3414779, 39.9803506], [116.3415066, 39.9803505], [116.3415182, 39.9803606], [116.3416302, 39.9803612], [116.3416298, 39.9802494]]]}}, {"type": "Feature", "id": "GREEN-1390040870", "properties": {"id": "GREEN-1390040870", "osm_id": 1390040870, "layer": "GREEN_SPACE", "source_type": "osm", "confidence": "high", "geometry_role": "existing_condition", "source_id": "DATA-SRC-OSM-20260820", "osm_tags": {"landuse": "grass"}, "category": "grass"}, "geometry": {"type": "Polygon", "coordinates": [[[116.3411542, 39.9803414], [116.341158, 39.9802423], [116.3409626, 39.9802393], [116.3409603, 39.9803397], [116.3411542, 39.9803414]]]}}, {"type": "Feature", "id": "GREEN-1390040874", "properties": {"id": "GREEN-1390040874", "osm_id": 1390040874, "layer": "GREEN_SPACE", "source_type": "osm", "confidence": "high", "geometry_role": "existing_condition", "source_id": "DATA-SRC-OSM-20260820", "osm_tags": {"landuse": "grass"}, "category": "grass"}, "geometry": {"type": "Polygon", "coordinates": [[[116.3408642, 39.9803355], [116.3408716, 39.979991], [116.3408111, 39.9799863], [116.3408037, 39.9803336], [116.3408642, 39.9803355]]]}}, {"type": "Feature", "id": "GREEN-1390040881", "properties": {"id": "GREEN-1390040881", "osm_id": 1390040881, "layer": "GREEN_SPACE", "source_type": "osm", "confidence": "high", "geometry_role": "existing_condition", "source_id": "DATA-SRC-OSM-20260820", "osm_tags": {"landuse": "grass"}, "category": "grass"}, "geometry": {"type": "Polygon", "coordinates": [[[116.3407762, 39.9808577], [116.3407776, 39.9808304], [116.3407388, 39.9808305], [116.3407384, 39.9808575], [116.3407762, 39.9808577]]]}}, {"type": "Feature", "id": "GREEN-1390040882", "properties": {"id": "GREEN-1390040882", "osm_id": 1390040882, "layer": "GREEN_SPACE", "source_type": "osm", "confidence": "high", "geometry_role": "existing_condition", "source_id": "DATA-SRC-OSM-20260820", "osm_tags": {"landuse": "grass"}, "category": "grass"}, "geometry": {"type": "Polygon", "coordinates": [[[116.3407052, 39.980842], [116.3407063, 39.9807781], [116.3402674, 39.980774], [116.3402664, 39.9808378], [116.3407052, 39.980842]]]}}, {"type": "Feature", "id": "GREEN-1390296102", "properties": {"id": "GREEN-1390296102", "osm_id": 1390296102, "layer": "GREEN_SPACE", "source_type": "osm", "confidence": "high", "geometry_role": "existing_condition", "source_id": "DATA-SRC-OSM-20260820", "osm_tags": {"landuse": "grass"}, "category": "grass"}, "geometry": {"type": "Polygon", "coordinates": [[[116.3409851, 39.9809102], [116.3409859, 39.9808819], [116.3401655, 39.9808697], [116.3401648, 39.9808979], [116.3409851, 39.9809102]]]}}, {"type": "Feature", "id": "GREEN-1390423794", "properties": {"id": "GREEN-1390423794", "osm_id": 1390423794, "layer": "GREEN_SPACE", "source_type": "osm", "confidence": "high", "geometry_role": "existing_condition", "source_id": "DATA-SRC-OSM-20260820", "osm_tags": {"landuse": "grass"}, "category": "grass"}, "geometry": {"type": "Polygon", "coordinates": [[[116.3408566, 39.9804694], [116.3408605, 39.9803835], [116.3406928, 39.9803791], [116.340689, 39.980465], [116.3408566, 39.9804694]]]}}, {"type": "Feature", "id": "GREEN-1390423795", "properties": {"id": "GREEN-1390423795", "osm_id": 1390423795, "layer": "GREEN_SPACE", "source_type": "osm", "confidence": "high", "geometry_role": "existing_condition", "source_id": "DATA-SRC-OSM-20260820", "osm_tags": {"landuse": "grass"}, "category": "grass"}, "geometry": {"type": "Polygon", "coordinates": [[[116.3405975, 39.980476], [116.3405999, 39.9803711], [116.3405285, 39.9803702], [116.3405184, 39.9803936], [116.3404888, 39.9804163], [116.340458, 39.9804283], [116.340423, 39.9804288], [116.3403899, 39.9804206], [116.3403619, 39.9804029], [116.3403345, 39.980368], [116.3401551, 39.9803655], [116.3401527, 39.9804699], [116.3405975, 39.980476]]]}}, {"type": "Feature", "id": "GREEN-1390423802", "properties": {"id": "GREEN-1390423802", "osm_id": 1390423802, "layer": "GREEN_SPACE", "source_type": "osm", "confidence": "high", "geometry_role": "existing_condition", "source_id": "DATA-SRC-OSM-20260820", "osm_tags": {"landuse": "grass"}, "category": "grass"}, "geometry": {"type": "Polygon", "coordinates": [[[116.3400663, 39.9804005], [116.34004840531841, 39.98040028243548], [116.34006194377655, 39.980610128536625], [116.3400663, 39.9804005]]]}}, {"type": "Feature", "id": "GREEN-1390953504", "properties": {"id": "GREEN-1390953504", "osm_id": 1390953504, "layer": "GREEN_SPACE", "source_type": "osm", "confidence": "high", "geometry_role": "existing_condition", "source_id": "DATA-SRC-OSM-20260820", "osm_tags": {"leisure": "park", "name": "晨读园", "name:en": "Morning Reading Garden"}, "category": "park"}, "geometry": {"type": "Polygon", "coordinates": [[[116.3438249, 39.9833141], [116.3438808, 39.9820505], [116.3433183, 39.9820358], [116.343262, 39.9832994], [116.3438249, 39.9833141]]]}}, {"type": "Feature", "id": "GREEN-1393834540", "properties": {"id": "GREEN-1393834540", "osm_id": 1393834540, "layer": "GREEN_SPACE", "source_type": "osm", "confidence": "high", "geometry_role": "existing_condition", "source_id": "DATA-SRC-OSM-20260820", "osm_tags": {"leisure": "park"}, "category": "park"}, "geometry": {"type": "Polygon", "coordinates": [[[116.3511764, 40.0082661], [116.3513995, 40.0078725], [116.351012, 40.0077437], [116.3507888, 40.0081372], [116.3511764, 40.0082661]]]}}, {"type": "Feature", "id": "GREEN-1486701148", "properties": {"id": "GREEN-1486701148", "osm_id": 1486701148, "layer": "EXISTING_WATER", "source_type": "osm", "confidence": "high", "geometry_role": "existing_condition", "source_id": "DATA-SRC-OSM-20260820", "osm_tags": {"golf": "water_hazard", "natural": "water"}, "category": "water"}, "geometry": {"type": "Polygon", "coordinates": [[[116.3542314, 40.0257263], [116.3542874, 40.0256894], [116.3543566, 40.0256377], [116.354382, 40.0255954], [116.3543864, 40.0255431], [116.3543575, 40.0254781], [116.3543225, 40.0254143], [116.3542655, 40.0253741], [116.3541744, 40.0253573], [116.3540991, 40.0253768], [116.3540448, 40.0254143], [116.3540053, 40.025464], [116.3539948, 40.0255223], [116.3540158, 40.0255693], [116.3540404, 40.0256115], [116.3540737, 40.0256431], [116.3541245, 40.0257276], [116.3541525, 40.0257652], [116.3542314, 40.0257263]]]}}, {"type": "Feature", "id": "GREEN-1486701150", "properties": {"id": "GREEN-1486701150", "osm_id": 1486701150, "layer": "GREEN_SPACE", "source_type": "osm", "confidence": "high", "geometry_role": "existing_condition", "source_id": "DATA-SRC-OSM-20260820", "osm_tags": {"landuse": "forest"}, "category": "forest"}, "geometry": {"type": "Polygon", "coordinates": [[[116.3513374, 40.0254919], [116.3514141, 40.0254934], [116.3514826, 40.0254668], [116.3515582, 40.0254355], [116.3515878, 40.0253729], [116.3515173, 40.0253651], [116.3513957, 40.0253761], [116.3513109, 40.0254254], [116.351269, 40.0254801], [116.3513374, 40.0254919]]]}}, {"type": "Feature", "id": "GREEN-1486701152", "properties": {"id": "GREEN-1486701152", "osm_id": 1486701152, "layer": "GREEN_SPACE", "source_type": "osm", "confidence": "high", "geometry_role": "existing_condition", "source_id": "DATA-SRC-OSM-20260820", "osm_tags": {"landuse": "forest"}, "category": "forest"}, "geometry": {"type": "Polygon", "coordinates": [[[116.3552103, 40.0254584], [116.355138, 40.0255122], [116.3551102, 40.0255553], [116.3550365, 40.0255974], [116.3549774, 40.0256038], [116.354935, 40.0255708], [116.354807, 40.0255708], [116.3546972, 40.0255601], [116.3546603, 40.0255798], [116.3546005, 40.025599], [116.3545623, 40.0255777], [116.3545303, 40.0255867], [116.35449, 40.0256655], [116.3546269, 40.0256996], [116.354718, 40.0257092], [116.3548119, 40.0257188], [116.3548939, 40.0257156], [116.3549586, 40.0257374], [116.3549899, 40.0257662], [116.3549795, 40.0257923], [116.354953, 40.0258242], [116.3549162, 40.0258572], [116.3549113, 40.0258838], [116.3549287, 40.0259073], [116.3549419, 40.0259371], [116.3549224, 40.0259759], [116.3549391, 40.0260111], [116.3549635, 40.0260063], [116.3550198, 40.0259834], [116.3550386, 40.0259557], [116.3550559, 40.0259302], [116.3550803, 40.0258764], [116.3550775, 40.0258391], [116.3550636, 40.0257992], [116.3550831, 40.0257699], [116.3551123, 40.0257592], [116.3551811, 40.0257433], [116.35525711472614, 40.02571734375205], [116.35524287316217, 40.02545743520958], [116.3552103, 40.0254584]]]}}, {"type": "Feature", "id": "GREEN-1486701153", "properties": {"id": "GREEN-1486701153", "osm_id": 1486701153, "layer": "GREEN_SPACE", "source_type": "osm", "confidence": "high", "geometry_role": "existing_condition", "source_id": "DATA-SRC-OSM-20260820", "osm_tags": {"landuse": "forest"}, "category": "forest"}, "geometry": {"type": "Polygon", "coordinates": [[[116.355261, 40.0259967], [116.3551569, 40.0259924], [116.3550746, 40.0260554], [116.3550283, 40.0261185], [116.3550084, 40.0261764], [116.354998, 40.0262329], [116.3550794, 40.0262677], [116.3551551, 40.0262706], [116.35528793158497, 40.026279751425704], [116.35527300401488, 40.02600732327138], [116.355261, 40.0259967]]]}}, {"type": "Feature", "id": "GREEN-1523972356", "properties": {"id": "GREEN-1523972356", "osm_id": 1523972356, "layer": "GREEN_SPACE", "source_type": "osm", "confidence": "high", "geometry_role": "existing_condition", "source_id": "DATA-SRC-OSM-20260820", "osm_tags": {"landuse": "forest"}, "category": "forest"}, "geometry": {"type": "Polygon", "coordinates": [[[116.3462839, 40.0175557], [116.3464477, 40.0173855], [116.3467397, 40.0170065], [116.3470382, 40.0165494], [116.347374, 40.0160748], [116.3476919, 40.0156188], [116.3478736, 40.0153256], [116.348164, 40.0147727], [116.3483035, 40.014446], [116.3483522, 40.0141143], [116.3482224, 40.0141093], [116.3475097, 40.0152713], [116.3477563, 40.0153172], [116.3476492, 40.0154489], [116.3471625, 40.0153396], [116.3468673, 40.0152998], [116.3468198, 40.0158836], [116.3462225, 40.015868], [116.3462032, 40.0161319], [116.346922, 40.0161521], [116.346902, 40.0166105], [116.3466588, 40.0166159], [116.3466542, 40.0169181], [116.3463808, 40.0172898], [116.3461375, 40.0172811], [116.3461002, 40.0177122], [116.3462839, 40.0175557]]]}}, {"type": "Feature", "id": "GREEN-1539169787", "properties": {"id": "GREEN-1539169787", "osm_id": 1539169787, "layer": "GREEN_SPACE", "source_type": "osm", "confidence": "high", "geometry_role": "existing_condition", "source_id": "DATA-SRC-OSM-20260820", "osm_tags": {"landuse": "grass"}, "category": "grass"}, "geometry": {"type": "Polygon", "coordinates": [[[116.3439339, 40.0222087], [116.3440069, 40.0224236], [116.3441886, 40.0227354], [116.3443086, 40.0229664], [116.3443735, 40.023236], [116.3443913, 40.0233863], [116.3444708, 40.0235938], [116.3445827, 40.0237192], [116.3446282, 40.0238857], [116.3445292, 40.0241068], [116.3445649, 40.0243192], [116.3444968, 40.0246422], [116.3445584, 40.0247354], [116.3449834, 40.0242757], [116.3450937, 40.0241366], [116.345157, 40.0238559], [116.3451329, 40.0232563], [116.3450633, 40.0230518], [116.3449034, 40.0228229], [116.3447616, 40.0226472], [116.3445363, 40.0223916], [116.3444542, 40.0221254], [116.3443778, 40.0220625], [116.3439355, 40.022038], [116.3439339, 40.0222087]]]}}]}