{
  "type": "FeatureCollection",
  "features": [
    {
      "type": "Feature",
      "id": "NODE-01",
      "properties": {
        "node_id": "AI-SVC-01",
        "scenario": "mixed",
        "node_ref": "NODE-01"
      },
      "geometry": {
        "type": "Point",
        "coordinates": [
          116.340047,
          39.938914
        ]
      }
    },
    {
      "type": "Feature",
      "id": "NODE-02",
      "properties": {
        "node_id": "AI-SVC-02",
        "scenario": "mixed",
        "node_ref": "NODE-02"
      },
      "geometry": {
        "type": "Point",
        "coordinates": [
          116.341172,
          39.95054
        ]
      }
    },
    {
      "type": "Feature",
      "id": "NODE-03",
      "properties": {
        "node_id": "AI-SVC-03",
        "scenario": "mixed",
        "node_ref": "NODE-03"
      },
      "geometry": {
        "type": "Point",
        "coordinates": [
          116.342308,
          39.961048
        ]
      }
    },
    {
      "type": "Feature",
      "id": "NODE-04",
      "properties": {
        "node_id": "AI-SVC-04",
        "scenario": "mixed",
        "node_ref": "NODE-04"
      },
      "geometry": {
        "type": "Point",
        "coordinates": [
          116.343464,
          39.969574
        ]
      }
    },
    {
      "type": "Feature",
      "id": "NODE-05",
      "properties": {
        "node_id": "AI-SVC-05",
        "scenario": "mixed",
        "node_ref": "NODE-05"
      },
      "geometry": {
        "type": "Point",
        "coordinates": [
          116.344642,
          39.975711
        ]
      }
    },
    {
      "type": "Feature",
      "id": "NODE-06",
      "properties": {
        "node_id": "AI-SVC-06",
        "scenario": "mixed",
        "node_ref": "NODE-06"
      },
      "geometry": {
        "type": "Point",
        "coordinates": [
          116.345842,
          39.979597
        ]
      }
    },
    {
      "type": "Feature",
      "id": "NODE-07",
      "properties": {
        "node_id": "AI-SVC-07",
        "scenario": "mixed",
        "node_ref": "NODE-07"
      },
      "geometry": {
        "type": "Point",
        "coordinates": [
          116.347058,
          39.981886
        ]
      }
    },
    {
      "type": "Feature",
      "id": "NODE-08",
      "properties": {
        "node_id": "AI-SVC-08",
        "scenario": "mixed",
        "node_ref": "NODE-08"
      },
      "geometry": {
        "type": "Point",
        "coordinates": [
          116.348279,
          39.9836
        ]
      }
    },
    {
      "type": "Feature",
      "id": "NODE-09",
      "properties": {
        "node_id": "AI-SVC-09",
        "scenario": "mixed",
        "node_ref": "NODE-09"
      },
      "geometry": {
        "type": "Point",
        "coordinates": [
          116.349495,
          39.985889
        ]
      }
    },
    {
      "type": "Feature",
      "id": "NODE-10",
      "properties": {
        "node_id": "AI-SVC-10",
        "scenario": "mixed",
        "node_ref": "NODE-10"
      },
      "geometry": {
        "type": "Point",
        "coordinates": [
          116.350695,
          39.989775
        ]
      }
    },
    {
      "type": "Feature",
      "id": "NODE-11",
      "properties": {
        "node_id": "AI-SVC-11",
        "scenario": "mixed",
        "node_ref": "NODE-11"
      },
      "geometry": {
        "type": "Point",
        "coordinates": [
          116.351875,
          39.995911
        ]
      }
    },
    {
      "type": "Feature",
      "id": "NODE-12",
      "properties": {
        "node_id": "AI-SVC-12",
        "scenario": "mixed",
        "node_ref": "NODE-12"
      },
      "geometry": {
        "type": "Point",
        "coordinates": [
          116.353032,
          40.004438
        ]
      }
    },
    {
      "type": "Feature",
      "id": "NODE-13",
      "properties": {
        "node_id": "AI-SVC-13",
        "scenario": "mixed",
        "node_ref": "NODE-13"
      },
      "geometry": {
        "type": "Point",
        "coordinates": [
          116.354171,
          40.014945
        ]
      }
    },
    {
      "type": "Feature",
      "id": "NODE-14",
      "properties": {
        "node_id": "AI-SVC-14",
        "scenario": "mixed",
        "node_ref": "NODE-14"
      },
      "geometry": {
        "type": "Point",
        "coordinates": [
          116.355299,
          40.026571
        ]
      }
    }
  ]
}