{
  "type": "FeatureCollection",
  "name": "green_space_halo",
  "features": [
    {
      "type": "Feature",
      "id": "GREEN-CORR-1",
      "properties": {
        "id": "GREEN-CORR-1",
        "layer": "GREEN_SPACE",
        "source_type": "agent_generated_design",
        "confidence": "medium",
        "geometry_role": "design_proposal",
        "green_type": "park_green",
        "name_zh": "遗址公园服务绿脊(南段)",
        "ecological_status": "concept_pending_flood_ecology_review"
      },
      "geometry": {
        "type": "Polygon",
        "coordinates": [
          [
            [
              116.3425,
              39.94984
            ],
            [
              116.3475,
              39.94984
            ],
            [
              116.3475,
              39.939
            ],
            [
              116.3425,
              39.939
            ],
            [
              116.3425,
              39.94984
            ]
          ]
        ]
      }
    },
    {
      "type": "Feature",
      "id": "GREEN-CORR-3",
      "properties": {
        "id": "GREEN-CORR-3",
        "layer": "GREEN_SPACE",
        "source_type": "agent_generated_design",
        "confidence": "medium",
        "geometry_role": "design_proposal",
        "green_type": "park_green",
        "name_zh": "遗址公园服务绿脊(中段)",
        "ecological_status": "concept_pending_flood_ecology_review"
      },
      "geometry": {
        "type": "Polygon",
        "coordinates": [
          [
            [
              116.3425,
              39.965
            ],
            [
              116.3425,
              39.9835
            ],
            [
              116.3475,
              39.9835
            ],
            [
              116.3475,
              39.965
            ],
            [
              116.3425,
              39.965
            ]
          ]
        ]
      }
    },
    {
      "type": "Feature",
      "id": "GREEN-CORR-5",
      "properties": {
        "id": "GREEN-CORR-5",
        "layer": "GREEN_SPACE",
        "source_type": "agent_generated_design",
        "confidence": "medium",
        "geometry_role": "design_proposal",
        "green_type": "park_green",
        "name_zh": "遗址公园服务绿脊(北段)",
        "ecological_status": "concept_pending_flood_ecology_review"
      },
      "geometry": {
        "type": "Polygon",
        "coordinates": [
          [
            [
              116.3425,
              39.9935
            ],
            [
              116.3425,
              40.0075
            ],
            [
              116.3475,
              40.0075
            ],
            [
              116.3475,
              39.9935
            ],
            [
              116.3425,
              39.9935
            ]
          ]
        ]
      }
    },
    {
      "type": "Feature",
      "id": "GREEN-EAST-1",
      "properties": {
        "id": "GREEN-EAST-1",
        "layer": "GREEN_SPACE",
        "source_type": "agent_generated_design",
        "confidence": "medium",
        "geometry_role": "design_proposal",
        "green_type": "regional_park",
        "name_zh": "大钟寺区域公园",
        "ecological_status": "concept_pending_flood_ecology_review"
      },
      "geometry": {
        "type": "Polygon",
        "coordinates": [
          [
            [
              116.349,
              39.95
            ],
            [
              116.349,
              39.952
            ],
            [
              116.353,
              39.952
            ],
            [
              116.353,
              39.95
            ],
            [
              116.349,
              39.95
            ]
          ]
        ]
      }
    },
    {
      "type": "Feature",
      "id": "GREEN-WEST-3",
      "properties": {
        "id": "GREEN-WEST-3",
        "layer": "GREEN_SPACE",
        "source_type": "agent_generated_design",
        "confidence": "medium",
        "geometry_role": "design_proposal",
        "green_type": "regional_park",
        "name_zh": "原点区域公园",
        "ecological_status": "concept_pending_flood_ecology_review"
      },
      "geometry": {
        "type": "Polygon",
        "coordinates": [
          [
            [
              116.343,
              39.97
            ],
            [
              116.353,
              39.97
            ],
            [
              116.353,
              39.985
            ],
            [
              116.343,
              39.985
            ],
            [
              116.343,
              39.97
            ]
          ]
        ]
      }
    },
    {
      "type": "Feature",
      "id": "GREEN-EAST-3",
      "properties": {
        "id": "GREEN-EAST-3",
        "layer": "GREEN_SPACE",
        "source_type": "agent_generated_design",
        "confidence": "medium",
        "geometry_role": "design_proposal",
        "green_type": "regional_park",
        "name_zh": "众智园区域公园",
        "ecological_status": "concept_pending_flood_ecology_review"
      },
      "geometry": {
        "type": "Polygon",
        "coordinates": [
          [
            [
              116.349,
              40.0
            ],
            [
              116.349,
              40.005
            ],
            [
              116.353,
              40.005
            ],
            [
              116.353,
              40.0
            ],
            [
              116.349,
              40.0
            ]
          ]
        ]
      }
    },
    {
      "type": "Feature",
      "id": "GREEN-WEST-1",
      "properties": {
        "id": "GREEN-WEST-1",
        "layer": "GREEN_SPACE",
        "source_type": "agent_generated_design",
        "confidence": "medium",
        "geometry_role": "design_proposal",
        "green_type": "community_park",
        "name_zh": "清河遮阴与休息带",
        "ecological_status": "concept_pending_flood_ecology_review"
      },
      "geometry": {
        "type": "Polygon",
        "coordinates": [
          [
            [
              116.341,
              39.948
            ],
            [
              116.341,
              39.942
            ],
            [
              116.34061666666666,
              39.942
            ],
            [
              116.34045,
              39.948
            ],
            [
              116.341,
              39.948
            ]
          ]
        ]
      }
    }
  ]
}