{
  "type": "FeatureCollection",
  "name": "key_areas_halo",
  "features": [
    {
      "type": "Feature",
      "id": "PROV-KEY-001",
      "properties": {
        "id": "PROV-KEY-001",
        "layer": "KEY_AREA",
        "parent_scope_id": "key_detailed_design_area",
        "area_id": "zhongzhiyuan_ai_acceleration_area",
        "name_zh": "众智园AI自主创新加速区",
        "name_en": "Zhongzhi Park AI Acceleration Area",
        "design_concept_zh": "AI全栈自主创新加速引擎，覆盖芯片、框架、平台、应用的完整创新链条",
        "source_type": "agent_inferred_from_public_data",
        "confidence": "medium",
        "geometry_role": "provisional_constraint",
        "official_boundary": false,
        "boundary_precision": "provisional_rough",
        "announced_area_sqm": 1921000,
        "area_sqm_calculated": 1929201.877,
        "source_id": "DATA-SRC-PROVISIONAL-BOUNDARIES-20260605",
        "derived_from_source_ids": [
          "DATA-SRC-OFFICIAL-ANNOUNCEMENT-20260509"
        ],
        "source_title": "依据公告重点片区名称、南北顺序、公告约面积和临时 SITE_BOUNDARY 形成的临时粗略范围",
        "derivation_method": "按公告自北向南第一处、众智园AI自主创新加速区、约192.1公顷及五环路/清河相关任务线索，在临时总体设计范围内粗略定位并校核面积。",
        "usage_note": "仅用于 AI agent 生成、展示和临时自检；不得作为 official key-area polygon。",
        "design_positioning": "技术信号站·受控测试工场",
        "ai_function": "AI模型测试+安全治理+算力体验",
        "building_mix": "AI研发60%+中试15%+展示10%+配套15%",
        "green_ratio_target": ">=40%",
        "height_control": "沿河60-80m/内部4-6层",
        "implementation_priority": "G0资格→G1试点→G2放行"
      },
      "geometry": {
        "type": "Polygon",
        "coordinates": [
          [
            [
              116.343,
              40.0075
            ],
            [
              116.354,
              40.0075
            ],
            [
              116.354,
              40.026
            ],
            [
              116.343,
              40.026
            ],
            [
              116.343,
              40.0075
            ]
          ]
        ]
      }
    },
    {
      "type": "Feature",
      "id": "PROV-KEY-002",
      "properties": {
        "id": "PROV-KEY-002",
        "layer": "KEY_AREA",
        "parent_scope_id": "key_detailed_design_area",
        "area_id": "beijing_ai_origin_community",
        "name_zh": "北京AI原点社区",
        "name_en": "Beijing AI Origin Community",
        "design_concept_zh": "全球AI创新策源地，AI科学家、创业者、开发者的精神家园与创新社区",
        "source_type": "agent_inferred_from_public_data",
        "confidence": "medium",
        "geometry_role": "provisional_constraint",
        "official_boundary": false,
        "boundary_precision": "provisional_rough",
        "announced_area_sqm": 1043000,
        "area_sqm_calculated": 1043236.909,
        "source_id": "DATA-SRC-PROVISIONAL-BOUNDARIES-20260605",
        "derived_from_source_ids": [
          "DATA-SRC-OFFICIAL-ANNOUNCEMENT-20260509"
        ],
        "source_title": "依据公告重点片区名称、南北顺序、公告约面积和临时 SITE_BOUNDARY 形成的临时粗略范围",
        "derivation_method": "按公告自北向南第二处、北京AI原点社区、约104.3公顷及五道口/清华东路西口相关任务线索，在临时总体设计范围内粗略定位并校核面积。",
        "usage_note": "仅用于 AI agent 生成、展示和临时自检；不得作为 official key-area polygon。",
        "design_positioning": "学习信号站·知识协作与公共服务",
        "ai_function": "开源发布+成果转化+人才服务+夜间协作",
        "building_mix": "孵化45%+居住25%+开源15%+配套15%",
        "green_ratio_target": ">=35%",
        "height_control": "近校3-5层/骨干6-8层",
        "implementation_priority": "G0资格→G1试点→G2放行"
      },
      "geometry": {
        "type": "Polygon",
        "coordinates": [
          [
            [
              116.342,
              39.9835
            ],
            [
              116.353,
              39.9835
            ],
            [
              116.353,
              39.9935
            ],
            [
              116.342,
              39.9935
            ],
            [
              116.342,
              39.9835
            ]
          ]
        ]
      }
    },
    {
      "type": "Feature",
      "id": "PROV-KEY-003",
      "properties": {
        "id": "PROV-KEY-003",
        "layer": "KEY_AREA",
        "parent_scope_id": "key_detailed_design_area",
        "area_id": "dazhongsi_ai_industry_cluster",
        "name_zh": "大钟寺AI产业集聚区",
        "name_en": "Dazhongsi AI Industry Cluster",
        "design_concept_zh": "AI智能原生新业态集聚区，AI+消费、AI+商务、AI+体验的未来城市客厅",
        "source_type": "agent_inferred_from_public_data",
        "confidence": "medium",
        "geometry_role": "provisional_constraint",
        "official_boundary": false,
        "boundary_precision": "provisional_rough",
        "announced_area_sqm": 720000,
        "area_sqm_calculated": 720454.219,
        "source_id": "DATA-SRC-PROVISIONAL-BOUNDARIES-20260605",
        "derived_from_source_ids": [
          "DATA-SRC-OFFICIAL-ANNOUNCEMENT-20260509"
        ],
        "source_title": "依据公告重点片区名称、南北顺序、公告约面积和临时 SITE_BOUNDARY 形成的临时粗略范围",
        "derivation_method": "按公告自北向南第三处、大钟寺AI产业聚集区、约72.0公顷及大钟寺站相关任务线索，在临时总体设计范围内粗略定位并校核面积。",
        "usage_note": "仅用于 AI agent 生成、展示和临时自检；不得作为 official key-area polygon。",
        "design_positioning": "日用信号站·日用检验工场",
        "ai_function": "智能体测试+数据要素+国际路演+消费体验",
        "building_mix": "总部50%+展示20%+商业20%+数据10%",
        "green_ratio_target": ">=30%",
        "height_control": "TOD 80-100m/外围6-8层",
        "implementation_priority": "G0资格→G1试点→G2放行"
      },
      "geometry": {
        "type": "Polygon",
        "coordinates": [
          [
            [
              116.342,
              39.944
            ],
            [
              116.355,
              39.944
            ],
            [
              116.355,
              39.94984
            ],
            [
              116.342,
              39.94984
            ],
            [
              116.342,
              39.944
            ]
          ]
        ]
      }
    }
  ]
}