{
  "type": "FeatureCollection",
  "name": "land_use_halo_topology",
  "features": [
    {
      "type": "Feature",
      "id": "LU-001",
      "geometry": {
        "type": "Polygon",
        "coordinates": [
          [
            [
              116.3397,
              39.939
            ],
            [
              116.34048,
              39.939
            ],
            [
              116.34125999999999,
              39.939
            ],
            [
              116.34204,
              39.939
            ],
            [
              116.34281999999999,
              39.939
            ],
            [
              116.3436,
              39.939
            ],
            [
              116.34438,
              39.939
            ],
            [
              116.34515999999999,
              39.939
            ],
            [
              116.34594,
              39.939
            ],
            [
              116.34671999999999,
              39.939
            ],
            [
              116.3475,
              39.939
            ],
            [
              116.34828,
              39.939
            ],
            [
              116.34906,
              39.939
            ],
            [
              116.34984,
              39.939
            ],
            [
              116.35061999999999,
              39.939
            ],
            [
              116.3514,
              39.939
            ],
            [
              116.35218,
              39.939
            ],
            [
              116.35296,
              39.939
            ],
            [
              116.35374,
              39.939
            ],
            [
              116.35452,
              39.939
            ],
            [
              116.3553,
              39.939
            ],
            [
              116.3553,
              39.95
            ],
            [
              116.35452,
              39.95
            ],
            [
              116.35374,
              39.95
            ],
            [
              116.35296,
              39.95
            ],
            [
              116.35218,
              39.95
            ],
            [
              116.3514,
              39.95
            ],
            [
              116.35061999999999,
              39.95
            ],
            [
              116.34984,
              39.95
            ],
            [
              116.34906,
              39.95
            ],
            [
              116.34828,
              39.95
            ],
            [
              116.3475,
              39.95
            ],
            [
              116.34671999999999,
              39.95
            ],
            [
              116.34594,
              39.95
            ],
            [
              116.34515999999999,
              39.95
            ],
            [
              116.34438,
              39.95
            ],
            [
              116.3436,
              39.95
            ],
            [
              116.34281999999999,
              39.95
            ],
            [
              116.34204,
              39.95
            ],
            [
              116.34125999999999,
              39.95
            ],
            [
              116.34048,
              39.95
            ],
            [
              116.3397,
              39.95
            ],
            [
              116.3397,
              39.939
            ]
          ]
        ]
      },
      "properties": {
        "id": "LU-001",
        "layer": "LAND_USE",
        "source_type": "agent_generated_design",
        "confidence": "medium",
        "geometry_role": "design_proposal",
        "land_use_code": "0802",
        "name_zh": "大钟寺AI产业研发用地",
        "development_status": "concept_proposed"
      }
    },
    {
      "type": "Feature",
      "id": "LU-002",
      "geometry": {
        "type": "Polygon",
        "coordinates": [
          [
            [
              116.3397,
              39.95
            ],
            [
              116.34048,
              39.95
            ],
            [
              116.34125999999999,
              39.95
            ],
            [
              116.34204,
              39.95
            ],
            [
              116.34281999999999,
              39.95
            ],
            [
              116.3436,
              39.95
            ],
            [
              116.34438,
              39.95
            ],
            [
              116.34515999999999,
              39.95
            ],
            [
              116.34594,
              39.95
            ],
            [
              116.34671999999999,
              39.95
            ],
            [
              116.3475,
              39.95
            ],
            [
              116.34828,
              39.95
            ],
            [
              116.34906,
              39.95
            ],
            [
              116.34984,
              39.95
            ],
            [
              116.35061999999999,
              39.95
            ],
            [
              116.3514,
              39.95
            ],
            [
              116.35218,
              39.95
            ],
            [
              116.35296,
              39.95
            ],
            [
              116.35374,
              39.95
            ],
            [
              116.35452,
              39.95
            ],
            [
              116.3553,
              39.95
            ],
            [
              116.3553,
              39.96
            ],
            [
              116.35452,
              39.96
            ],
            [
              116.35374,
              39.96
            ],
            [
              116.35296,
              39.96
            ],
            [
              116.35218,
              39.96
            ],
            [
              116.3514,
              39.96
            ],
            [
              116.35061999999999,
              39.96
            ],
            [
              116.34984,
              39.96
            ],
            [
              116.34906,
              39.96
            ],
            [
              116.34828,
              39.96
            ],
            [
              116.3475,
              39.96
            ],
            [
              116.34671999999999,
              39.96
            ],
            [
              116.34594,
              39.96
            ],
            [
              116.34515999999999,
              39.96
            ],
            [
              116.34438,
              39.96
            ],
            [
              116.3436,
              39.96
            ],
            [
              116.34281999999999,
              39.96
            ],
            [
              116.34204,
              39.96
            ],
            [
              116.34125999999999,
              39.96
            ],
            [
              116.34048,
              39.96
            ],
            [
              116.3397,
              39.96
            ],
            [
              116.3397,
              39.95
            ]
          ]
        ]
      },
      "properties": {
        "id": "LU-002",
        "layer": "LAND_USE",
        "source_type": "agent_generated_design",
        "confidence": "medium",
        "geometry_role": "design_proposal",
        "land_use_code": "05",
        "name_zh": "大钟寺商业服务用地",
        "development_status": "concept_proposed"
      }
    },
    {
      "type": "Feature",
      "id": "LU-003",
      "geometry": {
        "type": "Polygon",
        "coordinates": [
          [
            [
              116.3397,
              39.96
            ],
            [
              116.34048,
              39.96
            ],
            [
              116.34125999999999,
              39.96
            ],
            [
              116.34204,
              39.96
            ],
            [
              116.34281999999999,
              39.96
            ],
            [
              116.3436,
              39.96
            ],
            [
              116.34438,
              39.96
            ],
            [
              116.34515999999999,
              39.96
            ],
            [
              116.34594,
              39.96
            ],
            [
              116.34671999999999,
              39.96
            ],
            [
              116.3475,
              39.96
            ],
            [
              116.34828,
              39.96
            ],
            [
              116.34906,
              39.96
            ],
            [
              116.34984,
              39.96
            ],
            [
              116.35061999999999,
              39.96
            ],
            [
              116.3514,
              39.96
            ],
            [
              116.35218,
              39.96
            ],
            [
              116.35296,
              39.96
            ],
            [
              116.35374,
              39.96
            ],
            [
              116.35452,
              39.96
            ],
            [
              116.3553,
              39.96
            ],
            [
              116.3553,
              39.97
            ],
            [
              116.35452,
              39.97
            ],
            [
              116.35374,
              39.97
            ],
            [
              116.35296,
              39.97
            ],
            [
              116.35218,
              39.97
            ],
            [
              116.3514,
              39.97
            ],
            [
              116.35061999999999,
              39.97
            ],
            [
              116.34984,
              39.97
            ],
            [
              116.34906,
              39.97
            ],
            [
              116.34828,
              39.97
            ],
            [
              116.3475,
              39.97
            ],
            [
              116.34671999999999,
              39.97
            ],
            [
              116.34594,
              39.97
            ],
            [
              116.34515999999999,
              39.97
            ],
            [
              116.34438,
              39.97
            ],
            [
              116.3436,
              39.97
            ],
            [
              116.34281999999999,
              39.97
            ],
            [
              116.34204,
              39.97
            ],
            [
              116.34125999999999,
              39.97
            ],
            [
              116.34048,
              39.97
            ],
            [
              116.3397,
              39.97
            ],
            [
              116.3397,
              39.96
            ]
          ]
        ]
      },
      "properties": {
        "id": "LU-003",
        "layer": "LAND_USE",
        "source_type": "agent_generated_design",
        "confidence": "medium",
        "geometry_role": "design_proposal",
        "land_use_code": "0702",
        "name_zh": "大钟寺居住配套用地",
        "development_status": "concept_proposed"
      }
    },
    {
      "type": "Feature",
      "id": "LU-004",
      "geometry": {
        "type": "Polygon",
        "coordinates": [
          [
            [
              116.3397,
              39.98
            ],
            [
              116.33996499999999,
              39.98
            ],
            [
              116.34022999999999,
              39.98
            ],
            [
              116.34049499999999,
              39.98
            ],
            [
              116.34075999999999,
              39.98
            ],
            [
              116.341025,
              39.98
            ],
            [
              116.34129,
              39.98
            ],
            [
              116.341555,
              39.98
            ],
            [
              116.34182,
              39.98
            ],
            [
              116.342085,
              39.98
            ],
            [
              116.34235,
              39.98
            ],
            [
              116.342615,
              39.98
            ],
            [
              116.34288,
              39.98
            ],
            [
              116.34314499999999,
              39.98
            ],
            [
              116.34340999999999,
              39.98
            ],
            [
              116.34367499999999,
              39.98
            ],
            [
              116.34394,
              39.98
            ],
            [
              116.344205,
              39.98
            ],
            [
              116.34447,
              39.98
            ],
            [
              116.344735,
              39.98
            ],
            [
              116.345,
              39.98
            ],
            [
              116.345,
              39.99
            ],
            [
              116.344735,
              39.99
            ],
            [
              116.34447,
              39.99
            ],
            [
              116.344205,
              39.99
            ],
            [
              116.34394,
              39.99
            ],
            [
              116.34367499999999,
              39.99
            ],
            [
              116.34340999999999,
              39.99
            ],
            [
              116.34314499999999,
              39.99
            ],
            [
              116.34288,
              39.99
            ],
            [
              116.342615,
              39.99
            ],
            [
              116.34235,
              39.99
            ],
            [
              116.342085,
              39.99
            ],
            [
              116.34182,
              39.99
            ],
            [
              116.341555,
              39.99
            ],
            [
              116.34129,
              39.99
            ],
            [
              116.341025,
              39.99
            ],
            [
              116.34075999999999,
              39.99
            ],
            [
              116.34049499999999,
              39.99
            ],
            [
              116.34022999999999,
              39.99
            ],
            [
              116.33996499999999,
              39.99
            ],
            [
              116.3397,
              39.99
            ],
            [
              116.3397,
              39.98
            ]
          ]
        ]
      },
      "properties": {
        "id": "LU-004",
        "layer": "LAND_USE",
        "source_type": "agent_generated_design",
        "confidence": "medium",
        "geometry_role": "design_proposal",
        "land_use_code": "0802",
        "name_zh": "AI原点社区创新用地",
        "development_status": "concept_proposed"
      }
    },
    {
      "type": "Feature",
      "id": "LU-005",
      "geometry": {
        "type": "Polygon",
        "coordinates": [
          [
            [
              116.345,
              39.97
            ],
            [
              116.3452,
              39.97
            ],
            [
              116.3454,
              39.97
            ],
            [
              116.3456,
              39.97
            ],
            [
              116.3458,
              39.97
            ],
            [
              116.346,
              39.97
            ],
            [
              116.3462,
              39.97
            ],
            [
              116.3464,
              39.97
            ],
            [
              116.3466,
              39.97
            ],
            [
              116.3468,
              39.97
            ],
            [
              116.34700000000001,
              39.97
            ],
            [
              116.3472,
              39.97
            ],
            [
              116.34740000000001,
              39.97
            ],
            [
              116.3476,
              39.97
            ],
            [
              116.3478,
              39.97
            ],
            [
              116.348,
              39.97
            ],
            [
              116.3482,
              39.97
            ],
            [
              116.3484,
              39.97
            ],
            [
              116.3486,
              39.97
            ],
            [
              116.3488,
              39.97
            ],
            [
              116.349,
              39.97
            ],
            [
              116.349,
              39.99
            ],
            [
              116.3488,
              39.99
            ],
            [
              116.3486,
              39.99
            ],
            [
              116.3484,
              39.99
            ],
            [
              116.3482,
              39.99
            ],
            [
              116.348,
              39.99
            ],
            [
              116.3478,
              39.99
            ],
            [
              116.3476,
              39.99
            ],
            [
              116.34740000000001,
              39.99
            ],
            [
              116.3472,
              39.99
            ],
            [
              116.34700000000001,
              39.99
            ],
            [
              116.3468,
              39.99
            ],
            [
              116.3466,
              39.99
            ],
            [
              116.3464,
              39.99
            ],
            [
              116.3462,
              39.99
            ],
            [
              116.346,
              39.99
            ],
            [
              116.3458,
              39.99
            ],
            [
              116.3456,
              39.99
            ],
            [
              116.3454,
              39.99
            ],
            [
              116.3452,
              39.99
            ],
            [
              116.345,
              39.99
            ],
            [
              116.345,
              39.97
            ]
          ]
        ]
      },
      "properties": {
        "id": "LU-005",
        "layer": "LAND_USE",
        "source_type": "agent_generated_design",
        "confidence": "medium",
        "geometry_role": "design_proposal",
        "land_use_code": "1401",
        "name_zh": "京张遗址公园中段绿地",
        "development_status": "concept_proposed"
      }
    },
    {
      "type": "Feature",
      "id": "LU-006",
      "geometry": {
        "type": "Polygon",
        "coordinates": [
          [
            [
              116.349,
              39.97
            ],
            [
              116.349315,
              39.97
            ],
            [
              116.34963,
              39.97
            ],
            [
              116.349945,
              39.97
            ],
            [
              116.35026,
              39.97
            ],
            [
              116.350575,
              39.97
            ],
            [
              116.35089,
              39.97
            ],
            [
              116.35120500000001,
              39.97
            ],
            [
              116.35152000000001,
              39.97
            ],
            [
              116.35183500000001,
              39.97
            ],
            [
              116.35215,
              39.97
            ],
            [
              116.352465,
              39.97
            ],
            [
              116.35278,
              39.97
            ],
            [
              116.353095,
              39.97
            ],
            [
              116.35341,
              39.97
            ],
            [
              116.353725,
              39.97
            ],
            [
              116.35404,
              39.97
            ],
            [
              116.354355,
              39.97
            ],
            [
              116.35467,
              39.97
            ],
            [
              116.354985,
              39.97
            ],
            [
              116.3553,
              39.97
            ],
            [
              116.3553,
              39.98
            ],
            [
              116.354985,
              39.98
            ],
            [
              116.35467,
              39.98
            ],
            [
              116.354355,
              39.98
            ],
            [
              116.35404,
              39.98
            ],
            [
              116.353725,
              39.98
            ],
            [
              116.35341,
              39.98
            ],
            [
              116.353095,
              39.98
            ],
            [
              116.35278,
              39.98
            ],
            [
              116.352465,
              39.98
            ],
            [
              116.35215,
              39.98
            ],
            [
              116.35183500000001,
              39.98
            ],
            [
              116.35152000000001,
              39.98
            ],
            [
              116.35120500000001,
              39.98
            ],
            [
              116.35089,
              39.98
            ],
            [
              116.350575,
              39.98
            ],
            [
              116.35026,
              39.98
            ],
            [
              116.349945,
              39.98
            ],
            [
              116.34963,
              39.98
            ],
            [
              116.349315,
              39.98
            ],
            [
              116.349,
              39.98
            ],
            [
              116.349,
              39.97
            ]
          ]
        ]
      },
      "properties": {
        "id": "LU-006",
        "layer": "LAND_USE",
        "source_type": "agent_generated_design",
        "confidence": "medium",
        "geometry_role": "design_proposal",
        "land_use_code": "0702",
        "name_zh": "AI原点社区居住用地",
        "development_status": "concept_proposed"
      }
    },
    {
      "type": "Feature",
      "id": "LU-007",
      "geometry": {
        "type": "Polygon",
        "coordinates": [
          [
            [
              116.349,
              39.98
            ],
            [
              116.349315,
              39.98
            ],
            [
              116.34963,
              39.98
            ],
            [
              116.349945,
              39.98
            ],
            [
              116.35026,
              39.98
            ],
            [
              116.350575,
              39.98
            ],
            [
              116.35089,
              39.98
            ],
            [
              116.35120500000001,
              39.98
            ],
            [
              116.35152000000001,
              39.98
            ],
            [
              116.35183500000001,
              39.98
            ],
            [
              116.35215,
              39.98
            ],
            [
              116.352465,
              39.98
            ],
            [
              116.35278,
              39.98
            ],
            [
              116.353095,
              39.98
            ],
            [
              116.35341,
              39.98
            ],
            [
              116.353725,
              39.98
            ],
            [
              116.35404,
              39.98
            ],
            [
              116.354355,
              39.98
            ],
            [
              116.35467,
              39.98
            ],
            [
              116.354985,
              39.98
            ],
            [
              116.3553,
              39.98
            ],
            [
              116.3553,
              39.99
            ],
            [
              116.354985,
              39.99
            ],
            [
              116.35467,
              39.99
            ],
            [
              116.354355,
              39.99
            ],
            [
              116.35404,
              39.99
            ],
            [
              116.353725,
              39.99
            ],
            [
              116.35341,
              39.99
            ],
            [
              116.353095,
              39.99
            ],
            [
              116.35278,
              39.99
            ],
            [
              116.352465,
              39.99
            ],
            [
              116.35215,
              39.99
            ],
            [
              116.35183500000001,
              39.99
            ],
            [
              116.35152000000001,
              39.99
            ],
            [
              116.35120500000001,
              39.99
            ],
            [
              116.35089,
              39.99
            ],
            [
              116.350575,
              39.99
            ],
            [
              116.35026,
              39.99
            ],
            [
              116.349945,
              39.99
            ],
            [
              116.34963,
              39.99
            ],
            [
              116.349315,
              39.99
            ],
            [
              116.349,
              39.99
            ],
            [
              116.349,
              39.98
            ]
          ]
        ]
      },
      "properties": {
        "id": "LU-007",
        "layer": "LAND_USE",
        "source_type": "agent_generated_design",
        "confidence": "medium",
        "geometry_role": "design_proposal",
        "land_use_code": "0803",
        "name_zh": "AI原点社区科研教育用地",
        "development_status": "concept_proposed"
      }
    },
    {
      "type": "Feature",
      "id": "LU-008",
      "geometry": {
        "type": "Polygon",
        "coordinates": [
          [
            [
              116.3397,
              39.99
            ],
            [
              116.33996499999999,
              39.99
            ],
            [
              116.34022999999999,
              39.99
            ],
            [
              116.34049499999999,
              39.99
            ],
            [
              116.34075999999999,
              39.99
            ],
            [
              116.341025,
              39.99
            ],
            [
              116.34129,
              39.99
            ],
            [
              116.341555,
              39.99
            ],
            [
              116.34182,
              39.99
            ],
            [
              116.342085,
              39.99
            ],
            [
              116.34235,
              39.99
            ],
            [
              116.342615,
              39.99
            ],
            [
              116.34288,
              39.99
            ],
            [
              116.34314499999999,
              39.99
            ],
            [
              116.34340999999999,
              39.99
            ],
            [
              116.34367499999999,
              39.99
            ],
            [
              116.34394,
              39.99
            ],
            [
              116.344205,
              39.99
            ],
            [
              116.34447,
              39.99
            ],
            [
              116.344735,
              39.99
            ],
            [
              116.345,
              39.99
            ],
            [
              116.345,
              40.01
            ],
            [
              116.344735,
              40.01
            ],
            [
              116.34447,
              40.01
            ],
            [
              116.344205,
              40.01
            ],
            [
              116.34394,
              40.01
            ],
            [
              116.34367499999999,
              40.01
            ],
            [
              116.34340999999999,
              40.01
            ],
            [
              116.34314499999999,
              40.01
            ],
            [
              116.34288,
              40.01
            ],
            [
              116.342615,
              40.01
            ],
            [
              116.34235,
              40.01
            ],
            [
              116.342085,
              40.01
            ],
            [
              116.34182,
              40.01
            ],
            [
              116.341555,
              40.01
            ],
            [
              116.34129,
              40.01
            ],
            [
              116.341025,
              40.01
            ],
            [
              116.34075999999999,
              40.01
            ],
            [
              116.34049499999999,
              40.01
            ],
            [
              116.34022999999999,
              40.01
            ],
            [
              116.33996499999999,
              40.01
            ],
            [
              116.3397,
              40.01
            ],
            [
              116.3397,
              39.99
            ]
          ]
        ]
      },
      "properties": {
        "id": "LU-008",
        "layer": "LAND_USE",
        "source_type": "agent_generated_design",
        "confidence": "medium",
        "geometry_role": "design_proposal",
        "land_use_code": "0802",
        "name_zh": "众智园AI研发创新用地",
        "development_status": "concept_proposed"
      }
    },
    {
      "type": "Feature",
      "id": "LU-009",
      "geometry": {
        "type": "Polygon",
        "coordinates": [
          [
            [
              116.345,
              39.99
            ],
            [
              116.3452,
              39.99
            ],
            [
              116.3454,
              39.99
            ],
            [
              116.3456,
              39.99
            ],
            [
              116.3458,
              39.99
            ],
            [
              116.346,
              39.99
            ],
            [
              116.3462,
              39.99
            ],
            [
              116.3464,
              39.99
            ],
            [
              116.3466,
              39.99
            ],
            [
              116.3468,
              39.99
            ],
            [
              116.34700000000001,
              39.99
            ],
            [
              116.3472,
              39.99
            ],
            [
              116.34740000000001,
              39.99
            ],
            [
              116.3476,
              39.99
            ],
            [
              116.3478,
              39.99
            ],
            [
              116.348,
              39.99
            ],
            [
              116.3482,
              39.99
            ],
            [
              116.3484,
              39.99
            ],
            [
              116.3486,
              39.99
            ],
            [
              116.3488,
              39.99
            ],
            [
              116.349,
              39.99
            ],
            [
              116.349,
              40.01
            ],
            [
              116.3488,
              40.01
            ],
            [
              116.3486,
              40.01
            ],
            [
              116.3484,
              40.01
            ],
            [
              116.3482,
              40.01
            ],
            [
              116.348,
              40.01
            ],
            [
              116.3478,
              40.01
            ],
            [
              116.3476,
              40.01
            ],
            [
              116.34740000000001,
              40.01
            ],
            [
              116.3472,
              40.01
            ],
            [
              116.34700000000001,
              40.01
            ],
            [
              116.3468,
              40.01
            ],
            [
              116.3466,
              40.01
            ],
            [
              116.3464,
              40.01
            ],
            [
              116.3462,
              40.01
            ],
            [
              116.346,
              40.01
            ],
            [
              116.3458,
              40.01
            ],
            [
              116.3456,
              40.01
            ],
            [
              116.3454,
              40.01
            ],
            [
              116.3452,
              40.01
            ],
            [
              116.345,
              40.01
            ],
            [
              116.345,
              39.99
            ]
          ]
        ]
      },
      "properties": {
        "id": "LU-009",
        "layer": "LAND_USE",
        "source_type": "agent_generated_design",
        "confidence": "medium",
        "geometry_role": "design_proposal",
        "land_use_code": "1401",
        "name_zh": "京张遗址公园北段绿地",
        "development_status": "concept_proposed"
      }
    },
    {
      "type": "Feature",
      "id": "LU-010",
      "geometry": {
        "type": "Polygon",
        "coordinates": [
          [
            [
              116.349,
              39.99
            ],
            [
              116.349315,
              39.99
            ],
            [
              116.34963,
              39.99
            ],
            [
              116.349945,
              39.99
            ],
            [
              116.35026,
              39.99
            ],
            [
              116.350575,
              39.99
            ],
            [
              116.35089,
              39.99
            ],
            [
              116.35120500000001,
              39.99
            ],
            [
              116.35152000000001,
              39.99
            ],
            [
              116.35183500000001,
              39.99
            ],
            [
              116.35215,
              39.99
            ],
            [
              116.352465,
              39.99
            ],
            [
              116.35278,
              39.99
            ],
            [
              116.353095,
              39.99
            ],
            [
              116.35341,
              39.99
            ],
            [
              116.353725,
              39.99
            ],
            [
              116.35404,
              39.99
            ],
            [
              116.354355,
              39.99
            ],
            [
              116.35467,
              39.99
            ],
            [
              116.354985,
              39.99
            ],
            [
              116.3553,
              39.99
            ],
            [
              116.3553,
              40.01
            ],
            [
              116.354985,
              40.01
            ],
            [
              116.35467,
              40.01
            ],
            [
              116.354355,
              40.01
            ],
            [
              116.35404,
              40.01
            ],
            [
              116.353725,
              40.01
            ],
            [
              116.35341,
              40.01
            ],
            [
              116.353095,
              40.01
            ],
            [
              116.35278,
              40.01
            ],
            [
              116.352465,
              40.01
            ],
            [
              116.35215,
              40.01
            ],
            [
              116.35183500000001,
              40.01
            ],
            [
              116.35152000000001,
              40.01
            ],
            [
              116.35120500000001,
              40.01
            ],
            [
              116.35089,
              40.01
            ],
            [
              116.350575,
              40.01
            ],
            [
              116.35026,
              40.01
            ],
            [
              116.349945,
              40.01
            ],
            [
              116.34963,
              40.01
            ],
            [
              116.349315,
              40.01
            ],
            [
              116.349,
              40.01
            ],
            [
              116.349,
              39.99
            ]
          ]
        ]
      },
      "properties": {
        "id": "LU-010",
        "layer": "LAND_USE",
        "source_type": "agent_generated_design",
        "confidence": "medium",
        "geometry_role": "design_proposal",
        "land_use_code": "0804",
        "name_zh": "众智园测试与中试用地",
        "development_status": "concept_proposed"
      }
    },
    {
      "type": "Feature",
      "id": "LU-011",
      "geometry": {
        "type": "Polygon",
        "coordinates": [
          [
            [
              116.3397,
              40.01
            ],
            [
              116.33996499999999,
              40.01
            ],
            [
              116.34022999999999,
              40.01
            ],
            [
              116.34049499999999,
              40.01
            ],
            [
              116.34075999999999,
              40.01
            ],
            [
              116.341025,
              40.01
            ],
            [
              116.34129,
              40.01
            ],
            [
              116.341555,
              40.01
            ],
            [
              116.34182,
              40.01
            ],
            [
              116.342085,
              40.01
            ],
            [
              116.34235,
              40.01
            ],
            [
              116.342615,
              40.01
            ],
            [
              116.34288,
              40.01
            ],
            [
              116.34314499999999,
              40.01
            ],
            [
              116.34340999999999,
              40.01
            ],
            [
              116.34367499999999,
              40.01
            ],
            [
              116.34394,
              40.01
            ],
            [
              116.344205,
              40.01
            ],
            [
              116.34447,
              40.01
            ],
            [
              116.344735,
              40.01
            ],
            [
              116.345,
              40.01
            ],
            [
              116.345,
              40.0265
            ],
            [
              116.344735,
              40.0265
            ],
            [
              116.34447,
              40.0265
            ],
            [
              116.344205,
              40.0265
            ],
            [
              116.34394,
              40.0265
            ],
            [
              116.34367499999999,
              40.0265
            ],
            [
              116.34340999999999,
              40.0265
            ],
            [
              116.34314499999999,
              40.0265
            ],
            [
              116.34288,
              40.0265
            ],
            [
              116.342615,
              40.0265
            ],
            [
              116.34235,
              40.0265
            ],
            [
              116.342085,
              40.0265
            ],
            [
              116.34182,
              40.0265
            ],
            [
              116.341555,
              40.0265
            ],
            [
              116.34129,
              40.0265
            ],
            [
              116.341025,
              40.0265
            ],
            [
              116.34075999999999,
              40.0265
            ],
            [
              116.34049499999999,
              40.0265
            ],
            [
              116.34022999999999,
              40.0265
            ],
            [
              116.33996499999999,
              40.0265
            ],
            [
              116.3397,
              40.0265
            ],
            [
              116.3397,
              40.01
            ]
          ]
        ]
      },
      "properties": {
        "id": "LU-011",
        "layer": "LAND_USE",
        "source_type": "agent_generated_design",
        "confidence": "medium",
        "geometry_role": "design_proposal",
        "land_use_code": "0802",
        "name_zh": "众智园北段研发用地",
        "development_status": "concept_proposed"
      }
    },
    {
      "type": "Feature",
      "id": "LU-012",
      "geometry": {
        "type": "Polygon",
        "coordinates": [
          [
            [
              116.345,
              40.01
            ],
            [
              116.3452,
              40.01
            ],
            [
              116.3454,
              40.01
            ],
            [
              116.3456,
              40.01
            ],
            [
              116.3458,
              40.01
            ],
            [
              116.346,
              40.01
            ],
            [
              116.3462,
              40.01
            ],
            [
              116.3464,
              40.01
            ],
            [
              116.3466,
              40.01
            ],
            [
              116.3468,
              40.01
            ],
            [
              116.34700000000001,
              40.01
            ],
            [
              116.3472,
              40.01
            ],
            [
              116.34740000000001,
              40.01
            ],
            [
              116.3476,
              40.01
            ],
            [
              116.3478,
              40.01
            ],
            [
              116.348,
              40.01
            ],
            [
              116.3482,
              40.01
            ],
            [
              116.3484,
              40.01
            ],
            [
              116.3486,
              40.01
            ],
            [
              116.3488,
              40.01
            ],
            [
              116.349,
              40.01
            ],
            [
              116.349,
              40.0265
            ],
            [
              116.3488,
              40.0265
            ],
            [
              116.3486,
              40.0265
            ],
            [
              116.3484,
              40.0265
            ],
            [
              116.3482,
              40.0265
            ],
            [
              116.348,
              40.0265
            ],
            [
              116.3478,
              40.0265
            ],
            [
              116.3476,
              40.0265
            ],
            [
              116.34740000000001,
              40.0265
            ],
            [
              116.3472,
              40.0265
            ],
            [
              116.34700000000001,
              40.0265
            ],
            [
              116.3468,
              40.0265
            ],
            [
              116.3466,
              40.0265
            ],
            [
              116.3464,
              40.0265
            ],
            [
              116.3462,
              40.0265
            ],
            [
              116.346,
              40.0265
            ],
            [
              116.3458,
              40.0265
            ],
            [
              116.3456,
              40.0265
            ],
            [
              116.3454,
              40.0265
            ],
            [
              116.3452,
              40.0265
            ],
            [
              116.345,
              40.0265
            ],
            [
              116.345,
              40.01
            ]
          ]
        ]
      },
      "properties": {
        "id": "LU-012",
        "layer": "LAND_USE",
        "source_type": "agent_generated_design",
        "confidence": "medium",
        "geometry_role": "design_proposal",
        "land_use_code": "1401",
        "name_zh": "京张遗址公园北端绿地",
        "development_status": "concept_proposed"
      }
    },
    {
      "type": "Feature",
      "id": "LU-013",
      "geometry": {
        "type": "Polygon",
        "coordinates": [
          [
            [
              116.349,
              40.01
            ],
            [
              116.349315,
              40.01
            ],
            [
              116.34963,
              40.01
            ],
            [
              116.349945,
              40.01
            ],
            [
              116.35026,
              40.01
            ],
            [
              116.350575,
              40.01
            ],
            [
              116.35089,
              40.01
            ],
            [
              116.35120500000001,
              40.01
            ],
            [
              116.35152000000001,
              40.01
            ],
            [
              116.35183500000001,
              40.01
            ],
            [
              116.35215,
              40.01
            ],
            [
              116.352465,
              40.01
            ],
            [
              116.35278,
              40.01
            ],
            [
              116.353095,
              40.01
            ],
            [
              116.35341,
              40.01
            ],
            [
              116.353725,
              40.01
            ],
            [
              116.35404,
              40.01
            ],
            [
              116.354355,
              40.01
            ],
            [
              116.35467,
              40.01
            ],
            [
              116.354985,
              40.01
            ],
            [
              116.3553,
              40.01
            ],
            [
              116.3553,
              40.0265
            ],
            [
              116.354985,
              40.0265
            ],
            [
              116.35467,
              40.0265
            ],
            [
              116.354355,
              40.0265
            ],
            [
              116.35404,
              40.0265
            ],
            [
              116.353725,
              40.0265
            ],
            [
              116.35341,
              40.0265
            ],
            [
              116.353095,
              40.0265
            ],
            [
              116.35278,
              40.0265
            ],
            [
              116.352465,
              40.0265
            ],
            [
              116.35215,
              40.0265
            ],
            [
              116.35183500000001,
              40.0265
            ],
            [
              116.35152000000001,
              40.0265
            ],
            [
              116.35120500000001,
              40.0265
            ],
            [
              116.35089,
              40.0265
            ],
            [
              116.350575,
              40.0265
            ],
            [
              116.35026,
              40.0265
            ],
            [
              116.349945,
              40.0265
            ],
            [
              116.34963,
              40.0265
            ],
            [
              116.349315,
              40.0265
            ],
            [
              116.349,
              40.0265
            ],
            [
              116.349,
              40.01
            ]
          ]
        ]
      },
      "properties": {
        "id": "LU-013",
        "layer": "LAND_USE",
        "source_type": "agent_generated_design",
        "confidence": "medium",
        "geometry_role": "design_proposal",
        "land_use_code": "0805",
        "name_zh": "众智园北段产业用地",
        "development_status": "concept_proposed"
      }
    },
    {
      "type": "Feature",
      "id": "LU-014",
      "geometry": {
        "type": "Polygon",
        "coordinates": [
          [
            [
              116.3397,
              39.97
            ],
            [
              116.33996499999999,
              39.97
            ],
            [
              116.34022999999999,
              39.97
            ],
            [
              116.34049499999999,
              39.97
            ],
            [
              116.34075999999999,
              39.97
            ],
            [
              116.341025,
              39.97
            ],
            [
              116.34129,
              39.97
            ],
            [
              116.341555,
              39.97
            ],
            [
              116.34182,
              39.97
            ],
            [
              116.342085,
              39.97
            ],
            [
              116.34235,
              39.97
            ],
            [
              116.342615,
              39.97
            ],
            [
              116.34288,
              39.97
            ],
            [
              116.34314499999999,
              39.97
            ],
            [
              116.34340999999999,
              39.97
            ],
            [
              116.34367499999999,
              39.97
            ],
            [
              116.34394,
              39.97
            ],
            [
              116.344205,
              39.97
            ],
            [
              116.34447,
              39.97
            ],
            [
              116.344735,
              39.97
            ],
            [
              116.345,
              39.97
            ],
            [
              116.345,
              39.98
            ],
            [
              116.344735,
              39.98
            ],
            [
              116.34447,
              39.98
            ],
            [
              116.344205,
              39.98
            ],
            [
              116.34394,
              39.98
            ],
            [
              116.34367499999999,
              39.98
            ],
            [
              116.34340999999999,
              39.98
            ],
            [
              116.34314499999999,
              39.98
            ],
            [
              116.34288,
              39.98
            ],
            [
              116.342615,
              39.98
            ],
            [
              116.34235,
              39.98
            ],
            [
              116.342085,
              39.98
            ],
            [
              116.34182,
              39.98
            ],
            [
              116.341555,
              39.98
            ],
            [
              116.34129,
              39.98
            ],
            [
              116.341025,
              39.98
            ],
            [
              116.34075999999999,
              39.98
            ],
            [
              116.34049499999999,
              39.98
            ],
            [
              116.34022999999999,
              39.98
            ],
            [
              116.33996499999999,
              39.98
            ],
            [
              116.3397,
              39.98
            ],
            [
              116.3397,
              39.97
            ]
          ]
        ]
      },
      "properties": {
        "id": "LU-014",
        "layer": "LAND_USE",
        "source_type": "agent_generated_design",
        "confidence": "medium",
        "geometry_role": "design_proposal",
        "land_use_code": "05",
        "name_zh": "中部商业服务用地",
        "development_status": "concept_proposed"
      }
    }
  ]
}