{
  "type": "FeatureCollection",
  "name": "public_space_halo",
  "features": [
    {
      "type": "Feature",
      "id": "PUBLIC-PLAZA-1",
      "geometry": {
        "type": "Polygon",
        "coordinates": [
          [
            [
              116.342,
              39.995
            ],
            [
              116.348,
              39.995
            ],
            [
              116.348,
              40.002
            ],
            [
              116.342,
              40.002
            ],
            [
              116.342,
              39.995
            ]
          ]
        ]
      },
      "properties": {
        "id": "PUBLIC-PLAZA-1",
        "layer": "PUBLIC_SPACE",
        "source_type": "agent_generated_design",
        "confidence": "medium",
        "geometry_role": "design_proposal",
        "public_space_type": "plaza",
        "name_zh": "众智园AI创新广场",
        "access_rule": "public_unrestricted",
        "shelter_type": "open_air",
        "lighting": "standard",
        "seating": "provided",
        "accessibility_grade": "barrier_free"
      }
    },
    {
      "type": "Feature",
      "id": "PUBLIC-PLAZA-2",
      "geometry": {
        "type": "Polygon",
        "coordinates": [
          [
            [
              116.341,
              39.975
            ],
            [
              116.346,
              39.975
            ],
            [
              116.346,
              39.98
            ],
            [
              116.341,
              39.98
            ],
            [
              116.341,
              39.975
            ]
          ]
        ]
      },
      "properties": {
        "id": "PUBLIC-PLAZA-2",
        "layer": "PUBLIC_SPACE",
        "source_type": "agent_generated_design",
        "confidence": "medium",
        "geometry_role": "design_proposal",
        "public_space_type": "plaza",
        "name_zh": "AI原点社区广场",
        "access_rule": "public_unrestricted",
        "shelter_type": "open_air",
        "lighting": "standard",
        "seating": "provided",
        "accessibility_grade": "barrier_free"
      }
    },
    {
      "type": "Feature",
      "id": "PUBLIC-PLAZA-3",
      "geometry": {
        "type": "Polygon",
        "coordinates": [
          [
            [
              116.349,
              39.948
            ],
            [
              116.354,
              39.948
            ],
            [
              116.354,
              39.953
            ],
            [
              116.349,
              39.953
            ],
            [
              116.349,
              39.948
            ]
          ]
        ]
      },
      "properties": {
        "id": "PUBLIC-PLAZA-3",
        "layer": "PUBLIC_SPACE",
        "source_type": "agent_generated_design",
        "confidence": "medium",
        "geometry_role": "design_proposal",
        "public_space_type": "plaza",
        "name_zh": "大钟寺AI城市客厅",
        "access_rule": "public_unrestricted",
        "shelter_type": "open_air",
        "lighting": "standard",
        "seating": "provided",
        "accessibility_grade": "barrier_free"
      }
    },
    {
      "type": "Feature",
      "id": "PUBLIC-NODE-1",
      "geometry": {
        "type": "Polygon",
        "coordinates": [
          [
            [
              116.346,
              39.96
            ],
            [
              116.349,
              39.96
            ],
            [
              116.349,
              39.964
            ],
            [
              116.346,
              39.964
            ],
            [
              116.346,
              39.96
            ]
          ]
        ]
      },
      "properties": {
        "id": "PUBLIC-NODE-1",
        "layer": "PUBLIC_SPACE",
        "source_type": "agent_generated_design",
        "confidence": "medium",
        "geometry_role": "design_proposal",
        "public_space_type": "activity_node",
        "name_zh": "京张绿廊活动节点1(大钟寺入口)",
        "access_rule": "public_unrestricted",
        "shelter_type": "open_air",
        "lighting": "standard",
        "seating": "provided",
        "accessibility_grade": "barrier_free"
      }
    },
    {
      "type": "Feature",
      "id": "PUBLIC-NODE-2",
      "geometry": {
        "type": "Polygon",
        "coordinates": [
          [
            [
              116.346,
              39.968
            ],
            [
              116.348,
              39.968
            ],
            [
              116.348,
              39.972
            ],
            [
              116.346,
              39.972
            ],
            [
              116.346,
              39.968
            ]
          ]
        ]
      },
      "properties": {
        "id": "PUBLIC-NODE-2",
        "layer": "PUBLIC_SPACE",
        "source_type": "agent_generated_design",
        "confidence": "medium",
        "geometry_role": "design_proposal",
        "public_space_type": "activity_node",
        "name_zh": "京张绿廊活动节点2(原点南)",
        "access_rule": "public_unrestricted",
        "shelter_type": "open_air",
        "lighting": "standard",
        "seating": "provided",
        "accessibility_grade": "barrier_free"
      }
    },
    {
      "type": "Feature",
      "id": "PUBLIC-NODE-3",
      "geometry": {
        "type": "Polygon",
        "coordinates": [
          [
            [
              116.346,
              39.982
            ],
            [
              116.349,
              39.982
            ],
            [
              116.349,
              39.986
            ],
            [
              116.346,
              39.986
            ],
            [
              116.346,
              39.982
            ]
          ]
        ]
      },
      "properties": {
        "id": "PUBLIC-NODE-3",
        "layer": "PUBLIC_SPACE",
        "source_type": "agent_generated_design",
        "confidence": "medium",
        "geometry_role": "design_proposal",
        "public_space_type": "activity_node",
        "name_zh": "京张绿廊活动节点3(原点北)",
        "access_rule": "public_unrestricted",
        "shelter_type": "open_air",
        "lighting": "standard",
        "seating": "provided",
        "accessibility_grade": "barrier_free"
      }
    },
    {
      "type": "Feature",
      "id": "PUBLIC-NODE-4",
      "geometry": {
        "type": "Polygon",
        "coordinates": [
          [
            [
              116.346,
              39.99
            ],
            [
              116.348,
              39.99
            ],
            [
              116.348,
              39.994
            ],
            [
              116.346,
              39.994
            ],
            [
              116.346,
              39.99
            ]
          ]
        ]
      },
      "properties": {
        "id": "PUBLIC-NODE-4",
        "layer": "PUBLIC_SPACE",
        "source_type": "agent_generated_design",
        "confidence": "medium",
        "geometry_role": "design_proposal",
        "public_space_type": "activity_node",
        "name_zh": "京张绿廊活动节点4(众智园南)",
        "access_rule": "public_unrestricted",
        "shelter_type": "open_air",
        "lighting": "standard",
        "seating": "provided",
        "accessibility_grade": "barrier_free"
      }
    },
    {
      "type": "Feature",
      "id": "PUBLIC-NODE-5",
      "geometry": {
        "type": "Polygon",
        "coordinates": [
          [
            [
              116.346,
              40.015
            ],
            [
              116.349,
              40.015
            ],
            [
              116.349,
              40.02
            ],
            [
              116.346,
              40.02
            ],
            [
              116.346,
              40.015
            ]
          ]
        ]
      },
      "properties": {
        "id": "PUBLIC-NODE-5",
        "layer": "PUBLIC_SPACE",
        "source_type": "agent_generated_design",
        "confidence": "medium",
        "geometry_role": "design_proposal",
        "public_space_type": "activity_node",
        "name_zh": "京张绿廊活动节点5(众智园北)",
        "access_rule": "public_unrestricted",
        "shelter_type": "open_air",
        "lighting": "standard",
        "seating": "provided",
        "accessibility_grade": "barrier_free"
      }
    },
    {
      "type": "Feature",
      "id": "PUBLIC-POCKET-1W",
      "geometry": {
        "type": "Polygon",
        "coordinates": [
          [
            [
              116.341,
              39.955
            ],
            [
              116.342,
              39.955
            ],
            [
              116.342,
              39.958
            ],
            [
              116.341,
              39.958
            ],
            [
              116.341,
              39.955
            ]
          ]
        ]
      },
      "properties": {
        "id": "PUBLIC-POCKET-1W",
        "layer": "PUBLIC_SPACE",
        "source_type": "agent_generated_design",
        "confidence": "medium",
        "geometry_role": "design_proposal",
        "public_space_type": "pocket_park",
        "name_zh": "大钟寺西侧口袋公园",
        "access_rule": "public_unrestricted",
        "shelter_type": "open_air",
        "lighting": "standard",
        "seating": "provided",
        "accessibility_grade": "barrier_free"
      }
    },
    {
      "type": "Feature",
      "id": "PUBLIC-POCKET-1E",
      "geometry": {
        "type": "Polygon",
        "coordinates": [
          [
            [
              116.352,
              39.955
            ],
            [
              116.354,
              39.955
            ],
            [
              116.354,
              39.958
            ],
            [
              116.352,
              39.958
            ],
            [
              116.352,
              39.955
            ]
          ]
        ]
      },
      "properties": {
        "id": "PUBLIC-POCKET-1E",
        "layer": "PUBLIC_SPACE",
        "source_type": "agent_generated_design",
        "confidence": "medium",
        "geometry_role": "design_proposal",
        "public_space_type": "pocket_park",
        "name_zh": "大钟寺东侧口袋公园",
        "access_rule": "public_unrestricted",
        "shelter_type": "open_air",
        "lighting": "standard",
        "seating": "provided",
        "accessibility_grade": "barrier_free"
      }
    },
    {
      "type": "Feature",
      "id": "PUBLIC-POCKET-2W",
      "geometry": {
        "type": "Polygon",
        "coordinates": [
          [
            [
              116.341,
              39.978
            ],
            [
              116.342,
              39.978
            ],
            [
              116.342,
              39.982
            ],
            [
              116.341,
              39.982
            ],
            [
              116.341,
              39.978
            ]
          ]
        ]
      },
      "properties": {
        "id": "PUBLIC-POCKET-2W",
        "layer": "PUBLIC_SPACE",
        "source_type": "agent_generated_design",
        "confidence": "medium",
        "geometry_role": "design_proposal",
        "public_space_type": "pocket_park",
        "name_zh": "原点西侧口袋公园",
        "access_rule": "public_unrestricted",
        "shelter_type": "open_air",
        "lighting": "standard",
        "seating": "provided",
        "accessibility_grade": "barrier_free"
      }
    },
    {
      "type": "Feature",
      "id": "PUBLIC-POCKET-2E",
      "geometry": {
        "type": "Polygon",
        "coordinates": [
          [
            [
              116.352,
              39.978
            ],
            [
              116.354,
              39.978
            ],
            [
              116.354,
              39.982
            ],
            [
              116.352,
              39.982
            ],
            [
              116.352,
              39.978
            ]
          ]
        ]
      },
      "properties": {
        "id": "PUBLIC-POCKET-2E",
        "layer": "PUBLIC_SPACE",
        "source_type": "agent_generated_design",
        "confidence": "medium",
        "geometry_role": "design_proposal",
        "public_space_type": "pocket_park",
        "name_zh": "原点东侧口袋公园",
        "access_rule": "public_unrestricted",
        "shelter_type": "open_air",
        "lighting": "standard",
        "seating": "provided",
        "accessibility_grade": "barrier_free"
      }
    },
    {
      "type": "Feature",
      "id": "PUBLIC-POCKET-3W",
      "geometry": {
        "type": "Polygon",
        "coordinates": [
          [
            [
              116.344,
              39.98
            ],
            [
              116.346,
              39.98
            ],
            [
              116.346,
              39.982
            ],
            [
              116.344,
              39.982
            ],
            [
              116.344,
              39.98
            ]
          ]
        ]
      },
      "properties": {
        "id": "PUBLIC-POCKET-3W",
        "layer": "PUBLIC_SPACE",
        "source_type": "agent_generated_design",
        "confidence": "medium",
        "geometry_role": "design_proposal",
        "public_space_type": "pocket_park",
        "name_zh": "众智园西侧口袋公园",
        "access_rule": "public_unrestricted",
        "shelter_type": "open_air",
        "lighting": "standard",
        "seating": "provided",
        "accessibility_grade": "barrier_free"
      }
    },
    {
      "type": "Feature",
      "id": "PUBLIC-POCKET-3E",
      "geometry": {
        "type": "Polygon",
        "coordinates": [
          [
            [
              116.352,
              40.0
            ],
            [
              116.353,
              40.0
            ],
            [
              116.353,
              40.005
            ],
            [
              116.352,
              40.005
            ],
            [
              116.352,
              40.0
            ]
          ]
        ]
      },
      "properties": {
        "id": "PUBLIC-POCKET-3E",
        "layer": "PUBLIC_SPACE",
        "source_type": "agent_generated_design",
        "confidence": "medium",
        "geometry_role": "design_proposal",
        "public_space_type": "pocket_park",
        "name_zh": "众智园东侧口袋公园",
        "access_rule": "public_unrestricted",
        "shelter_type": "open_air",
        "lighting": "standard",
        "seating": "provided",
        "accessibility_grade": "barrier_free"
      }
    },
    {
      "type": "Feature",
      "id": "PUBLIC-POCKET-4W",
      "geometry": {
        "type": "Polygon",
        "coordinates": [
          [
            [
              116.344,
              39.98
            ],
            [
              116.346,
              39.98
            ],
            [
              116.346,
              39.982
            ],
            [
              116.344,
              39.982
            ],
            [
              116.344,
              39.98
            ]
          ]
        ]
      },
      "properties": {
        "id": "PUBLIC-POCKET-4W",
        "layer": "PUBLIC_SPACE",
        "source_type": "agent_generated_design",
        "confidence": "medium",
        "geometry_role": "design_proposal",
        "public_space_type": "pocket_park",
        "name_zh": "北侧社区口袋公园",
        "access_rule": "public_unrestricted",
        "shelter_type": "open_air",
        "lighting": "standard",
        "seating": "provided",
        "accessibility_grade": "barrier_free"
      }
    },
    {
      "type": "Feature",
      "id": "PUBLIC-POCKET-4E",
      "geometry": {
        "type": "Polygon",
        "coordinates": [
          [
            [
              116.352,
              40.018
            ],
            [
              116.354,
              40.018
            ],
            [
              116.354,
              40.022
            ],
            [
              116.352,
              40.022
            ],
            [
              116.352,
              40.018
            ]
          ]
        ]
      },
      "properties": {
        "id": "PUBLIC-POCKET-4E",
        "layer": "PUBLIC_SPACE",
        "source_type": "agent_generated_design",
        "confidence": "medium",
        "geometry_role": "design_proposal",
        "public_space_type": "pocket_park",
        "name_zh": "北侧产业口袋公园",
        "access_rule": "public_unrestricted",
        "shelter_type": "open_air",
        "lighting": "standard",
        "seating": "provided",
        "accessibility_grade": "barrier_free"
      }
    },
    {
      "type": "Feature",
      "id": "PUBLIC-GARDEN-1",
      "geometry": {
        "type": "Polygon",
        "coordinates": [
          [
            [
              116.343,
              39.983
            ],
            [
              116.345,
              39.983
            ],
            [
              116.345,
              39.986
            ],
            [
              116.343,
              39.986
            ],
            [
              116.343,
              39.983
            ]
          ]
        ]
      },
      "properties": {
        "id": "PUBLIC-GARDEN-1",
        "layer": "PUBLIC_SPACE",
        "source_type": "agent_generated_design",
        "confidence": "medium",
        "geometry_role": "design_proposal",
        "public_space_type": "community_garden",
        "name_zh": "原点社区共享花园",
        "access_rule": "public_unrestricted",
        "shelter_type": "open_air",
        "lighting": "standard",
        "seating": "provided",
        "accessibility_grade": "barrier_free"
      }
    },
    {
      "type": "Feature",
      "id": "PUBLIC-WATER-1",
      "geometry": {
        "type": "Polygon",
        "coordinates": [
          [
            [
              116.344,
              39.972
            ],
            [
              116.35,
              39.972
            ],
            [
              116.35,
              39.975
            ],
            [
              116.344,
              39.975
            ],
            [
              116.344,
              39.972
            ]
          ]
        ]
      },
      "properties": {
        "id": "PUBLIC-WATER-1",
        "layer": "PUBLIC_SPACE",
        "source_type": "agent_generated_design",
        "confidence": "medium",
        "geometry_role": "design_proposal",
        "public_space_type": "waterfront_promenade",
        "name_zh": "小月河滨水步道",
        "access_rule": "public_unrestricted",
        "shelter_type": "open_air",
        "lighting": "standard",
        "seating": "provided",
        "accessibility_grade": "barrier_free"
      }
    },
    {
      "type": "Feature",
      "id": "PUBLIC-CULT-1",
      "geometry": {
        "type": "Polygon",
        "coordinates": [
          [
            [
              116.344,
              39.985
            ],
            [
              116.348,
              39.985
            ],
            [
              116.348,
              39.988
            ],
            [
              116.344,
              39.988
            ],
            [
              116.344,
              39.985
            ]
          ]
        ]
      },
      "properties": {
        "id": "PUBLIC-CULT-1",
        "layer": "PUBLIC_SPACE",
        "source_type": "agent_generated_design",
        "confidence": "medium",
        "geometry_role": "design_proposal",
        "public_space_type": "cultural_plaza",
        "name_zh": "京张文化广场",
        "access_rule": "public_unrestricted",
        "shelter_type": "open_air",
        "lighting": "standard",
        "seating": "provided",
        "accessibility_grade": "barrier_free"
      }
    }
  ]
}