{
  "type": "FeatureCollection",
  "name": "roads_halo",
  "features": [
    {
      "type": "Feature",
      "id": "ROAD-NS-1",
      "properties": {
        "id": "ROAD-NS-1",
        "layer": "ROAD_CENTERLINE",
        "source_type": "agent_generated_design",
        "confidence": "medium",
        "geometry_role": "design_proposal",
        "road_type": "secondary",
        "name_zh": "西侧联络道",
        "length_m": 6232.6,
        "alignment_status": "concept_only_pending_transport_review",
        "length_m_declared": 6232.6
      },
      "geometry": {
        "type": "LineString",
        "coordinates": [
          [
            116.341,
            39.939
          ],
          [
            116.341,
            39.944
          ],
          [
            116.341,
            39.949
          ],
          [
            116.341,
            39.954
          ],
          [
            116.341,
            39.959
          ],
          [
            116.341,
            39.964
          ],
          [
            116.341,
            39.969
          ],
          [
            116.341,
            39.974
          ],
          [
            116.341,
            39.979
          ],
          [
            116.341,
            39.984
          ],
          [
            116.341,
            39.989
          ],
          [
            116.341,
            39.994
          ],
          [
            116.341,
            39.99514999999991
          ]
        ]
      }
    },
    {
      "type": "Feature",
      "id": "ROAD-NS-2",
      "properties": {
        "id": "ROAD-NS-2",
        "layer": "ROAD_CENTERLINE",
        "source_type": "agent_generated_design",
        "confidence": "medium",
        "geometry_role": "design_proposal",
        "road_type": "greenway",
        "name_zh": "公共服务脊柱",
        "length_m": 9435.0,
        "alignment_status": "concept_only_pending_transport_review",
        "length_m_declared": 9435.0
      },
      "geometry": {
        "type": "LineString",
        "coordinates": [
          [
            116.344,
            39.939
          ],
          [
            116.344,
            39.944
          ],
          [
            116.344,
            39.949
          ],
          [
            116.344,
            39.954
          ],
          [
            116.344,
            39.959
          ],
          [
            116.344,
            39.964
          ],
          [
            116.344,
            39.969
          ],
          [
            116.344,
            39.974
          ],
          [
            116.344,
            39.979
          ],
          [
            116.344,
            39.984
          ],
          [
            116.344,
            39.989
          ],
          [
            116.344,
            39.994
          ],
          [
            116.344,
            39.999
          ],
          [
            116.344,
            40.004
          ],
          [
            116.344,
            40.009
          ],
          [
            116.344,
            40.014
          ],
          [
            116.344,
            40.019
          ],
          [
            116.344,
            40.024
          ]
        ]
      }
    },
    {
      "type": "Feature",
      "id": "ROAD-NS-3",
      "properties": {
        "id": "ROAD-NS-3",
        "layer": "ROAD_CENTERLINE",
        "source_type": "agent_generated_design",
        "confidence": "medium",
        "geometry_role": "design_proposal",
        "road_type": "primary",
        "name_zh": "中央智脉大道",
        "length_m": 9435.0,
        "alignment_status": "concept_only_pending_transport_review",
        "length_m_declared": 9435.0
      },
      "geometry": {
        "type": "LineString",
        "coordinates": [
          [
            116.347,
            39.939
          ],
          [
            116.347,
            39.944
          ],
          [
            116.347,
            39.949
          ],
          [
            116.347,
            39.954
          ],
          [
            116.347,
            39.959
          ],
          [
            116.347,
            39.964
          ],
          [
            116.347,
            39.969
          ],
          [
            116.347,
            39.974
          ],
          [
            116.347,
            39.979
          ],
          [
            116.347,
            39.984
          ],
          [
            116.347,
            39.989
          ],
          [
            116.347,
            39.994
          ],
          [
            116.347,
            39.999
          ],
          [
            116.347,
            40.004
          ],
          [
            116.347,
            40.009
          ],
          [
            116.347,
            40.014
          ],
          [
            116.347,
            40.019
          ],
          [
            116.347,
            40.024
          ]
        ]
      }
    },
    {
      "type": "Feature",
      "id": "ROAD-NS-4",
      "properties": {
        "id": "ROAD-NS-4",
        "layer": "ROAD_CENTERLINE",
        "source_type": "agent_generated_design",
        "confidence": "medium",
        "geometry_role": "design_proposal",
        "road_type": "secondary",
        "name_zh": "东侧联络道",
        "length_m": 9435.0,
        "alignment_status": "concept_only_pending_transport_review",
        "length_m_declared": 9435.0
      },
      "geometry": {
        "type": "LineString",
        "coordinates": [
          [
            116.35,
            39.939
          ],
          [
            116.35,
            39.944
          ],
          [
            116.35,
            39.949
          ],
          [
            116.35,
            39.954
          ],
          [
            116.35,
            39.959
          ],
          [
            116.35,
            39.964
          ],
          [
            116.35,
            39.969
          ],
          [
            116.35,
            39.974
          ],
          [
            116.35,
            39.979
          ],
          [
            116.35,
            39.984
          ],
          [
            116.35,
            39.989
          ],
          [
            116.35,
            39.994
          ],
          [
            116.35,
            39.999
          ],
          [
            116.35,
            40.004
          ],
          [
            116.35,
            40.009
          ],
          [
            116.35,
            40.014
          ],
          [
            116.35,
            40.019
          ],
          [
            116.35,
            40.024
          ]
        ]
      }
    },
    {
      "type": "Feature",
      "id": "ROAD-NS-5",
      "properties": {
        "id": "ROAD-NS-5",
        "layer": "ROAD_CENTERLINE",
        "source_type": "agent_generated_design",
        "confidence": "medium",
        "geometry_role": "design_proposal",
        "road_type": "primary",
        "name_zh": "学院路辅路",
        "length_m": 9435.0,
        "alignment_status": "concept_only_pending_transport_review",
        "length_m_declared": 9435.0
      },
      "geometry": {
        "type": "LineString",
        "coordinates": [
          [
            116.353,
            39.939
          ],
          [
            116.353,
            39.944
          ],
          [
            116.353,
            39.949
          ],
          [
            116.353,
            39.954
          ],
          [
            116.353,
            39.959
          ],
          [
            116.353,
            39.964
          ],
          [
            116.353,
            39.969
          ],
          [
            116.353,
            39.974
          ],
          [
            116.353,
            39.979
          ],
          [
            116.353,
            39.984
          ],
          [
            116.353,
            39.989
          ],
          [
            116.353,
            39.994
          ],
          [
            116.353,
            39.999
          ],
          [
            116.353,
            40.004
          ],
          [
            116.353,
            40.009
          ],
          [
            116.353,
            40.014
          ],
          [
            116.353,
            40.019
          ],
          [
            116.353,
            40.024
          ]
        ]
      }
    },
    {
      "type": "Feature",
      "id": "ROAD-EW-1",
      "properties": {
        "id": "ROAD-EW-1",
        "layer": "ROAD_CENTERLINE",
        "source_type": "agent_generated_design",
        "confidence": "medium",
        "geometry_role": "design_proposal",
        "road_type": "secondary",
        "name_zh": "大钟寺南侧连接",
        "length_m": 1020.0,
        "alignment_status": "concept_only_pending_transport_review",
        "length_m_declared": 1020.0
      },
      "geometry": {
        "type": "LineString",
        "coordinates": [
          [
            116.342,
            39.942
          ],
          [
            116.345,
            39.942
          ],
          [
            116.348,
            39.942
          ],
          [
            116.351,
            39.942
          ],
          [
            116.354,
            39.942
          ]
        ]
      }
    },
    {
      "type": "Feature",
      "id": "ROAD-EW-2",
      "properties": {
        "id": "ROAD-EW-2",
        "layer": "ROAD_CENTERLINE",
        "source_type": "agent_generated_design",
        "confidence": "medium",
        "geometry_role": "design_proposal",
        "road_type": "secondary",
        "name_zh": "大钟寺北侧连接",
        "length_m": 1020.0,
        "alignment_status": "concept_only_pending_transport_review",
        "length_m_declared": 1020.0
      },
      "geometry": {
        "type": "LineString",
        "coordinates": [
          [
            116.342,
            39.95
          ],
          [
            116.345,
            39.95
          ],
          [
            116.348,
            39.95
          ],
          [
            116.351,
            39.95
          ],
          [
            116.354,
            39.95
          ]
        ]
      }
    },
    {
      "type": "Feature",
      "id": "ROAD-EW-3",
      "properties": {
        "id": "ROAD-EW-3",
        "layer": "ROAD_CENTERLINE",
        "source_type": "agent_generated_design",
        "confidence": "medium",
        "geometry_role": "design_proposal",
        "road_type": "pedestrian_priority",
        "name_zh": "大钟寺进入连接",
        "length_m": 1020.0,
        "alignment_status": "concept_only_pending_transport_review",
        "length_m_declared": 1020.0
      },
      "geometry": {
        "type": "LineString",
        "coordinates": [
          [
            116.342,
            39.96
          ],
          [
            116.345,
            39.96
          ],
          [
            116.348,
            39.96
          ],
          [
            116.351,
            39.96
          ],
          [
            116.354,
            39.96
          ]
        ]
      }
    },
    {
      "type": "Feature",
      "id": "ROAD-EW-4",
      "properties": {
        "id": "ROAD-EW-4",
        "layer": "ROAD_CENTERLINE",
        "source_type": "agent_generated_design",
        "confidence": "medium",
        "geometry_role": "design_proposal",
        "road_type": "primary",
        "name_zh": "原点到达连接",
        "length_m": 1020.0,
        "alignment_status": "concept_only_pending_transport_review",
        "length_m_declared": 1020.0
      },
      "geometry": {
        "type": "LineString",
        "coordinates": [
          [
            116.342,
            39.97
          ],
          [
            116.345,
            39.97
          ],
          [
            116.348,
            39.97
          ],
          [
            116.351,
            39.97
          ],
          [
            116.354,
            39.97
          ]
        ]
      }
    },
    {
      "type": "Feature",
      "id": "ROAD-EW-5",
      "properties": {
        "id": "ROAD-EW-5",
        "layer": "ROAD_CENTERLINE",
        "source_type": "agent_generated_design",
        "confidence": "medium",
        "geometry_role": "design_proposal",
        "road_type": "pedestrian_priority",
        "name_zh": "原点进入连接",
        "length_m": 1008.1,
        "alignment_status": "concept_only_pending_transport_review",
        "length_m_declared": 1008.1
      },
      "geometry": {
        "type": "LineString",
        "coordinates": [
          [
            116.342,
            39.983
          ],
          [
            116.345,
            39.983
          ],
          [
            116.348,
            39.983
          ],
          [
            116.351,
            39.983
          ],
          [
            116.35386,
            39.983
          ]
        ]
      }
    },
    {
      "type": "Feature",
      "id": "ROAD-EW-6",
      "properties": {
        "id": "ROAD-EW-6",
        "layer": "ROAD_CENTERLINE",
        "source_type": "agent_generated_design",
        "confidence": "medium",
        "geometry_role": "design_proposal",
        "road_type": "secondary",
        "name_zh": "五道口连接",
        "length_m": 765.0,
        "alignment_status": "concept_only_pending_transport_review",
        "length_m_declared": 765.0
      },
      "geometry": {
        "type": "LineString",
        "coordinates": [
          [
            116.342,
            39.993
          ],
          [
            116.345,
            39.993
          ],
          [
            116.348,
            39.993
          ],
          [
            116.351,
            39.993
          ]
        ]
      }
    },
    {
      "type": "Feature",
      "id": "ROAD-EW-7",
      "properties": {
        "id": "ROAD-EW-7",
        "layer": "ROAD_CENTERLINE",
        "source_type": "agent_generated_design",
        "confidence": "medium",
        "geometry_role": "design_proposal",
        "road_type": "pedestrian_priority",
        "name_zh": "众智园到达连接",
        "length_m": 1020.0,
        "alignment_status": "concept_only_pending_transport_review",
        "length_m_declared": 1020.0
      },
      "geometry": {
        "type": "LineString",
        "coordinates": [
          [
            116.342,
            40.005
          ],
          [
            116.345,
            40.005
          ],
          [
            116.348,
            40.005
          ],
          [
            116.351,
            40.005
          ],
          [
            116.354,
            40.005
          ]
        ]
      }
    },
    {
      "type": "Feature",
      "id": "ROAD-EW-8",
      "properties": {
        "id": "ROAD-EW-8",
        "layer": "ROAD_CENTERLINE",
        "source_type": "agent_generated_design",
        "confidence": "medium",
        "geometry_role": "design_proposal",
        "road_type": "secondary",
        "name_zh": "众智园进入连接",
        "length_m": 1008.2,
        "alignment_status": "concept_only_pending_transport_review",
        "length_m_declared": 1008.2
      },
      "geometry": {
        "type": "LineString",
        "coordinates": [
          [
            116.34213902439025,
            40.015
          ],
          [
            116.345,
            40.015
          ],
          [
            116.348,
            40.015
          ],
          [
            116.351,
            40.015
          ],
          [
            116.354,
            40.015
          ]
        ]
      }
    },
    {
      "type": "Feature",
      "id": "ROAD-EW-9",
      "properties": {
        "id": "ROAD-EW-9",
        "layer": "ROAD_CENTERLINE",
        "source_type": "agent_generated_design",
        "confidence": "medium",
        "geometry_role": "design_proposal",
        "road_type": "primary",
        "name_zh": "北五环辅路",
        "length_m": 765.0,
        "alignment_status": "concept_only_pending_transport_review",
        "length_m_declared": 765.0
      },
      "geometry": {
        "type": "LineString",
        "coordinates": [
          [
            116.345,
            40.023
          ],
          [
            116.348,
            40.023
          ],
          [
            116.351,
            40.023
          ],
          [
            116.354,
            40.023
          ]
        ]
      }
    }
  ]
}