{
 "type": "FeatureCollection",
 "name": "BUILDING_FOOTPRINT",
 "features": [
  {
   "type": "Feature",
   "id": "BLDG-001",
   "properties": {
    "id": "BLDG-001",
    "layer": "BUILDING_FOOTPRINT",
    "source_type": "agent_generated_design",
    "confidence": "medium",
    "geometry_role": "design_proposal",
    "official_boundary": false,
    "name_zh": "L1 水准原点标石与公共证据厅",
    "note_zh": "示意性基底，用于说明功能落位、规模量级与朝向；不构成建筑方案、不给出高度、容积率与退线结论，须经专项论证。",
    "building_type": "cultural",
    "area_sqm_declared": 9424.0,
    "frontage_orientation_zh": "基底长边平行于主脊，表达该建筑面向公共轴的贴线关系——本方案的界面连续性与底层公共性规则依赖朝向，圆形基底无法承载。"
   },
   "geometry": {
    "type": "Polygon",
    "coordinates": [
     [
      [
       116.34787002186597,
       39.98781779864256
      ],
      [
       116.34714415410201,
       39.987813350909484
      ],
      [
       116.34712997069576,
       39.98918220003693
      ],
      [
       116.34785585294577,
       39.98918664797414
      ],
      [
       116.34787002186597,
       39.98781779864256
      ]
     ]
    ]
   }
  },
  {
   "type": "Feature",
   "id": "BLDG-002",
   "properties": {
    "id": "BLDG-002",
    "layer": "BUILDING_FOOTPRINT",
    "source_type": "agent_generated_design",
    "confidence": "medium",
    "geometry_role": "design_proposal",
    "official_boundary": false,
    "name_zh": "L2 闭合差碑（公共读数墙）",
    "note_zh": "示意性基底，用于说明功能落位、规模量级与朝向；不构成建筑方案、不给出高度、容积率与退线结论，须经专项论证。",
    "building_type": "cultural",
    "area_sqm_declared": 5032.0,
    "frontage_orientation_zh": "基底长边平行于主脊，表达该建筑面向公共轴的贴线关系——本方案的界面连续性与底层公共性规则依赖朝向，圆形基底无法承载。"
   },
   "geometry": {
    "type": "Polygon",
    "coordinates": [
     [
      [
       116.35061401555802,
       40.01614144040511
      ],
      [
       116.35021586413154,
       40.01614766945336
      ],
      [
       116.35025112544186,
       40.01748025678991
      ],
      [
       116.35064928461334,
       40.01747402768372
      ],
      [
       116.35061401555802,
       40.01614144040511
      ]
     ]
    ]
   }
  },
  {
   "type": "Feature",
   "id": "BLDG-003",
   "properties": {
    "id": "BLDG-003",
    "layer": "BUILDING_FOOTPRINT",
    "source_type": "agent_generated_design",
    "confidence": "medium",
    "geometry_role": "design_proposal",
    "official_boundary": false,
    "name_zh": "L3 归零点（年度归零仪式空间）",
    "note_zh": "示意性基底，用于说明功能落位、规模量级与朝向；不构成建筑方案、不给出高度、容积率与退线结论，须经专项论证。",
    "building_type": "cultural",
    "area_sqm_declared": 6380.0,
    "frontage_orientation_zh": "基底长边平行于主脊，表达该建筑面向公共轴的贴线关系——本方案的界面连续性与底层公共性规则依赖朝向，圆形基底无法承载。"
   },
   "geometry": {
    "type": "Polygon",
    "coordinates": [
     [
      [
       116.34688482659742,
       39.946236418990054
      ],
      [
       116.34636999044723,
       39.946236648645694
      ],
      [
       116.34637096868835,
       39.947542509148946
      ],
      [
       116.34688581462812,
       39.94754227956794
      ],
      [
       116.34688482659742,
       39.946236418990054
      ]
     ]
    ]
   }
  },
  {
   "type": "Feature",
   "id": "BLDG-004",
   "properties": {
    "id": "BLDG-004",
    "layer": "BUILDING_FOOTPRINT",
    "source_type": "agent_generated_design",
    "confidence": "medium",
    "geometry_role": "design_proposal",
    "official_boundary": false,
    "name_zh": "众智园标准测试场与限差议事厅",
    "note_zh": "示意性基底，用于说明功能落位、规模量级与朝向；不构成建筑方案、不给出高度、容积率与退线结论，须经专项论证。",
    "building_type": "lab",
    "area_sqm_declared": 28420.0,
    "frontage_orientation_zh": "基底长边平行于主脊，表达该建筑面向公共轴的贴线关系——本方案的界面连续性与底层公共性规则依赖朝向，圆形基底无法承载。"
   },
   "geometry": {
    "type": "Polygon",
    "coordinates": [
     [
      [
       116.3490415687708,
       40.01548600963405
      ],
      [
       116.34789393637793,
       40.01550276736629
      ],
      [
       116.3479584101466,
       40.01811398737157
      ],
      [
       116.34910608628556,
       40.01809722935819
      ],
      [
       116.3490415687708,
       40.01548600963405
      ]
     ]
    ]
   }
  },
  {
   "type": "Feature",
   "id": "BLDG-005",
   "properties": {
    "id": "BLDG-005",
    "layer": "BUILDING_FOOTPRINT",
    "source_type": "agent_generated_design",
    "confidence": "medium",
    "geometry_role": "design_proposal",
    "official_boundary": false,
    "name_zh": "大钟寺智能原生商务界面",
    "note_zh": "示意性基底，用于说明功能落位、规模量级与朝向；不构成建筑方案、不给出高度、容积率与退线结论，须经专项论证。",
    "building_type": "mixed_use",
    "area_sqm_declared": 25200.0,
    "frontage_orientation_zh": "基底长边平行于主脊，表达该建筑面向公共轴的贴线关系——本方案的界面连续性与底层公共性规则依赖朝向，圆形基底无法承载。"
   },
   "geometry": {
    "type": "Polygon",
    "coordinates": [
     [
      [
       116.3489889626228,
       39.94554857776862
      ],
      [
       116.34800610403663,
       39.94554964103247
      ],
      [
       116.34801101780023,
       39.94825141970029
      ],
      [
       116.34899391505434,
       39.94825035670607
      ],
      [
       116.3489889626228,
       39.94554857776862
      ]
     ]
    ]
   }
  },
  {
   "type": "Feature",
   "id": "BLDG-006",
   "properties": {
    "id": "BLDG-006",
    "layer": "BUILDING_FOOTPRINT",
    "source_type": "agent_generated_design",
    "confidence": "medium",
    "geometry_role": "design_proposal",
    "official_boundary": false,
    "name_zh": "学院路轨道站一体化接驳设施",
    "note_zh": "示意性基底，用于说明功能落位、规模量级与朝向；不构成建筑方案、不给出高度、容积率与退线结论，须经专项论证。",
    "building_type": "mobility_hub",
    "area_sqm_declared": 7820.0,
    "frontage_orientation_zh": "基底长边平行于主脊，表达该建筑面向公共轴的贴线关系——本方案的界面连续性与底层公共性规则依赖朝向，圆形基底无法承载。"
   },
   "geometry": {
    "type": "Polygon",
    "coordinates": [
     [
      [
       116.34831439999265,
       39.97924475496862
      ],
      [
       116.34777646477018,
       39.979225840251495
      ],
      [
       116.34768559298287,
       39.98075524402487
      ],
      [
       116.34822354016266,
       39.98077415925486
      ],
      [
       116.34831439999265,
       39.97924475496862
      ]
     ]
    ]
   }
  }
 ]
}
