{
  "type": "FeatureCollection",
  "name": "public_space_prototypes",
  "features": [
    {
      "type": "Feature",
      "id": "N1",
      "properties": {
        "id": "N1",
        "layer": "PUBLIC_SPACE",
        "source_type": "agent_generated_design",
        "confidence": "low",
        "geometry_role": "design_proposal",
        "name_en": "Qinghe Compute Commons",
        "name_zh": "清河算力公园",
        "station_id": "ST01",
        "prototype": "park_courtyard",
        "scenario_ids": [
          "S06",
          "S08",
          "S10"
        ],
        "industry_test_scenario_ids": [
          "S08",
          "S10"
        ],
        "assumption_ids": [
          "A-PUBLIC-SPACE-001",
          "A-SCENARIOS-001"
        ],
        "operating_modes": [
          "day: open riverside park and courtyards for public visiting and observation",
          "night: reduced lighting; a staffed call point is a design target during authorized service windows, subject to confirmed operator, safety conditions, and annual authorization; ledger interface switches to static display",
          "extreme_weather: courtyards become shaded/rain shelters; low-lying park sections operate as floodable green space and may close paths"
        ],
        "priority_users": [
          "rd_and_evaluation_staff",
          "residents",
          "riverside_cyclists_pedestrians",
          "visitors"
        ],
        "prerequisites": [
          "river blue-line and flood-control standard",
          "riverside land ownership and maintenance body",
          "consent for riverside building interface renovation",
          "energy and safety requirements for the ledger interface",
          "confirmed operator and authorized service window before any staffed help point is provided"
        ],
        "manual_fallback": "Printed/static signage is on-site; a staffed help point is a design target during authorized service periods only, subject to confirmed operator, and is not a permanent-staffing claim. The dispatch ledger interface has an offline static-display fallback and never requires a digital identity to view.",
        "reversible": true,
        "area_sqm_declared": 213306.454,
        "usage_note": "本要素为概念性公共空间原型节点，用于承载场景卡演练与展示，属设计建议，不表示已确定运营主体、已批准活动许可或已核实场地权属。This is a conceptual public-space prototype node used to stage scenario-card trials; it is a design proposal only, not a confirmed operator, approved permit, or verified land ownership."
      },
      "geometry": {
        "type": "Polygon",
        "coordinates": [
          [
            [
              116.3435,
              40.011
            ],
            [
              116.346,
              40.011
            ],
            [
              116.346,
              40.02
            ],
            [
              116.3435,
              40.02
            ],
            [
              116.3435,
              40.011
            ]
          ]
        ]
      }
    },
    {
      "type": "Feature",
      "id": "N2",
      "properties": {
        "id": "N2",
        "layer": "PUBLIC_SPACE",
        "source_type": "agent_generated_design",
        "confidence": "low",
        "geometry_role": "design_proposal",
        "name_en": "Fail-safe Test Yard",
        "name_zh": "失效安全测试院",
        "station_id": "ST01",
        "prototype": "courtyard_station",
        "scenario_ids": [
          "S02",
          "S03"
        ],
        "industry_test_scenario_ids": [],
        "assumption_ids": [
          "A-PUBLIC-SPACE-001",
          "A-SCENARIOS-001"
        ],
        "operating_modes": [
          "day: shared public ground or scheduled test ground",
          "night: reverts to ordinary open ground, no drills scheduled",
          "extreme_weather: yields to refuge use; tests pause and yard becomes temporary shelter/gathering space"
        ],
        "priority_users": [
          "rd_and_evaluation_teams",
          "regulatory_observers",
          "visitors",
          "nearby_residents_off_hours"
        ],
        "prerequisites": [
          "public safety boundary and permit for test activities",
          "site ownership and management responsibility",
          "fire/structural conditions for enclosure and fittings",
          "confirmation that drills collect no personal data",
          "confirmed operator and authorized drill window before any staffed guidance is provided"
        ],
        "manual_fallback": "Human takeover is the default action for any drill failure; printed instructions remain available on site. Staffed guidance is a design target during authorized drill/service periods only, subject to confirmed operator, with no digital step required.",
        "reversible": true,
        "area_sqm_declared": 56881.671,
        "usage_note": "本要素为概念性公共空间原型节点，用于承载场景卡演练与展示，属设计建议，不表示已确定运营主体、已批准活动许可或已核实场地权属。This is a conceptual public-space prototype node used to stage scenario-card trials; it is a design proposal only, not a confirmed operator, approved permit, or verified land ownership."
      },
      "geometry": {
        "type": "Polygon",
        "coordinates": [
          [
            [
              116.3475,
              40.014
            ],
            [
              116.3495,
              40.014
            ],
            [
              116.3495,
              40.017
            ],
            [
              116.3475,
              40.017
            ],
            [
              116.3475,
              40.014
            ]
          ]
        ]
      }
    },
    {
      "type": "Feature",
      "id": "N3",
      "properties": {
        "id": "N3",
        "layer": "PUBLIC_SPACE",
        "source_type": "agent_generated_design",
        "confidence": "low",
        "geometry_role": "design_proposal",
        "name_en": "Origin Courtyard",
        "name_zh": "原点庭院",
        "station_id": "ST02",
        "prototype": "courtyard_gate",
        "scenario_ids": [
          "S01",
          "S06"
        ],
        "industry_test_scenario_ids": [],
        "assumption_ids": [
          "A-PUBLIC-SPACE-001",
          "A-SCENARIOS-001"
        ],
        "operating_modes": [
          "day: shared use for classes, verification, release events, and everyday rest",
          "night: lighting and seating remain; a staffed call point is a design target during authorized service windows, subject to confirmed operator; verification activity ends and courtyard access is subject to authorized opening hours",
          "extreme_weather: ground-floor open space becomes a shaded/warming rest point; verification yields to refuge use"
        ],
        "priority_users": [
          "university_students_and_faculty",
          "developers",
          "nearby_residents_incl_elderly",
          "new_arrivals_to_haidian",
          "families_and_children"
        ],
        "prerequisites": [
          "negotiation of campus boundary and access management",
          "consent for ground-floor use and tenant mix change",
          "courtyard land ownership and maintenance body",
          "institutional channel for resident participation and objection",
          "confirmed operator and annual authorization before any staffed service desk is provided"
        ],
        "manual_fallback": "Printed handbook available on site; a staffed service desk is a design target during authorized service periods only, subject to confirmed operator and annual authorization, not a permanent-staffing claim. Content review and any showcase can be withdrawn without notice, no login required.",
        "reversible": true,
        "area_sqm_declared": 82985.705,
        "usage_note": "本要素为概念性公共空间原型节点，用于承载场景卡演练与展示，属设计建议，不表示已确定运营主体、已批准活动许可或已核实场地权属。This is a conceptual public-space prototype node used to stage scenario-card trials; it is a design proposal only, not a confirmed operator, approved permit, or verified land ownership."
      },
      "geometry": {
        "type": "Polygon",
        "coordinates": [
          [
            [
              116.3435,
              39.986
            ],
            [
              116.346,
              39.986
            ],
            [
              116.346,
              39.9895
            ],
            [
              116.3435,
              39.9895
            ],
            [
              116.3435,
              39.986
            ]
          ]
        ]
      }
    },
    {
      "type": "Feature",
      "id": "N4",
      "properties": {
        "id": "N4",
        "layer": "PUBLIC_SPACE",
        "source_type": "agent_generated_design",
        "confidence": "low",
        "geometry_role": "design_proposal",
        "name_en": "Campus–Station Stitch",
        "name_zh": "校—站缝合节点",
        "station_id": "ST02",
        "prototype": "mobility_stitch",
        "scenario_ids": [
          "S04",
          "S09"
        ],
        "industry_test_scenario_ids": [
          "S09"
        ],
        "assumption_ids": [
          "A-PUBLIC-SPACE-001",
          "A-SCENARIOS-001",
          "A-ROADS-001"
        ],
        "operational_status": "design_only_closed_pending_study",
        "operating_modes": [
          "design_target: a continuous campus-station route is a design target only; no crossing form (at-grade, bridge, underpass, or other), covered segment, landing plaza, or staffed call point is asserted or presupposed",
          "current_status: design-only / closed until a feasible, authorized alternative is confirmed by transport/accessibility/engineering study"
        ],
        "priority_users": [
          "university_students_and_faculty",
          "commuters",
          "night_shift_workers",
          "students_and_parents",
          "wheelchair_and_mobility_limited_users"
        ],
        "prerequisites": [
          "rail and road safety control requirements",
          "station entrance/exit conditions",
          "engineering feasibility study for the campus-station crossing form (no form assumed: at-grade, bridge, underpass, or other)",
          "transport and accessibility study confirming a continuous route and a safe fallback",
          "ownership and utility conditions at both ends",
          "confirmed operator and authorization before any staffed or manual fallback can be claimed"
        ],
        "manual_fallback": "No manual or staffed fallback is asserted. A continuous route and its fallback are design targets pending transport/accessibility/engineering study; until a feasible, authorized alternative is confirmed, N4 remains design-only and closed.",
        "reversible": true,
        "area_sqm_declared": 65440.777,
        "usage_note": "本要素为概念性公共空间原型节点，用于承载场景卡演练与展示，属设计建议，不表示已确定运营主体、已批准活动许可或已核实场地权属；本节点当前为设计阶段/关闭状态，连续路径及其应急替代方案均为待交通、无障碍与工程研究确认的设计目标，不预设覆盖段、落客广场、驻点人员或桥梁/地道/地面绕行方案。This is a conceptual public-space prototype node used to stage scenario-card trials; it is a design proposal only, not a confirmed operator, approved permit, or verified land ownership. This node is currently design-only/closed: the continuous route and its fallback are design targets pending transport/accessibility/engineering study, with no covered segment, landing plaza, staffed call point, or bridge/underpass/ground-detour presupposed."
      },
      "geometry": {
        "type": "Polygon",
        "coordinates": [
          [
            [
              116.3492,
              39.9855
            ],
            [
              116.3515,
              39.9855
            ],
            [
              116.3515,
              39.9885
            ],
            [
              116.3492,
              39.9885
            ],
            [
              116.3492,
              39.9855
            ]
          ]
        ]
      }
    },
    {
      "type": "Feature",
      "id": "N5",
      "properties": {
        "id": "N5",
        "layer": "PUBLIC_SPACE",
        "source_type": "agent_generated_design",
        "confidence": "low",
        "geometry_role": "design_proposal",
        "name_en": "Four-Quadrant Crossing",
        "name_zh": "四象限过街",
        "station_id": "ST03",
        "prototype": "gate_station",
        "scenario_ids": [
          "S05",
          "S07"
        ],
        "industry_test_scenario_ids": [],
        "assumption_ids": [
          "A-PUBLIC-SPACE-001",
          "A-SCENARIOS-001"
        ],
        "operating_modes": [
          "day: primary walking surface for commuting, shopping, and rail transfer",
          "night: lighting and visibility prioritized; staffed call points at waiting areas are a design target during authorized service windows, subject to confirmed operator",
          "extreme_weather: sheltered waiting areas provide temporary rain/snow/shade refuge; staffed guidance and detours are a design target, subject to confirmed operator and safety conditions, if icy or flooded"
        ],
        "priority_users": [
          "rail_commuters",
          "nearby_workers_and_visitors",
          "elderly_residents",
          "wheelchair_and_mobility_limited_users",
          "cyclists"
        ],
        "prerequisites": [
          "intersection safety assessment and traffic-organization review",
          "road right-of-way and utility conditions",
          "coordination with station entrance/exit placement",
          "ownership and management split across the four corners",
          "confirmed operator and authorized service window before any staffed guidance is provided"
        ],
        "manual_fallback": "A non-digital, continuous ground-level route with no app or digital ticket required to cross is a design target, subject to professional transport/accessibility confirmation, an authorized service window, safety conditions, and annual authorization; no existing route is claimed. Staffed guidance is a design target during authorized service periods only, subject to confirmed operator and safety conditions, not a permanent-staffing claim.",
        "reversible": true,
        "area_sqm_declared": 28469.429,
        "usage_note": "本要素为概念性公共空间原型节点，用于承载场景卡演练与展示，属设计建议，不表示已确定运营主体、已批准活动许可或已核实场地权属。This is a conceptual public-space prototype node used to stage scenario-card trials; it is a design proposal only, not a confirmed operator, approved permit, or verified land ownership."
      },
      "geometry": {
        "type": "Polygon",
        "coordinates": [
          [
            [
              116.3475,
              39.945
            ],
            [
              116.3495,
              39.945
            ],
            [
              116.3495,
              39.9465
            ],
            [
              116.3475,
              39.9465
            ],
            [
              116.3475,
              39.945
            ]
          ]
        ]
      }
    },
    {
      "type": "Feature",
      "id": "N6",
      "properties": {
        "id": "N6",
        "layer": "PUBLIC_SPACE",
        "source_type": "agent_generated_design",
        "confidence": "low",
        "geometry_role": "design_proposal",
        "name_en": "New Axis Launch Market",
        "name_zh": "新轴发布市集",
        "station_id": "ST03",
        "prototype": "market_courtyard",
        "scenario_ids": [
          "S03",
          "S10"
        ],
        "industry_test_scenario_ids": [
          "S10"
        ],
        "assumption_ids": [
          "A-PUBLIC-SPACE-001",
          "A-SCENARIOS-001"
        ],
        "operating_modes": [
          "day: market, showcase, meetings, and everyday rest",
          "night: lighting and seating remain for night rest and small gatherings, subject to authorized opening hours; absence of scheduled programming does not by itself trigger closure",
          "extreme_weather: canopy provides shade/rain shelter; temporary fixtures are removed and events paused under high wind or heavy snow per the contingency plan"
        ],
        "priority_users": [
          "nearby_residents_and_workers",
          "smes_and_startups",
          "visitors_and_international_guests",
          "stallholders"
        ],
        "prerequisites": [
          "land/street ownership and consent for use",
          "public-activity permit and safety contingency plan",
          "canopy structural and fire-safety conditions",
          "clearance and recovery arrangement for temporary fixtures",
          "confirmed operator and authorized service periods before any staffed presence is provided"
        ],
        "manual_fallback": "Canopy and seating structure (design target) remains usable with power/network down; a printed contingency plan covers removal of temporary fixtures. Staffed presence during events is a design target subject to confirmed operator and authorized service periods, not a permanent-staffing claim.",
        "reversible": true,
        "area_sqm_declared": 59311.355,
        "usage_note": "本要素为概念性公共空间原型节点，用于承载场景卡演练与展示，属设计建议，不表示已确定运营主体、已批准活动许可或已核实场地权属。This is a conceptual public-space prototype node used to stage scenario-card trials; it is a design proposal only, not a confirmed operator, approved permit, or verified land ownership."
      },
      "geometry": {
        "type": "Polygon",
        "coordinates": [
          [
            [
              116.344,
              39.9445
            ],
            [
              116.3465,
              39.9445
            ],
            [
              116.3465,
              39.947
            ],
            [
              116.344,
              39.947
            ],
            [
              116.344,
              39.9445
            ]
          ]
        ]
      }
    }
  ]
}
