{
  "type": "FeatureCollection",
  "name": "land_use_civic_spine",
  "features": [
    {
      "type": "Feature",
      "id": "LU-001",
      "properties": {
        "id": "LU-001",
        "layer": "LAND_USE",
        "source_type": "agent_generated_design",
        "confidence": "medium",
        "geometry_role": "design_proposal",
        "land_use_code": "0802",
        "name_zh": "科研与AI研发用地",
        "area_sqm_declared": 1638826.442
      },
      "geometry": {
        "type": "Polygon",
        "coordinates": [
          [
            [
              116.3407,
              39.939
            ],
            [
              116.3397,
              39.975
            ],
            [
              116.3417,
              40.006
            ],
            [
              116.3427,
              40.0265
            ],
            [
              116.34282,
              40.0265
            ],
            [
              116.34282,
              39.939
            ],
            [
              116.3407,
              39.939
            ]
          ]
        ]
      }
    },
    {
      "type": "Feature",
      "id": "LU-002",
      "properties": {
        "id": "LU-002",
        "layer": "LAND_USE",
        "source_type": "agent_generated_design",
        "confidence": "medium",
        "geometry_role": "design_proposal",
        "land_use_code": "1401",
        "name_zh": "京张蓝绿公园绿地",
        "area_sqm_declared": 2848273.895
      },
      "geometry": {
        "type": "Polygon",
        "coordinates": [
          [
            [
              116.34282,
              39.939
            ],
            [
              116.34282,
              40.0265
            ],
            [
              116.346252,
              40.0265
            ],
            [
              116.346252,
              39.939
            ],
            [
              116.34282,
              39.939
            ]
          ]
        ]
      }
    },
    {
      "type": "Feature",
      "id": "LU-003",
      "properties": {
        "id": "LU-003",
        "layer": "LAND_USE",
        "source_type": "agent_generated_design",
        "confidence": "medium",
        "geometry_role": "design_proposal",
        "land_use_code": "05",
        "name_zh": "产业服务与商业服务业用地",
        "area_sqm_declared": 2718804.759
      },
      "geometry": {
        "type": "Polygon",
        "coordinates": [
          [
            [
              116.346252,
              39.939
            ],
            [
              116.346252,
              40.0265
            ],
            [
              116.349528,
              40.0265
            ],
            [
              116.349528,
              39.939
            ],
            [
              116.346252,
              39.939
            ]
          ]
        ]
      }
    },
    {
      "type": "Feature",
      "id": "LU-004",
      "properties": {
        "id": "LU-004",
        "layer": "LAND_USE",
        "source_type": "agent_generated_design",
        "confidence": "medium",
        "geometry_role": "design_proposal",
        "land_use_code": "0804",
        "name_zh": "教育与近校转化用地",
        "area_sqm_declared": 2200935.661
      },
      "geometry": {
        "type": "Polygon",
        "coordinates": [
          [
            [
              116.349528,
              39.939
            ],
            [
              116.349528,
              40.0265
            ],
            [
              116.35218,
              40.0265
            ],
            [
              116.35218,
              39.939
            ],
            [
              116.349528,
              39.939
            ]
          ]
        ]
      }
    },
    {
      "type": "Feature",
      "id": "LU-005",
      "properties": {
        "id": "LU-005",
        "layer": "LAND_USE",
        "source_type": "agent_generated_design",
        "confidence": "medium",
        "geometry_role": "design_proposal",
        "land_use_code": "0702",
        "name_zh": "社区服务与人才生活配套用地",
        "area_sqm_declared": 2005992.157
      },
      "geometry": {
        "type": "Polygon",
        "coordinates": [
          [
            [
              116.35218,
              39.939
            ],
            [
              116.35218,
              40.0265
            ],
            [
              116.3553,
              40.0265
            ],
            [
              116.3533,
              39.99
            ],
            [
              116.3553,
              39.965
            ],
            [
              116.3553,
              39.939
            ],
            [
              116.35218,
              39.939
            ]
          ]
        ]
      }
    }
  ]
}
