{
  "type": "FeatureCollection",
  "name": "roads_civic_spine",
  "features": [
    {
      "type": "Feature",
      "id": "ROAD-001",
      "properties": {
        "id": "ROAD-001",
        "layer": "ROAD_CENTERLINE",
        "source_type": "agent_generated_design",
        "confidence": "medium",
        "geometry_role": "design_proposal",
        "road_class": "greenway",
        "name_zh": "京张智脊慢行主廊"
      },
      "geometry": {
        "type": "LineString",
        "coordinates": [
          [
            116.345316,
            40.022125
          ],
          [
            116.345628,
            39.987125
          ],
          [
            116.346252,
            39.969625
          ],
          [
            116.34672,
            39.946
          ]
        ]
      }
    },
    {
      "type": "Feature",
      "id": "ROAD-002",
      "properties": {
        "id": "ROAD-002",
        "layer": "ROAD_CENTERLINE",
        "source_type": "agent_generated_design",
        "confidence": "medium",
        "geometry_role": "design_proposal",
        "road_class": "pedestrian",
        "name_zh": "众智园东西创新连廊"
      },
      "geometry": {
        "type": "LineString",
        "coordinates": [
          [
            116.3418463,
            40.009
          ],
          [
            116.35374,
            40.009
          ]
        ]
      }
    },
    {
      "type": "Feature",
      "id": "ROAD-003",
      "properties": {
        "id": "ROAD-003",
        "layer": "ROAD_CENTERLINE",
        "source_type": "agent_generated_design",
        "confidence": "medium",
        "geometry_role": "design_proposal",
        "road_class": "pedestrian",
        "name_zh": "原点社区校企慢行缝合线"
      },
      "geometry": {
        "type": "LineString",
        "coordinates": [
          [
            116.341572,
            39.98625
          ],
          [
            116.353428,
            39.98625
          ]
        ]
      }
    },
    {
      "type": "Feature",
      "id": "ROAD-004",
      "properties": {
        "id": "ROAD-004",
        "layer": "ROAD_CENTERLINE",
        "source_type": "agent_generated_design",
        "confidence": "medium",
        "geometry_role": "design_proposal",
        "road_class": "pedestrian",
        "name_zh": "大钟寺四象限步行环"
      },
      "geometry": {
        "type": "LineString",
        "coordinates": [
          [
            116.34204,
            39.95125
          ],
          [
            116.35296,
            39.95125
          ]
        ]
      }
    }
  ]
}
