{
  "type": "FeatureCollection",
  "name": "constraints",
  "features": [
    {
      "type": "Feature",
      "id": "CONSTRAINT-SITE",
      "properties": {
        "id": "CONSTRAINT-SITE",
        "layer": "REGULATORY_CONTROL",
        "source_type": "agent_inferred_from_public_data",
        "confidence": "medium",
        "geometry_role": "provisional_constraint",
        "area_sqm_declared": 11345657.1,
        "constraint_role_zh": "临时总体设计范围约束",
        "official_boundary": false
      },
      "geometry": {
        "type": "Polygon",
        "coordinates": [
          [
            [
              116.3407,
              39.939
            ],
            [
              116.3553,
              39.939
            ],
            [
              116.3553,
              39.965
            ],
            [
              116.3533,
              39.99
            ],
            [
              116.3553,
              40.0265
            ],
            [
              116.3427,
              40.0265
            ],
            [
              116.3417,
              40.006
            ],
            [
              116.3397,
              39.975
            ],
            [
              116.3407,
              39.939
            ]
          ]
        ]
      }
    },
    {
      "type": "Feature",
      "id": "CONSTRAINT-RAIL",
      "properties": {
        "id": "CONSTRAINT-RAIL",
        "layer": "REGULATORY_CONTROL",
        "source_type": "agent_generated_design",
        "confidence": "low",
        "geometry_role": "design_proposal",
        "area_sqm_declared": 287514.5,
        "constraint_role_zh": "京张铁路遗址廊道（概念保护约束）",
        "boundary_precision": "provisional_rough"
      },
      "geometry": {
        "type": "Polygon",
        "coordinates": [
          [
            [
              116.34781026331301,
              39.94
            ],
            [
              116.34778665220189,
              39.9417
            ],
            [
              116.34776304109079,
              39.9434
            ],
            [
              116.34773942997968,
              39.9451
            ],
            [
              116.34771581886856,
              39.946799999999996
            ],
            [
              116.34769220775745,
              39.948499999999996
            ],
            [
              116.34766859664633,
              39.950199999999995
            ],
            [
              116.34764498553523,
              39.951899999999995
            ],
            [
              116.34762137442412,
              39.953599999999994
            ],
            [
              116.347597763313,
              39.9553
            ],
            [
              116.34757415220189,
              39.957
            ],
            [
              116.34755054109078,
              39.9587
            ],
            [
              116.34752692997968,
              39.9604
            ],
            [
              116.34750331886856,
              39.9621
            ],
            [
              116.34747970775744,
              39.9638
            ],
            [
              116.34743609664635,
              39.9655
            ],
            [
              116.34734448553523,
              39.9672
            ],
            [
              116.34725287442411,
              39.9689
            ],
            [
              116.347161263313,
              39.9706
            ],
            [
              116.34706965220188,
              39.9723
            ],
            [
              116.34697804109078,
              39.974
            ],
            [
              116.34691873284704,
              39.975699999999996
            ],
            [
              116.34690557155673,
              39.977399999999996
            ],
            [
              116.34689241026642,
              39.979099999999995
            ],
            [
              116.3468792489761,
              39.980799999999995
            ],
            [
              116.34686608768577,
              39.982499999999995
            ],
            [
              116.34685292639544,
              39.984199999999994
            ],
            [
              116.34683976510512,
              39.9859
            ],
            [
              116.34682660381479,
              39.9876
            ],
            [
              116.34681344252448,
              39.9893
            ],
            [
              116.34686767849443,
              39.991
            ],
            [
              116.34696909254657,
              39.9927
            ],
            [
              116.34707050659871,
              39.9944
            ],
            [
              116.34717192065087,
              39.9961
            ],
            [
              116.34727333470299,
              39.9978
            ],
            [
              116.34737474875514,
              39.9995
            ],
            [
              116.3474761628073,
              40.0012
            ],
            [
              116.34757757685942,
              40.0029
            ],
            [
              116.34767899091158,
              40.004599999999996
            ],
            [
              116.34777804461753,
              40.006299999999996
            ],
            [
              116.34786608337463,
              40.007999999999996
            ],
            [
              116.34795412213174,
              40.009699999999995
            ],
            [
              116.34804216088884,
              40.011399999999995
            ],
            [
              116.34813019964592,
              40.013099999999994
            ],
            [
              116.34821823840302,
              40.0148
            ],
            [
              116.34830627716012,
              40.0165
            ],
            [
              116.34839431591722,
              40.0182
            ],
            [
              116.34848235467433,
              40.0199
            ],
            [
              116.34857039343143,
              40.0216
            ],
            [
              116.34865843218853,
              40.0233
            ],
            [
              116.34874647094563,
              40.025
            ],
            [
              116.34882415220189,
              40.0267
            ],
            [
              116.3491758477981,
              40.0267
            ],
            [
              116.34909816654184,
              40.025
            ],
            [
              116.34901012778474,
              40.0233
            ],
            [
              116.34892208902764,
              40.0216
            ],
            [
              116.34883405027054,
              40.0199
            ],
            [
              116.34874601151343,
              40.0182
            ],
            [
              116.34865797275633,
              40.0165
            ],
            [
              116.34856993399923,
              40.0148
            ],
            [
              116.34848189524213,
              40.013099999999994
            ],
            [
              116.34839385648505,
              40.011399999999995
            ],
            [
              116.34830581772795,
              40.009699999999995
            ],
            [
              116.34821777897083,
              40.007999999999996
            ],
            [
              116.34812974021374,
              40.006299999999996
            ],
            [
              116.34803068650778,
              40.004599999999996
            ],
            [
              116.34792927245563,
              40.0029
            ],
            [
              116.3478278584035,
              40.0012
            ],
            [
              116.34772644435135,
              39.9995
            ],
            [
              116.3476250302992,
              39.9978
            ],
            [
              116.34752361624707,
              39.9961
            ],
            [
              116.34742220219492,
              39.9944
            ],
            [
              116.34732078814278,
              39.9927
            ],
            [
              116.34721937409064,
              39.991
            ],
            [
              116.34716513812069,
              39.9893
            ],
            [
              116.347178299411,
              39.9876
            ],
            [
              116.34719146070132,
              39.9859
            ],
            [
              116.34720462199165,
              39.984199999999994
            ],
            [
              116.34721778328198,
              39.982499999999995
            ],
            [
              116.3472309445723,
              39.980799999999995
            ],
            [
              116.34724410586263,
              39.979099999999995
            ],
            [
              116.34725726715294,
              39.977399999999996
            ],
            [
              116.34727042844325,
              39.975699999999996
            ],
            [
              116.34732973668699,
              39.974
            ],
            [
              116.34742134779809,
              39.9723
            ],
            [
              116.3475129589092,
              39.9706
            ],
            [
              116.34760457002032,
              39.9689
            ],
            [
              116.34769618113144,
              39.9672
            ],
            [
              116.34778779224256,
              39.9655
            ],
            [
              116.34783140335365,
              39.9638
            ],
            [
              116.34785501446477,
              39.9621
            ],
            [
              116.34787862557589,
              39.9604
            ],
            [
              116.34790223668699,
              39.9587
            ],
            [
              116.3479258477981,
              39.957
            ],
            [
              116.34794945890921,
              39.9553
            ],
            [
              116.34797307002033,
              39.953599999999994
            ],
            [
              116.34799668113143,
              39.951899999999995
            ],
            [
              116.34802029224254,
              39.950199999999995
            ],
            [
              116.34804390335366,
              39.948499999999996
            ],
            [
              116.34806751446477,
              39.946799999999996
            ],
            [
              116.34809112557589,
              39.9451
            ],
            [
              116.348114736687,
              39.9434
            ],
            [
              116.3481383477981,
              39.9417
            ],
            [
              116.34816195890922,
              39.94
            ],
            [
              116.34781026331301,
              39.94
            ]
          ]
        ]
      }
    }
  ],
  "metadata": {
    "note": "约束层：临时边界与铁路遗址廊道"
  }
}