{
  "type": "FeatureCollection",
  "name": "green_space",
  "features": [
    {
      "type": "Feature",
      "id": "GREEN-SPINE",
      "properties": {
        "id": "GREEN-SPINE",
        "layer": "GREEN_SPACE",
        "source_type": "agent_generated_design",
        "confidence": "low",
        "geometry_role": "design_proposal",
        "area_sqm_declared": 670867.3,
        "green_role_zh": "京张遗址公园绿廊（概念）",
        "width_m_assumed": 70
      },
      "geometry": {
        "type": "Polygon",
        "coordinates": [
          [
            [
              116.3475757995822,
              39.94
            ],
            [
              116.34755218847108,
              39.9417
            ],
            [
              116.34752857735998,
              39.9434
            ],
            [
              116.34750496624888,
              39.9451
            ],
            [
              116.34748135513776,
              39.946799999999996
            ],
            [
              116.34745774402664,
              39.948499999999996
            ],
            [
              116.34743413291552,
              39.950199999999995
            ],
            [
              116.34741052180442,
              39.951899999999995
            ],
            [
              116.34738691069332,
              39.953599999999994
            ],
            [
              116.3473632995822,
              39.9553
            ],
            [
              116.34733968847108,
              39.957
            ],
            [
              116.34731607735998,
              39.9587
            ],
            [
              116.34729246624887,
              39.9604
            ],
            [
              116.34726885513776,
              39.9621
            ],
            [
              116.34724524402664,
              39.9638
            ],
            [
              116.34720163291554,
              39.9655
            ],
            [
              116.34711002180443,
              39.9672
            ],
            [
              116.34701841069331,
              39.9689
            ],
            [
              116.34692679958219,
              39.9706
            ],
            [
              116.34683518847108,
              39.9723
            ],
            [
              116.34674357735997,
              39.974
            ],
            [
              116.34668426911624,
              39.975699999999996
            ],
            [
              116.34667110782593,
              39.977399999999996
            ],
            [
              116.34665794653561,
              39.979099999999995
            ],
            [
              116.34664478524529,
              39.980799999999995
            ],
            [
              116.34663162395496,
              39.982499999999995
            ],
            [
              116.34661846266464,
              39.984199999999994
            ],
            [
              116.34660530137431,
              39.9859
            ],
            [
              116.34659214008398,
              39.9876
            ],
            [
              116.34657897879367,
              39.9893
            ],
            [
              116.34663321476363,
              39.991
            ],
            [
              116.34673462881577,
              39.9927
            ],
            [
              116.3468360428679,
              39.9944
            ],
            [
              116.34693745692006,
              39.9961
            ],
            [
              116.34703887097218,
              39.9978
            ],
            [
              116.34714028502434,
              39.9995
            ],
            [
              116.34724169907649,
              40.0012
            ],
            [
              116.34734311312862,
              40.0029
            ],
            [
              116.34744452718077,
              40.004599999999996
            ],
            [
              116.34754358088672,
              40.006299999999996
            ],
            [
              116.34763161964382,
              40.007999999999996
            ],
            [
              116.34771965840093,
              40.009699999999995
            ],
            [
              116.34780769715803,
              40.011399999999995
            ],
            [
              116.34789573591512,
              40.013099999999994
            ],
            [
              116.34798377467222,
              40.0148
            ],
            [
              116.34807181342931,
              40.0165
            ],
            [
              116.34815985218641,
              40.0182
            ],
            [
              116.34824789094353,
              40.0199
            ],
            [
              116.34833592970062,
              40.0216
            ],
            [
              116.34842396845772,
              40.0233
            ],
            [
              116.34851200721482,
              40.025
            ],
            [
              116.34858968847108,
              40.0267
            ],
            [
              116.3494103115289,
              40.0267
            ],
            [
              116.34933263027264,
              40.025
            ],
            [
              116.34924459151554,
              40.0233
            ],
            [
              116.34915655275844,
              40.0216
            ],
            [
              116.34906851400135,
              40.0199
            ],
            [
              116.34898047524423,
              40.0182
            ],
            [
              116.34889243648713,
              40.0165
            ],
            [
              116.34880439773004,
              40.0148
            ],
            [
              116.34871635897294,
              40.013099999999994
            ],
            [
              116.34862832021585,
              40.011399999999995
            ],
            [
              116.34854028145875,
              40.009699999999995
            ],
            [
              116.34845224270164,
              40.007999999999996
            ],
            [
              116.34836420394454,
              40.006299999999996
            ],
            [
              116.34826515023859,
              40.004599999999996
            ],
            [
              116.34816373618644,
              40.0029
            ],
            [
              116.34806232213431,
              40.0012
            ],
            [
              116.34796090808216,
              39.9995
            ],
            [
              116.34785949403,
              39.9978
            ],
            [
              116.34775807997788,
              39.9961
            ],
            [
              116.34765666592573,
              39.9944
            ],
            [
              116.34755525187359,
              39.9927
            ],
            [
              116.34745383782145,
              39.991
            ],
            [
              116.34739960185149,
              39.9893
            ],
            [
              116.3474127631418,
              39.9876
            ],
            [
              116.34742592443213,
              39.9859
            ],
            [
              116.34743908572246,
              39.984199999999994
            ],
            [
              116.34745224701278,
              39.982499999999995
            ],
            [
              116.34746540830311,
              39.980799999999995
            ],
            [
              116.34747856959343,
              39.979099999999995
            ],
            [
              116.34749173088375,
              39.977399999999996
            ],
            [
              116.34750489217406,
              39.975699999999996
            ],
            [
              116.34756420041779,
              39.974
            ],
            [
              116.3476558115289,
              39.9723
            ],
            [
              116.34774742264001,
              39.9706
            ],
            [
              116.34783903375113,
              39.9689
            ],
            [
              116.34793064486225,
              39.9672
            ],
            [
              116.34802225597336,
              39.9655
            ],
            [
              116.34806586708446,
              39.9638
            ],
            [
              116.34808947819558,
              39.9621
            ],
            [
              116.3481130893067,
              39.9604
            ],
            [
              116.3481367004178,
              39.9587
            ],
            [
              116.3481603115289,
              39.957
            ],
            [
              116.34818392264002,
              39.9553
            ],
            [
              116.34820753375114,
              39.953599999999994
            ],
            [
              116.34823114486224,
              39.951899999999995
            ],
            [
              116.34825475597334,
              39.950199999999995
            ],
            [
              116.34827836708446,
              39.948499999999996
            ],
            [
              116.34830197819558,
              39.946799999999996
            ],
            [
              116.3483255893067,
              39.9451
            ],
            [
              116.3483492004178,
              39.9434
            ],
            [
              116.3483728115289,
              39.9417
            ],
            [
              116.34839642264002,
              39.94
            ],
            [
              116.3475757995822,
              39.94
            ]
          ]
        ]
      }
    },
    {
      "type": "Feature",
      "id": "GREEN-P1",
      "properties": {
        "id": "GREEN-P1",
        "layer": "GREEN_SPACE",
        "source_type": "agent_generated_design",
        "confidence": "low",
        "geometry_role": "design_proposal",
        "area_sqm_declared": 56575.1,
        "green_role_zh": "口袋公园/小微绿地（概念）"
      },
      "geometry": {
        "type": "Polygon",
        "coordinates": [
          [
            [
              116.3475,
              39.947
            ],
            [
              116.3505,
              39.947
            ],
            [
              116.3505,
              39.949
            ],
            [
              116.3475,
              39.949
            ],
            [
              116.3475,
              39.947
            ]
          ]
        ]
      }
    },
    {
      "type": "Feature",
      "id": "GREEN-P2",
      "properties": {
        "id": "GREEN-P2",
        "layer": "GREEN_SPACE",
        "source_type": "agent_generated_design",
        "confidence": "low",
        "geometry_role": "design_proposal",
        "area_sqm_declared": 99006.4,
        "green_role_zh": "口袋公园/小微绿地（概念）"
      },
      "geometry": {
        "type": "Polygon",
        "coordinates": [
          [
            [
              116.347,
              39.987
            ],
            [
              116.35,
              39.987
            ],
            [
              116.35,
              39.9905
            ],
            [
              116.347,
              39.9905
            ],
            [
              116.347,
              39.987
            ]
          ]
        ]
      }
    },
    {
      "type": "Feature",
      "id": "GREEN-P3",
      "properties": {
        "id": "GREEN-P3",
        "layer": "GREEN_SPACE",
        "source_type": "agent_generated_design",
        "confidence": "low",
        "geometry_role": "design_proposal",
        "area_sqm_declared": 150866.8,
        "green_role_zh": "口袋公园/小微绿地（概念）"
      },
      "geometry": {
        "type": "Polygon",
        "coordinates": [
          [
            [
              116.3475,
              40.014
            ],
            [
              116.3515,
              40.014
            ],
            [
              116.3515,
              40.018
            ],
            [
              116.3475,
              40.018
            ],
            [
              116.3475,
              40.014
            ]
          ]
        ]
      }
    }
  ],
  "metadata": {
    "note": "蓝绿空间为概念方案，待官方绿地系统确认"
  }
}