{"type": "FeatureCollection", "name": "green_space", "features": [{"type": "Feature", "id": "GR-ZZY-SPINE", "properties": {"id": "GR-ZZY-SPINE", "layer": "GREEN_SPACE", "source_type": "agent_generated_design", "confidence": "medium", "geometry_role": "design_proposal", "green_type": "heritage_park_spine", "land_use_code": "1401", "name_zh": "众智园AI加速核·京张绿脊"}, "geometry": {"type": "Polygon", "coordinates": [[[116.3468, 40.0075], [116.3502, 40.0075], [116.3502, 40.026], [116.3468, 40.026], [116.3468, 40.0075]]]}}, {"type": "Feature", "id": "GR-ZZY-N", "properties": {"id": "GR-ZZY-N", "layer": "GREEN_SPACE", "source_type": "agent_generated_design", "confidence": "medium", "geometry_role": "design_proposal", "green_type": "greenway_node", "land_use_code": "1402"}, "geometry": {"type": "Polygon", "coordinates": [[[116.343, 40.01983], [116.354, 40.01983], [116.354, 40.026], [116.343, 40.026], [116.343, 40.01983]]]}}, {"type": "Feature", "id": "GR-ZZY-S", "properties": {"id": "GR-ZZY-S", "layer": "GREEN_SPACE", "source_type": "agent_generated_design", "confidence": "medium", "geometry_role": "design_proposal", "green_type": "greenway_node", "land_use_code": "1402"}, "geometry": {"type": "Polygon", "coordinates": [[[116.343, 40.0075], [116.354, 40.0075], [116.354, 40.01367], [116.343, 40.01367], [116.343, 40.0075]]]}}, {"type": "Feature", "id": "GR-AIYD-SPINE", "properties": {"id": "GR-AIYD-SPINE", "layer": "GREEN_SPACE", "source_type": "agent_generated_design", "confidence": "medium", "geometry_role": "design_proposal", "green_type": "heritage_park_spine", "land_use_code": "1401", "name_zh": "AI原点生态核·京张绿脊"}, "geometry": {"type": "Polygon", "coordinates": [[[116.3457, 39.9835], [116.3493, 39.9835], [116.3493, 39.9935], [116.3457, 39.9935], [116.3457, 39.9835]]]}}, {"type": "Feature", "id": "GR-AIYD-N", "properties": {"id": "GR-AIYD-N", "layer": "GREEN_SPACE", "source_type": "agent_generated_design", "confidence": "medium", "geometry_role": "design_proposal", "green_type": "greenway_node", "land_use_code": "1402"}, "geometry": {"type": "Polygon", "coordinates": [[[116.342, 39.99017], [116.353, 39.99017], [116.353, 39.9935], [116.342, 39.9935], [116.342, 39.99017]]]}}, {"type": "Feature", "id": "GR-AIYD-S", "properties": {"id": "GR-AIYD-S", "layer": "GREEN_SPACE", "source_type": "agent_generated_design", "confidence": "medium", "geometry_role": "design_proposal", "green_type": "greenway_node", "land_use_code": "1402"}, "geometry": {"type": "Polygon", "coordinates": [[[116.342, 39.9835], [116.353, 39.9835], [116.353, 39.98683], [116.342, 39.98683], [116.342, 39.9835]]]}}, {"type": "Feature", "id": "GR-DZS-SPINE", "properties": {"id": "GR-DZS-SPINE", "layer": "GREEN_SPACE", "source_type": "agent_generated_design", "confidence": "medium", "geometry_role": "design_proposal", "green_type": "heritage_park_spine", "land_use_code": "1401", "name_zh": "大钟寺产业核·京张绿脊"}, "geometry": {"type": "Polygon", "coordinates": [[[116.3463, 39.944], [116.3507, 39.944], [116.3507, 39.94984], [116.3463, 39.94984], [116.3463, 39.944]]]}}, {"type": "Feature", "id": "GR-DZS-N", "properties": {"id": "GR-DZS-N", "layer": "GREEN_SPACE", "source_type": "agent_generated_design", "confidence": "medium", "geometry_role": "design_proposal", "green_type": "greenway_node", "land_use_code": "1402"}, "geometry": {"type": "Polygon", "coordinates": [[[116.342, 39.9479], [116.355, 39.9479], [116.355, 39.94984], [116.342, 39.94984], [116.342, 39.9479]]]}}, {"type": "Feature", "id": "GR-DZS-S", "properties": {"id": "GR-DZS-S", "layer": "GREEN_SPACE", "source_type": "agent_generated_design", "confidence": "medium", "geometry_role": "design_proposal", "green_type": "greenway_node", "land_use_code": "1402"}, "geometry": {"type": "Polygon", "coordinates": [[[116.342, 39.944], [116.355, 39.944], [116.355, 39.94595], [116.342, 39.94595], [116.342, 39.944]]]}}]}