{"type": "FeatureCollection", "name": "land_use", "features": [{"type": "Feature", "id": "LU-001", "properties": {"id": "LU-001", "layer": "LAND_USE", "source_type": "agent_generated_design", "confidence": "medium", "geometry_role": "design_proposal", "land_use_code": "1207", "land_use_label_zh": "城镇村道路用地"}, "geometry": {"type": "Polygon", "coordinates": [[[116.3397, 39.939], [116.34192857142857, 39.939], [116.34192857142857, 39.94775], [116.3397, 39.94775], [116.3397, 39.939]]]}}, {"type": "Feature", "id": "LU-002", "properties": {"id": "LU-002", "layer": "LAND_USE", "source_type": "agent_generated_design", "confidence": "medium", "geometry_role": "design_proposal", "land_use_code": "05", "land_use_label_zh": "商业服务业用地"}, "geometry": {"type": "Polygon", "coordinates": [[[116.34192857142857, 39.939], [116.34415714285714, 39.939], [116.34415714285714, 39.94775], [116.34192857142857, 39.94775], [116.34192857142857, 39.939]]]}}, {"type": "Feature", "id": "LU-003", "properties": {"id": "LU-003", "layer": "LAND_USE", "source_type": "agent_generated_design", "confidence": "medium", "geometry_role": "design_proposal", "land_use_code": "05", "land_use_label_zh": "商业服务业用地"}, "geometry": {"type": "Polygon", "coordinates": [[[116.34415714285714, 39.939], [116.34638571428572, 39.939], [116.34638571428572, 39.94775], [116.34415714285714, 39.94775], [116.34415714285714, 39.939]]]}}, {"type": "Feature", "id": "LU-004", "properties": {"id": "LU-004", "layer": "LAND_USE", "source_type": "agent_generated_design", "confidence": "medium", "geometry_role": "design_proposal", "land_use_code": "1401", "land_use_label_zh": "公园绿地"}, "geometry": {"type": "Polygon", "coordinates": [[[116.34638571428572, 39.939], [116.34861428571428, 39.939], [116.34861428571428, 39.94775], [116.34638571428572, 39.94775], [116.34638571428572, 39.939]]]}}, {"type": "Feature", "id": "LU-005", "properties": {"id": "LU-005", "layer": "LAND_USE", "source_type": "agent_generated_design", "confidence": "medium", "geometry_role": "design_proposal", "land_use_code": "05", "land_use_label_zh": "商业服务业用地"}, "geometry": {"type": "Polygon", "coordinates": [[[116.34861428571428, 39.939], [116.35084285714285, 39.939], [116.35084285714285, 39.94775], [116.34861428571428, 39.94775], [116.34861428571428, 39.939]]]}}, {"type": "Feature", "id": "LU-006", "properties": {"id": "LU-006", "layer": "LAND_USE", "source_type": "agent_generated_design", "confidence": "medium", "geometry_role": "design_proposal", "land_use_code": "05", "land_use_label_zh": "商业服务业用地"}, "geometry": {"type": "Polygon", "coordinates": [[[116.35084285714285, 39.939], [116.35307142857143, 39.939], [116.35307142857143, 39.94775], [116.35084285714285, 39.94775], [116.35084285714285, 39.939]]]}}, {"type": "Feature", "id": "LU-007", "properties": {"id": "LU-007", "layer": "LAND_USE", "source_type": "agent_generated_design", "confidence": "medium", "geometry_role": "design_proposal", "land_use_code": "1207", "land_use_label_zh": "城镇村道路用地"}, "geometry": {"type": "Polygon", "coordinates": [[[116.35307142857143, 39.939], [116.3553, 39.939], [116.3553, 39.94775], [116.35307142857143, 39.94775], [116.35307142857143, 39.939]]]}}, {"type": "Feature", "id": "LU-008", "properties": {"id": "LU-008", "layer": "LAND_USE", "source_type": "agent_generated_design", "confidence": "medium", "geometry_role": "design_proposal", "land_use_code": "1207", "land_use_label_zh": "城镇村道路用地"}, "geometry": {"type": "Polygon", "coordinates": [[[116.3397, 39.94775], [116.34192857142857, 39.94775], [116.34192857142857, 39.9565], [116.3397, 39.9565], [116.3397, 39.94775]]]}}, {"type": "Feature", "id": "LU-009", "properties": {"id": "LU-009", "layer": "LAND_USE", "source_type": "agent_generated_design", "confidence": "medium", "geometry_role": "design_proposal", "land_use_code": "0701", "land_use_label_zh": "城镇住宅用地（人才社区）"}, "geometry": {"type": "Polygon", "coordinates": [[[116.34192857142857, 39.94775], [116.34415714285714, 39.94775], [116.34415714285714, 39.9565], [116.34192857142857, 39.9565], [116.34192857142857, 39.94775]]]}}, {"type": "Feature", "id": "LU-010", "properties": {"id": "LU-010", "layer": "LAND_USE", "source_type": "agent_generated_design", "confidence": "medium", "geometry_role": "design_proposal", "land_use_code": "0701", "land_use_label_zh": "城镇住宅用地（人才社区）"}, "geometry": {"type": "Polygon", "coordinates": [[[116.34415714285714, 39.94775], [116.34638571428572, 39.94775], [116.34638571428572, 39.9565], [116.34415714285714, 39.9565], [116.34415714285714, 39.94775]]]}}, {"type": "Feature", "id": "LU-011", "properties": {"id": "LU-011", "layer": "LAND_USE", "source_type": "agent_generated_design", "confidence": "medium", "geometry_role": "design_proposal", "land_use_code": "1401", "land_use_label_zh": "公园绿地"}, "geometry": {"type": "Polygon", "coordinates": [[[116.34638571428572, 39.94775], [116.34861428571428, 39.94775], [116.34861428571428, 39.9565], [116.34638571428572, 39.9565], [116.34638571428572, 39.94775]]]}}, {"type": "Feature", "id": "LU-012", "properties": {"id": "LU-012", "layer": "LAND_USE", "source_type": "agent_generated_design", "confidence": "medium", "geometry_role": "design_proposal", "land_use_code": "0701", "land_use_label_zh": "城镇住宅用地（人才社区）"}, "geometry": {"type": "Polygon", "coordinates": [[[116.34861428571428, 39.94775], [116.35084285714285, 39.94775], [116.35084285714285, 39.9565], [116.34861428571428, 39.9565], [116.34861428571428, 39.94775]]]}}, {"type": "Feature", "id": "LU-013", "properties": {"id": "LU-013", "layer": "LAND_USE", "source_type": "agent_generated_design", "confidence": "medium", "geometry_role": "design_proposal", "land_use_code": "0701", "land_use_label_zh": "城镇住宅用地（人才社区）"}, "geometry": {"type": "Polygon", "coordinates": [[[116.35084285714285, 39.94775], [116.35307142857143, 39.94775], [116.35307142857143, 39.9565], [116.35084285714285, 39.9565], [116.35084285714285, 39.94775]]]}}, {"type": "Feature", "id": "LU-014", "properties": {"id": "LU-014", "layer": "LAND_USE", "source_type": "agent_generated_design", "confidence": "medium", "geometry_role": "design_proposal", "land_use_code": "1207", "land_use_label_zh": "城镇村道路用地"}, "geometry": {"type": "Polygon", "coordinates": [[[116.35307142857143, 39.94775], [116.3553, 39.94775], [116.3553, 39.9565], [116.35307142857143, 39.9565], [116.35307142857143, 39.94775]]]}}, {"type": "Feature", "id": "LU-015", "properties": {"id": "LU-015", "layer": "LAND_USE", "source_type": "agent_generated_design", "confidence": "medium", "geometry_role": "design_proposal", "land_use_code": "1207", "land_use_label_zh": "城镇村道路用地"}, "geometry": {"type": "Polygon", "coordinates": [[[116.3397, 39.9565], [116.34192857142857, 39.9565], [116.34192857142857, 39.96525], [116.3397, 39.96525], [116.3397, 39.9565]]]}}, {"type": "Feature", "id": "LU-016", "properties": {"id": "LU-016", "layer": "LAND_USE", "source_type": "agent_generated_design", "confidence": "medium", "geometry_role": "design_proposal", "land_use_code": "0701", "land_use_label_zh": "城镇住宅用地（人才社区）"}, "geometry": {"type": "Polygon", "coordinates": [[[116.34192857142857, 39.9565], [116.34415714285714, 39.9565], [116.34415714285714, 39.96525], [116.34192857142857, 39.96525], [116.34192857142857, 39.9565]]]}}, {"type": "Feature", "id": "LU-017", "properties": {"id": "LU-017", "layer": "LAND_USE", "source_type": "agent_generated_design", "confidence": "medium", "geometry_role": "design_proposal", "land_use_code": "0701", "land_use_label_zh": "城镇住宅用地（人才社区）"}, "geometry": {"type": "Polygon", "coordinates": [[[116.34415714285714, 39.9565], [116.34638571428572, 39.9565], [116.34638571428572, 39.96525], [116.34415714285714, 39.96525], [116.34415714285714, 39.9565]]]}}, {"type": "Feature", "id": "LU-018", "properties": {"id": "LU-018", "layer": "LAND_USE", "source_type": "agent_generated_design", "confidence": "medium", "geometry_role": "design_proposal", "land_use_code": "1401", "land_use_label_zh": "公园绿地"}, "geometry": {"type": "Polygon", "coordinates": [[[116.34638571428572, 39.9565], [116.34861428571428, 39.9565], [116.34861428571428, 39.96525], [116.34638571428572, 39.96525], [116.34638571428572, 39.9565]]]}}, {"type": "Feature", "id": "LU-019", "properties": {"id": "LU-019", "layer": "LAND_USE", "source_type": "agent_generated_design", "confidence": "medium", "geometry_role": "design_proposal", "land_use_code": "0701", "land_use_label_zh": "城镇住宅用地（人才社区）"}, "geometry": {"type": "Polygon", "coordinates": [[[116.34861428571428, 39.9565], [116.35084285714285, 39.9565], [116.35084285714285, 39.96525], [116.34861428571428, 39.96525], [116.34861428571428, 39.9565]]]}}, {"type": "Feature", "id": "LU-020", "properties": {"id": "LU-020", "layer": "LAND_USE", "source_type": "agent_generated_design", "confidence": "medium", "geometry_role": "design_proposal", "land_use_code": "0701", "land_use_label_zh": "城镇住宅用地（人才社区）"}, "geometry": {"type": "Polygon", "coordinates": [[[116.35084285714285, 39.9565], [116.35307142857143, 39.9565], [116.35307142857143, 39.96525], [116.35084285714285, 39.96525], [116.35084285714285, 39.9565]]]}}, {"type": "Feature", "id": "LU-021", "properties": {"id": "LU-021", "layer": "LAND_USE", "source_type": "agent_generated_design", "confidence": "medium", "geometry_role": "design_proposal", "land_use_code": "1207", "land_use_label_zh": "城镇村道路用地"}, "geometry": {"type": "Polygon", "coordinates": [[[116.35307142857143, 39.9565], [116.3553, 39.9565], [116.3553, 39.96525], [116.35307142857143, 39.96525], [116.35307142857143, 39.9565]]]}}, {"type": "Feature", "id": "LU-022", "properties": {"id": "LU-022", "layer": "LAND_USE", "source_type": "agent_generated_design", "confidence": "medium", "geometry_role": "design_proposal", "land_use_code": "1207", "land_use_label_zh": "城镇村道路用地"}, "geometry": {"type": "Polygon", "coordinates": [[[116.3397, 39.96525], [116.34192857142857, 39.96525], [116.34192857142857, 39.974], [116.3397, 39.974], [116.3397, 39.96525]]]}}, {"type": "Feature", "id": "LU-023", "properties": {"id": "LU-023", "layer": "LAND_USE", "source_type": "agent_generated_design", "confidence": "medium", "geometry_role": "design_proposal", "land_use_code": "0701", "land_use_label_zh": "城镇住宅用地（人才社区）"}, "geometry": {"type": "Polygon", "coordinates": [[[116.34192857142857, 39.96525], [116.34415714285714, 39.96525], [116.34415714285714, 39.974], [116.34192857142857, 39.974], [116.34192857142857, 39.96525]]]}}, {"type": "Feature", "id": "LU-024", "properties": {"id": "LU-024", "layer": "LAND_USE", "source_type": "agent_generated_design", "confidence": "medium", "geometry_role": "design_proposal", "land_use_code": "0701", "land_use_label_zh": "城镇住宅用地（人才社区）"}, "geometry": {"type": "Polygon", "coordinates": [[[116.34415714285714, 39.96525], [116.34638571428572, 39.96525], [116.34638571428572, 39.974], [116.34415714285714, 39.974], [116.34415714285714, 39.96525]]]}}, {"type": "Feature", "id": "LU-025", "properties": {"id": "LU-025", "layer": "LAND_USE", "source_type": "agent_generated_design", "confidence": "medium", "geometry_role": "design_proposal", "land_use_code": "1401", "land_use_label_zh": "公园绿地"}, "geometry": {"type": "Polygon", "coordinates": [[[116.34638571428572, 39.96525], [116.34861428571428, 39.96525], [116.34861428571428, 39.974], [116.34638571428572, 39.974], [116.34638571428572, 39.96525]]]}}, {"type": "Feature", "id": "LU-026", "properties": {"id": "LU-026", "layer": "LAND_USE", "source_type": "agent_generated_design", "confidence": "medium", "geometry_role": "design_proposal", "land_use_code": "0701", "land_use_label_zh": "城镇住宅用地（人才社区）"}, "geometry": {"type": "Polygon", "coordinates": [[[116.34861428571428, 39.96525], [116.35084285714285, 39.96525], [116.35084285714285, 39.974], [116.34861428571428, 39.974], [116.34861428571428, 39.96525]]]}}, {"type": "Feature", "id": "LU-027", "properties": {"id": "LU-027", "layer": "LAND_USE", "source_type": "agent_generated_design", "confidence": "medium", "geometry_role": "design_proposal", "land_use_code": "0701", "land_use_label_zh": "城镇住宅用地（人才社区）"}, "geometry": {"type": "Polygon", "coordinates": [[[116.35084285714285, 39.96525], [116.35307142857143, 39.96525], [116.35307142857143, 39.974], [116.35084285714285, 39.974], [116.35084285714285, 39.96525]]]}}, {"type": "Feature", "id": "LU-028", "properties": {"id": "LU-028", "layer": "LAND_USE", "source_type": "agent_generated_design", "confidence": "medium", "geometry_role": "design_proposal", "land_use_code": "1207", "land_use_label_zh": "城镇村道路用地"}, "geometry": {"type": "Polygon", "coordinates": [[[116.35307142857143, 39.96525], [116.3553, 39.96525], [116.3553, 39.974], [116.35307142857143, 39.974], [116.35307142857143, 39.96525]]]}}, {"type": "Feature", "id": "LU-029", "properties": {"id": "LU-029", "layer": "LAND_USE", "source_type": "agent_generated_design", "confidence": "medium", "geometry_role": "design_proposal", "land_use_code": "1207", "land_use_label_zh": "城镇村道路用地"}, "geometry": {"type": "Polygon", "coordinates": [[[116.3397, 39.974], [116.34192857142857, 39.974], [116.34192857142857, 39.982749999999996], [116.3397, 39.982749999999996], [116.3397, 39.974]]]}}, {"type": "Feature", "id": "LU-030", "properties": {"id": "LU-030", "layer": "LAND_USE", "source_type": "agent_generated_design", "confidence": "medium", "geometry_role": "design_proposal", "land_use_code": "0804", "land_use_label_zh": "教育用地"}, "geometry": {"type": "Polygon", "coordinates": [[[116.34192857142857, 39.974], [116.34415714285714, 39.974], [116.34415714285714, 39.982749999999996], [116.34192857142857, 39.982749999999996], [116.34192857142857, 39.974]]]}}, {"type": "Feature", "id": "LU-031", "properties": {"id": "LU-031", "layer": "LAND_USE", "source_type": "agent_generated_design", "confidence": "medium", "geometry_role": "design_proposal", "land_use_code": "0804", "land_use_label_zh": "教育用地"}, "geometry": {"type": "Polygon", "coordinates": [[[116.34415714285714, 39.974], [116.34638571428572, 39.974], [116.34638571428572, 39.982749999999996], [116.34415714285714, 39.982749999999996], [116.34415714285714, 39.974]]]}}, {"type": "Feature", "id": "LU-032", "properties": {"id": "LU-032", "layer": "LAND_USE", "source_type": "agent_generated_design", "confidence": "medium", "geometry_role": "design_proposal", "land_use_code": "1401", "land_use_label_zh": "公园绿地"}, "geometry": {"type": "Polygon", "coordinates": [[[116.34638571428572, 39.974], [116.34861428571428, 39.974], [116.34861428571428, 39.982749999999996], [116.34638571428572, 39.982749999999996], [116.34638571428572, 39.974]]]}}, {"type": "Feature", "id": "LU-033", "properties": {"id": "LU-033", "layer": "LAND_USE", "source_type": "agent_generated_design", "confidence": "medium", "geometry_role": "design_proposal", "land_use_code": "0804", "land_use_label_zh": "教育用地"}, "geometry": {"type": "Polygon", "coordinates": [[[116.34861428571428, 39.974], [116.35084285714285, 39.974], [116.35084285714285, 39.982749999999996], [116.34861428571428, 39.982749999999996], [116.34861428571428, 39.974]]]}}, {"type": "Feature", "id": "LU-034", "properties": {"id": "LU-034", "layer": "LAND_USE", "source_type": "agent_generated_design", "confidence": "medium", "geometry_role": "design_proposal", "land_use_code": "0804", "land_use_label_zh": "教育用地"}, "geometry": {"type": "Polygon", "coordinates": [[[116.35084285714285, 39.974], [116.35307142857143, 39.974], [116.35307142857143, 39.982749999999996], [116.35084285714285, 39.982749999999996], [116.35084285714285, 39.974]]]}}, {"type": "Feature", "id": "LU-035", "properties": {"id": "LU-035", "layer": "LAND_USE", "source_type": "agent_generated_design", "confidence": "medium", "geometry_role": "design_proposal", "land_use_code": "1207", "land_use_label_zh": "城镇村道路用地"}, "geometry": {"type": "Polygon", "coordinates": [[[116.35307142857143, 39.974], [116.3553, 39.974], [116.3553, 39.982749999999996], [116.35307142857143, 39.982749999999996], [116.35307142857143, 39.974]]]}}, {"type": "Feature", "id": "LU-036", "properties": {"id": "LU-036", "layer": "LAND_USE", "source_type": "agent_generated_design", "confidence": "medium", "geometry_role": "design_proposal", "land_use_code": "1207", "land_use_label_zh": "城镇村道路用地"}, "geometry": {"type": "Polygon", "coordinates": [[[116.3397, 39.982749999999996], [116.34192857142857, 39.982749999999996], [116.34192857142857, 39.9915], [116.3397, 39.9915], [116.3397, 39.982749999999996]]]}}, {"type": "Feature", "id": "LU-037", "properties": {"id": "LU-037", "layer": "LAND_USE", "source_type": "agent_generated_design", "confidence": "medium", "geometry_role": "design_proposal", "land_use_code": "0702", "land_use_label_zh": "城镇社区服务设施用地"}, "geometry": {"type": "Polygon", "coordinates": [[[116.34192857142857, 39.982749999999996], [116.34415714285714, 39.982749999999996], [116.34415714285714, 39.9915], [116.34192857142857, 39.9915], [116.34192857142857, 39.982749999999996]]]}}, {"type": "Feature", "id": "LU-038", "properties": {"id": "LU-038", "layer": "LAND_USE", "source_type": "agent_generated_design", "confidence": "medium", "geometry_role": "design_proposal", "land_use_code": "0702", "land_use_label_zh": "城镇社区服务设施用地"}, "geometry": {"type": "Polygon", "coordinates": [[[116.34415714285714, 39.982749999999996], [116.34638571428572, 39.982749999999996], [116.34638571428572, 39.9915], [116.34415714285714, 39.9915], [116.34415714285714, 39.982749999999996]]]}}, {"type": "Feature", "id": "LU-039", "properties": {"id": "LU-039", "layer": "LAND_USE", "source_type": "agent_generated_design", "confidence": "medium", "geometry_role": "design_proposal", "land_use_code": "1401", "land_use_label_zh": "公园绿地"}, "geometry": {"type": "Polygon", "coordinates": [[[116.34638571428572, 39.982749999999996], [116.34861428571428, 39.982749999999996], [116.34861428571428, 39.9915], [116.34638571428572, 39.9915], [116.34638571428572, 39.982749999999996]]]}}, {"type": "Feature", "id": "LU-040", "properties": {"id": "LU-040", "layer": "LAND_USE", "source_type": "agent_generated_design", "confidence": "medium", "geometry_role": "design_proposal", "land_use_code": "0804", "land_use_label_zh": "教育用地"}, "geometry": {"type": "Polygon", "coordinates": [[[116.34861428571428, 39.982749999999996], [116.35084285714285, 39.982749999999996], [116.35084285714285, 39.9915], [116.34861428571428, 39.9915], [116.34861428571428, 39.982749999999996]]]}}, {"type": "Feature", "id": "LU-041", "properties": {"id": "LU-041", "layer": "LAND_USE", "source_type": "agent_generated_design", "confidence": "medium", "geometry_role": "design_proposal", "land_use_code": "0804", "land_use_label_zh": "教育用地"}, "geometry": {"type": "Polygon", "coordinates": [[[116.35084285714285, 39.982749999999996], [116.35307142857143, 39.982749999999996], [116.35307142857143, 39.9915], [116.35084285714285, 39.9915], [116.35084285714285, 39.982749999999996]]]}}, {"type": "Feature", "id": "LU-042", "properties": {"id": "LU-042", "layer": "LAND_USE", "source_type": "agent_generated_design", "confidence": "medium", "geometry_role": "design_proposal", "land_use_code": "1207", "land_use_label_zh": "城镇村道路用地"}, "geometry": {"type": "Polygon", "coordinates": [[[116.35307142857143, 39.982749999999996], [116.3553, 39.982749999999996], [116.3553, 39.9915], [116.35307142857143, 39.9915], [116.35307142857143, 39.982749999999996]]]}}, {"type": "Feature", "id": "LU-043", "properties": {"id": "LU-043", "layer": "LAND_USE", "source_type": "agent_generated_design", "confidence": "medium", "geometry_role": "design_proposal", "land_use_code": "1207", "land_use_label_zh": "城镇村道路用地"}, "geometry": {"type": "Polygon", "coordinates": [[[116.3397, 39.9915], [116.34192857142857, 39.9915], [116.34192857142857, 40.00025], [116.3397, 40.00025], [116.3397, 39.9915]]]}}, {"type": "Feature", "id": "LU-044", "properties": {"id": "LU-044", "layer": "LAND_USE", "source_type": "agent_generated_design", "confidence": "medium", "geometry_role": "design_proposal", "land_use_code": "0701", "land_use_label_zh": "城镇住宅用地（人才社区）"}, "geometry": {"type": "Polygon", "coordinates": [[[116.34192857142857, 39.9915], [116.34415714285714, 39.9915], [116.34415714285714, 40.00025], [116.34192857142857, 40.00025], [116.34192857142857, 39.9915]]]}}, {"type": "Feature", "id": "LU-045", "properties": {"id": "LU-045", "layer": "LAND_USE", "source_type": "agent_generated_design", "confidence": "medium", "geometry_role": "design_proposal", "land_use_code": "0701", "land_use_label_zh": "城镇住宅用地（人才社区）"}, "geometry": {"type": "Polygon", "coordinates": [[[116.34415714285714, 39.9915], [116.34638571428572, 39.9915], [116.34638571428572, 40.00025], [116.34415714285714, 40.00025], [116.34415714285714, 39.9915]]]}}, {"type": "Feature", "id": "LU-046", "properties": {"id": "LU-046", "layer": "LAND_USE", "source_type": "agent_generated_design", "confidence": "medium", "geometry_role": "design_proposal", "land_use_code": "1401", "land_use_label_zh": "公园绿地"}, "geometry": {"type": "Polygon", "coordinates": [[[116.34638571428572, 39.9915], [116.34861428571428, 39.9915], [116.34861428571428, 40.00025], [116.34638571428572, 40.00025], [116.34638571428572, 39.9915]]]}}, {"type": "Feature", "id": "LU-047", "properties": {"id": "LU-047", "layer": "LAND_USE", "source_type": "agent_generated_design", "confidence": "medium", "geometry_role": "design_proposal", "land_use_code": "0701", "land_use_label_zh": "城镇住宅用地（人才社区）"}, "geometry": {"type": "Polygon", "coordinates": [[[116.34861428571428, 39.9915], [116.35084285714285, 39.9915], [116.35084285714285, 40.00025], [116.34861428571428, 40.00025], [116.34861428571428, 39.9915]]]}}, {"type": "Feature", "id": "LU-048", "properties": {"id": "LU-048", "layer": "LAND_USE", "source_type": "agent_generated_design", "confidence": "medium", "geometry_role": "design_proposal", "land_use_code": "0701", "land_use_label_zh": "城镇住宅用地（人才社区）"}, "geometry": {"type": "Polygon", "coordinates": [[[116.35084285714285, 39.9915], [116.35307142857143, 39.9915], [116.35307142857143, 40.00025], [116.35084285714285, 40.00025], [116.35084285714285, 39.9915]]]}}, {"type": "Feature", "id": "LU-049", "properties": {"id": "LU-049", "layer": "LAND_USE", "source_type": "agent_generated_design", "confidence": "medium", "geometry_role": "design_proposal", "land_use_code": "1207", "land_use_label_zh": "城镇村道路用地"}, "geometry": {"type": "Polygon", "coordinates": [[[116.35307142857143, 39.9915], [116.3553, 39.9915], [116.3553, 40.00025], [116.35307142857143, 40.00025], [116.35307142857143, 39.9915]]]}}, {"type": "Feature", "id": "LU-050", "properties": {"id": "LU-050", "layer": "LAND_USE", "source_type": "agent_generated_design", "confidence": "medium", "geometry_role": "design_proposal", "land_use_code": "1207", "land_use_label_zh": "城镇村道路用地"}, "geometry": {"type": "Polygon", "coordinates": [[[116.3397, 40.00025], [116.34192857142857, 40.00025], [116.34192857142857, 40.009], [116.3397, 40.009], [116.3397, 40.00025]]]}}, {"type": "Feature", "id": "LU-051", "properties": {"id": "LU-051", "layer": "LAND_USE", "source_type": "agent_generated_design", "confidence": "medium", "geometry_role": "design_proposal", "land_use_code": "0701", "land_use_label_zh": "城镇住宅用地（人才社区）"}, "geometry": {"type": "Polygon", "coordinates": [[[116.34192857142857, 40.00025], [116.34415714285714, 40.00025], [116.34415714285714, 40.009], [116.34192857142857, 40.009], [116.34192857142857, 40.00025]]]}}, {"type": "Feature", "id": "LU-052", "properties": {"id": "LU-052", "layer": "LAND_USE", "source_type": "agent_generated_design", "confidence": "medium", "geometry_role": "design_proposal", "land_use_code": "0701", "land_use_label_zh": "城镇住宅用地（人才社区）"}, "geometry": {"type": "Polygon", "coordinates": [[[116.34415714285714, 40.00025], [116.34638571428572, 40.00025], [116.34638571428572, 40.009], [116.34415714285714, 40.009], [116.34415714285714, 40.00025]]]}}, {"type": "Feature", "id": "LU-053", "properties": {"id": "LU-053", "layer": "LAND_USE", "source_type": "agent_generated_design", "confidence": "medium", "geometry_role": "design_proposal", "land_use_code": "1401", "land_use_label_zh": "公园绿地"}, "geometry": {"type": "Polygon", "coordinates": [[[116.34638571428572, 40.00025], [116.34861428571428, 40.00025], [116.34861428571428, 40.009], [116.34638571428572, 40.009], [116.34638571428572, 40.00025]]]}}, {"type": "Feature", "id": "LU-054", "properties": {"id": "LU-054", "layer": "LAND_USE", "source_type": "agent_generated_design", "confidence": "medium", "geometry_role": "design_proposal", "land_use_code": "0701", "land_use_label_zh": "城镇住宅用地（人才社区）"}, "geometry": {"type": "Polygon", "coordinates": [[[116.34861428571428, 40.00025], [116.35084285714285, 40.00025], [116.35084285714285, 40.009], [116.34861428571428, 40.009], [116.34861428571428, 40.00025]]]}}, {"type": "Feature", "id": "LU-055", "properties": {"id": "LU-055", "layer": "LAND_USE", "source_type": "agent_generated_design", "confidence": "medium", "geometry_role": "design_proposal", "land_use_code": "0701", "land_use_label_zh": "城镇住宅用地（人才社区）"}, "geometry": {"type": "Polygon", "coordinates": [[[116.35084285714285, 40.00025], [116.35307142857143, 40.00025], [116.35307142857143, 40.009], [116.35084285714285, 40.009], [116.35084285714285, 40.00025]]]}}, {"type": "Feature", "id": "LU-056", "properties": {"id": "LU-056", "layer": "LAND_USE", "source_type": "agent_generated_design", "confidence": "medium", "geometry_role": "design_proposal", "land_use_code": "1207", "land_use_label_zh": "城镇村道路用地"}, "geometry": {"type": "Polygon", "coordinates": [[[116.35307142857143, 40.00025], [116.3553, 40.00025], [116.3553, 40.009], [116.35307142857143, 40.009], [116.35307142857143, 40.00025]]]}}, {"type": "Feature", "id": "LU-057", "properties": {"id": "LU-057", "layer": "LAND_USE", "source_type": "agent_generated_design", "confidence": "medium", "geometry_role": "design_proposal", "land_use_code": "1207", "land_use_label_zh": "城镇村道路用地"}, "geometry": {"type": "Polygon", "coordinates": [[[116.3397, 40.009], [116.34192857142857, 40.009], [116.34192857142857, 40.01775], [116.3397, 40.01775], [116.3397, 40.009]]]}}, {"type": "Feature", "id": "LU-058", "properties": {"id": "LU-058", "layer": "LAND_USE", "source_type": "agent_generated_design", "confidence": "medium", "geometry_role": "design_proposal", "land_use_code": "0802", "land_use_label_zh": "科研用地"}, "geometry": {"type": "Polygon", "coordinates": [[[116.34192857142857, 40.009], [116.34415714285714, 40.009], [116.34415714285714, 40.01775], [116.34192857142857, 40.01775], [116.34192857142857, 40.009]]]}}, {"type": "Feature", "id": "LU-059", "properties": {"id": "LU-059", "layer": "LAND_USE", "source_type": "agent_generated_design", "confidence": "medium", "geometry_role": "design_proposal", "land_use_code": "0802", "land_use_label_zh": "科研用地"}, "geometry": {"type": "Polygon", "coordinates": [[[116.34415714285714, 40.009], [116.34638571428572, 40.009], [116.34638571428572, 40.01775], [116.34415714285714, 40.01775], [116.34415714285714, 40.009]]]}}, {"type": "Feature", "id": "LU-060", "properties": {"id": "LU-060", "layer": "LAND_USE", "source_type": "agent_generated_design", "confidence": "medium", "geometry_role": "design_proposal", "land_use_code": "1401", "land_use_label_zh": "公园绿地"}, "geometry": {"type": "Polygon", "coordinates": [[[116.34638571428572, 40.009], [116.34861428571428, 40.009], [116.34861428571428, 40.01775], [116.34638571428572, 40.01775], [116.34638571428572, 40.009]]]}}, {"type": "Feature", "id": "LU-061", "properties": {"id": "LU-061", "layer": "LAND_USE", "source_type": "agent_generated_design", "confidence": "medium", "geometry_role": "design_proposal", "land_use_code": "1401", "land_use_label_zh": "公园绿地"}, "geometry": {"type": "Polygon", "coordinates": [[[116.34861428571428, 40.009], [116.35084285714285, 40.009], [116.35084285714285, 40.01775], [116.34861428571428, 40.01775], [116.34861428571428, 40.009]]]}}, {"type": "Feature", "id": "LU-062", "properties": {"id": "LU-062", "layer": "LAND_USE", "source_type": "agent_generated_design", "confidence": "medium", "geometry_role": "design_proposal", "land_use_code": "05", "land_use_label_zh": "商业服务业用地"}, "geometry": {"type": "Polygon", "coordinates": [[[116.35084285714285, 40.009], [116.35307142857143, 40.009], [116.35307142857143, 40.01775], [116.35084285714285, 40.01775], [116.35084285714285, 40.009]]]}}, {"type": "Feature", "id": "LU-063", "properties": {"id": "LU-063", "layer": "LAND_USE", "source_type": "agent_generated_design", "confidence": "medium", "geometry_role": "design_proposal", "land_use_code": "1207", "land_use_label_zh": "城镇村道路用地"}, "geometry": {"type": "Polygon", "coordinates": [[[116.35307142857143, 40.009], [116.3553, 40.009], [116.3553, 40.01775], [116.35307142857143, 40.01775], [116.35307142857143, 40.009]]]}}, {"type": "Feature", "id": "LU-064", "properties": {"id": "LU-064", "layer": "LAND_USE", "source_type": "agent_generated_design", "confidence": "medium", "geometry_role": "design_proposal", "land_use_code": "0701", "land_use_label_zh": "城镇住宅用地（人才社区）"}, "geometry": {"type": "Polygon", "coordinates": [[[116.34192857142857, 40.01775], [116.34415714285714, 40.01775], [116.34415714285714, 40.0265], [116.34192857142857, 40.0265], [116.34192857142857, 40.01775]]]}}, {"type": "Feature", "id": "LU-065", "properties": {"id": "LU-065", "layer": "LAND_USE", "source_type": "agent_generated_design", "confidence": "medium", "geometry_role": "design_proposal", "land_use_code": "0701", "land_use_label_zh": "城镇住宅用地（人才社区）"}, "geometry": {"type": "Polygon", "coordinates": [[[116.34415714285714, 40.01775], [116.34638571428572, 40.01775], [116.34638571428572, 40.0265], [116.34415714285714, 40.0265], [116.34415714285714, 40.01775]]]}}, {"type": "Feature", "id": "LU-066", "properties": {"id": "LU-066", "layer": "LAND_USE", "source_type": "agent_generated_design", "confidence": "medium", "geometry_role": "design_proposal", "land_use_code": "1401", "land_use_label_zh": "公园绿地"}, "geometry": {"type": "Polygon", "coordinates": [[[116.34638571428572, 40.01775], [116.34861428571428, 40.01775], [116.34861428571428, 40.0265], [116.34638571428572, 40.0265], [116.34638571428572, 40.01775]]]}}, {"type": "Feature", "id": "LU-067", "properties": {"id": "LU-067", "layer": "LAND_USE", "source_type": "agent_generated_design", "confidence": "medium", "geometry_role": "design_proposal", "land_use_code": "1401", "land_use_label_zh": "公园绿地"}, "geometry": {"type": "Polygon", "coordinates": [[[116.34861428571428, 40.01775], [116.35084285714285, 40.01775], [116.35084285714285, 40.0265], [116.34861428571428, 40.0265], [116.34861428571428, 40.01775]]]}}, {"type": "Feature", "id": "LU-068", "properties": {"id": "LU-068", "layer": "LAND_USE", "source_type": "agent_generated_design", "confidence": "medium", "geometry_role": "design_proposal", "land_use_code": "0803", "land_use_label_zh": "文化用地"}, "geometry": {"type": "Polygon", "coordinates": [[[116.35084285714285, 40.01775], [116.35307142857143, 40.01775], [116.35307142857143, 40.0265], [116.35084285714285, 40.0265], [116.35084285714285, 40.01775]]]}}, {"type": "Feature", "id": "LU-069", "properties": {"id": "LU-069", "layer": "LAND_USE", "source_type": "agent_generated_design", "confidence": "medium", "geometry_role": "design_proposal", "land_use_code": "1207", "land_use_label_zh": "城镇村道路用地"}, "geometry": {"type": "Polygon", "coordinates": [[[116.35307142857143, 40.01775], [116.3553, 40.01775], [116.3553, 40.0265], [116.35307142857143, 40.0265], [116.35307142857143, 40.01775]]]}}]}