{
  "type": "FeatureCollection",
  "crs": {
    "type": "name",
    "properties": {
      "name": "urn:ogc:def:crs:EPSG::4326"
    }
  },
  "features": [
    {
      "type": "Feature",
      "id": "LU-001",
      "properties": {
        "id": "LU-001",
        "layer": "LAND_USE",
        "land_use_code": "08",
        "name_zh": "公共管理与公共服务用地",
        "name_en": "Public Administration & Service Land",
        "source_type": "agent_generated_design",
        "confidence": "medium",
        "geometry_role": "design_proposal",
        "area_sqm_declared": 380022.952
      },
      "geometry": {
        "type": "Polygon",
        "coordinates": [
          [
            [
              116.3405,
              39.941
            ],
            [
              116.3455,
              39.941
            ],
            [
              116.3455,
              39.949
            ],
            [
              116.3405,
              39.949
            ],
            [
              116.3405,
              39.941
            ]
          ]
        ]
      }
    },
    {
      "type": "Feature",
      "id": "LU-002",
      "properties": {
        "id": "LU-002",
        "layer": "LAND_USE",
        "land_use_code": "05",
        "name_zh": "商业服务业用地",
        "name_en": "Commercial & Service Land",
        "source_type": "agent_generated_design",
        "confidence": "medium",
        "geometry_role": "design_proposal",
        "area_sqm_declared": 684041.313
      },
      "geometry": {
        "type": "Polygon",
        "coordinates": [
          [
            [
              116.3455,
              39.941
            ],
            [
              116.3545,
              39.941
            ],
            [
              116.3545,
              39.949
            ],
            [
              116.3455,
              39.949
            ],
            [
              116.3455,
              39.941
            ]
          ]
        ]
      }
    },
    {
      "type": "Feature",
      "id": "LU-003",
      "properties": {
        "id": "LU-003",
        "layer": "LAND_USE",
        "land_use_code": "05",
        "name_zh": "商业服务业用地",
        "name_en": "Commercial & Service Land",
        "source_type": "agent_generated_design",
        "confidence": "medium",
        "geometry_role": "design_proposal",
        "area_sqm_declared": 930954.158
      },
      "geometry": {
        "type": "Polygon",
        "coordinates": [
          [
            [
              116.3405,
              39.949
            ],
            [
              116.3545,
              39.949
            ],
            [
              116.3545,
              39.956
            ],
            [
              116.3405,
              39.956
            ],
            [
              116.3405,
              39.949
            ]
          ]
        ]
      }
    },
    {
      "type": "Feature",
      "id": "LU-004",
      "properties": {
        "id": "LU-004",
        "layer": "LAND_USE",
        "land_use_code": "07",
        "name_zh": "居住用地",
        "name_en": "Residential Land",
        "source_type": "agent_generated_design",
        "confidence": "medium",
        "geometry_role": "design_proposal",
        "area_sqm_declared": 664884.611
      },
      "geometry": {
        "type": "Polygon",
        "coordinates": [
          [
            [
              116.3405,
              39.956
            ],
            [
              116.34750000000001,
              39.956
            ],
            [
              116.34750000000001,
              39.966
            ],
            [
              116.3405,
              39.966
            ],
            [
              116.3405,
              39.956
            ]
          ]
        ]
      }
    },
    {
      "type": "Feature",
      "id": "LU-005",
      "properties": {
        "id": "LU-005",
        "layer": "LAND_USE",
        "land_use_code": "05",
        "name_zh": "商业服务业用地",
        "name_en": "Commercial & Service Land",
        "source_type": "agent_generated_design",
        "confidence": "medium",
        "geometry_role": "design_proposal",
        "area_sqm_declared": 664884.611
      },
      "geometry": {
        "type": "Polygon",
        "coordinates": [
          [
            [
              116.34750000000001,
              39.956
            ],
            [
              116.3545,
              39.956
            ],
            [
              116.3545,
              39.966
            ],
            [
              116.34750000000001,
              39.966
            ],
            [
              116.34750000000001,
              39.956
            ]
          ]
        ]
      }
    },
    {
      "type": "Feature",
      "id": "LU-006",
      "properties": {
        "id": "LU-006",
        "layer": "LAND_USE",
        "land_use_code": "07",
        "name_zh": "居住用地",
        "name_en": "Residential Land",
        "source_type": "agent_generated_design",
        "confidence": "medium",
        "geometry_role": "design_proposal",
        "area_sqm_declared": 854714.104
      },
      "geometry": {
        "type": "Polygon",
        "coordinates": [
          [
            [
              116.3405,
              39.966
            ],
            [
              116.348,
              39.966
            ],
            [
              116.348,
              39.978
            ],
            [
              116.3405,
              39.978
            ],
            [
              116.3405,
              39.966
            ]
          ]
        ]
      }
    },
    {
      "type": "Feature",
      "id": "LU-007",
      "properties": {
        "id": "LU-007",
        "layer": "LAND_USE",
        "land_use_code": "08",
        "name_zh": "公共管理与公共服务用地",
        "name_en": "Public Administration & Service Land",
        "source_type": "agent_generated_design",
        "confidence": "medium",
        "geometry_role": "design_proposal",
        "area_sqm_declared": 740752.223
      },
      "geometry": {
        "type": "Polygon",
        "coordinates": [
          [
            [
              116.348,
              39.966
            ],
            [
              116.3545,
              39.966
            ],
            [
              116.3545,
              39.978
            ],
            [
              116.348,
              39.978
            ],
            [
              116.348,
              39.966
            ]
          ]
        ]
      }
    },
    {
      "type": "Feature",
      "id": "LU-008",
      "properties": {
        "id": "LU-008",
        "layer": "LAND_USE",
        "land_use_code": "0802",
        "name_zh": "科研设计用地",
        "name_en": "Research & Design Land",
        "source_type": "agent_generated_design",
        "confidence": "medium",
        "geometry_role": "design_proposal",
        "area_sqm_declared": 740622.156
      },
      "geometry": {
        "type": "Polygon",
        "coordinates": [
          [
            [
              116.3405,
              39.978
            ],
            [
              116.34700000000001,
              39.978
            ],
            [
              116.34700000000001,
              39.99
            ],
            [
              116.3405,
              39.99
            ],
            [
              116.3405,
              39.978
            ]
          ]
        ]
      }
    },
    {
      "type": "Feature",
      "id": "LU-009",
      "properties": {
        "id": "LU-009",
        "layer": "LAND_USE",
        "land_use_code": "14",
        "name_zh": "绿地与开敞空间用地",
        "name_en": "Green Space & Open Space Land",
        "source_type": "agent_generated_design",
        "confidence": "medium",
        "geometry_role": "design_proposal",
        "area_sqm_declared": 854564.026
      },
      "geometry": {
        "type": "Polygon",
        "coordinates": [
          [
            [
              116.34700000000001,
              39.978
            ],
            [
              116.3545,
              39.978
            ],
            [
              116.3545,
              39.99
            ],
            [
              116.34700000000001,
              39.99
            ],
            [
              116.34700000000001,
              39.978
            ]
          ]
        ]
      }
    },
    {
      "type": "Feature",
      "id": "LU-010",
      "properties": {
        "id": "LU-010",
        "layer": "LAND_USE",
        "land_use_code": "0802",
        "name_zh": "科研设计用地",
        "name_en": "Research & Design Land",
        "source_type": "agent_generated_design",
        "confidence": "medium",
        "geometry_role": "design_proposal",
        "area_sqm_declared": 1528429.17
      },
      "geometry": {
        "type": "Polygon",
        "coordinates": [
          [
            [
              116.3405,
              39.99
            ],
            [
              116.352,
              39.99
            ],
            [
              116.352,
              40.004
            ],
            [
              116.3405,
              40.004
            ],
            [
              116.3405,
              39.99
            ]
          ]
        ]
      }
    },
    {
      "type": "Feature",
      "id": "LU-011",
      "properties": {
        "id": "LU-011",
        "layer": "LAND_USE",
        "land_use_code": "1207",
        "name_zh": "道路与交通设施用地",
        "name_en": "Road & Transport Facility Land",
        "source_type": "agent_generated_design",
        "confidence": "medium",
        "geometry_role": "design_proposal",
        "area_sqm_declared": 332267.211
      },
      "geometry": {
        "type": "Polygon",
        "coordinates": [
          [
            [
              116.352,
              39.99
            ],
            [
              116.3545,
              39.99
            ],
            [
              116.3545,
              40.004
            ],
            [
              116.352,
              40.004
            ],
            [
              116.352,
              39.99
            ]
          ]
        ]
      }
    },
    {
      "type": "Feature",
      "id": "LU-012",
      "properties": {
        "id": "LU-012",
        "layer": "LAND_USE",
        "land_use_code": "0802",
        "name_zh": "科研设计用地",
        "name_en": "Research & Design Land",
        "source_type": "agent_generated_design",
        "confidence": "medium",
        "geometry_role": "design_proposal",
        "area_sqm_declared": 1855446.825
      },
      "geometry": {
        "type": "Polygon",
        "coordinates": [
          [
            [
              116.3405,
              40.004
            ],
            [
              116.349,
              40.004
            ],
            [
              116.349,
              40.027
            ],
            [
              116.3405,
              40.027
            ],
            [
              116.3405,
              40.004
            ]
          ]
        ]
      }
    },
    {
      "type": "Feature",
      "id": "LU-013",
      "properties": {
        "id": "LU-013",
        "layer": "LAND_USE",
        "land_use_code": "14",
        "name_zh": "绿地与开敞空间用地",
        "name_en": "Green Space & Open Space Land",
        "source_type": "agent_generated_design",
        "confidence": "medium",
        "geometry_role": "design_proposal",
        "area_sqm_declared": 1200583.24
      },
      "geometry": {
        "type": "Polygon",
        "coordinates": [
          [
            [
              116.349,
              40.004
            ],
            [
              116.3545,
              40.004
            ],
            [
              116.3545,
              40.027
            ],
            [
              116.349,
              40.027
            ],
            [
              116.349,
              40.004
            ]
          ]
        ]
      }
    }
  ]
}
