{
  "type": "FeatureCollection",
  "features": [
    {
      "type": "Feature",
      "id": "PS-001",
      "properties": {
        "layer": "PUBLIC_SPACE",
        "type": "developer_promenade",
        "name_zh": "开发者散步道",
        "capacity": null,
        "source_type": "agent_generated_design",
        "confidence": "medium",
        "geometry_role": "design_proposal",
        "id": "PS-001"
      },
      "geometry": {
        "type": "LineString",
        "coordinates": [
          [
            116.3443,
            39.978
          ],
          [
            116.3442,
            40.01
          ]
        ]
      }
    },
    {
      "type": "Feature",
      "id": "PS-002-01",
      "properties": {
        "layer": "PUBLIC_SPACE",
        "type": "exhibition_gallery",
        "name_zh": "开源成果展示廊（12处）",
        "capacity": null,
        "source_type": "agent_generated_design",
        "confidence": "medium",
        "geometry_role": "design_proposal",
        "id": "PS-002-01"
      },
      "geometry": {
        "type": "Point",
        "coordinates": [
          116.3445,
          39.95
        ]
      }
    },
    {
      "type": "Feature",
      "id": "PS-002-02",
      "properties": {
        "layer": "PUBLIC_SPACE",
        "type": "exhibition_gallery",
        "name_zh": "开源成果展示廊（12处）",
        "capacity": null,
        "source_type": "agent_generated_design",
        "confidence": "medium",
        "geometry_role": "design_proposal",
        "id": "PS-002-02"
      },
      "geometry": {
        "type": "Point",
        "coordinates": [
          116.3445,
          39.955
        ]
      }
    },
    {
      "type": "Feature",
      "id": "PS-002-03",
      "properties": {
        "layer": "PUBLIC_SPACE",
        "type": "exhibition_gallery",
        "name_zh": "开源成果展示廊（12处）",
        "capacity": null,
        "source_type": "agent_generated_design",
        "confidence": "medium",
        "geometry_role": "design_proposal",
        "id": "PS-002-03"
      },
      "geometry": {
        "type": "Point",
        "coordinates": [
          116.3445,
          39.96
        ]
      }
    },
    {
      "type": "Feature",
      "id": "PS-002-04",
      "properties": {
        "layer": "PUBLIC_SPACE",
        "type": "exhibition_gallery",
        "name_zh": "开源成果展示廊（12处）",
        "capacity": null,
        "source_type": "agent_generated_design",
        "confidence": "medium",
        "geometry_role": "design_proposal",
        "id": "PS-002-04"
      },
      "geometry": {
        "type": "Point",
        "coordinates": [
          116.3445,
          39.965
        ]
      }
    },
    {
      "type": "Feature",
      "id": "PS-002-05",
      "properties": {
        "layer": "PUBLIC_SPACE",
        "type": "exhibition_gallery",
        "name_zh": "开源成果展示廊（12处）",
        "capacity": null,
        "source_type": "agent_generated_design",
        "confidence": "medium",
        "geometry_role": "design_proposal",
        "id": "PS-002-05"
      },
      "geometry": {
        "type": "Point",
        "coordinates": [
          116.3445,
          39.97
        ]
      }
    },
    {
      "type": "Feature",
      "id": "PS-002-06",
      "properties": {
        "layer": "PUBLIC_SPACE",
        "type": "exhibition_gallery",
        "name_zh": "开源成果展示廊（12处）",
        "capacity": null,
        "source_type": "agent_generated_design",
        "confidence": "medium",
        "geometry_role": "design_proposal",
        "id": "PS-002-06"
      },
      "geometry": {
        "type": "Point",
        "coordinates": [
          116.3445,
          39.975
        ]
      }
    },
    {
      "type": "Feature",
      "id": "PS-002-07",
      "properties": {
        "layer": "PUBLIC_SPACE",
        "type": "exhibition_gallery",
        "name_zh": "开源成果展示廊（12处）",
        "capacity": null,
        "source_type": "agent_generated_design",
        "confidence": "medium",
        "geometry_role": "design_proposal",
        "id": "PS-002-07"
      },
      "geometry": {
        "type": "Point",
        "coordinates": [
          116.3445,
          39.98
        ]
      }
    },
    {
      "type": "Feature",
      "id": "PS-002-08",
      "properties": {
        "layer": "PUBLIC_SPACE",
        "type": "exhibition_gallery",
        "name_zh": "开源成果展示廊（12处）",
        "capacity": null,
        "source_type": "agent_generated_design",
        "confidence": "medium",
        "geometry_role": "design_proposal",
        "id": "PS-002-08"
      },
      "geometry": {
        "type": "Point",
        "coordinates": [
          116.3445,
          39.985
        ]
      }
    },
    {
      "type": "Feature",
      "id": "PS-002-09",
      "properties": {
        "layer": "PUBLIC_SPACE",
        "type": "exhibition_gallery",
        "name_zh": "开源成果展示廊（12处）",
        "capacity": null,
        "source_type": "agent_generated_design",
        "confidence": "medium",
        "geometry_role": "design_proposal",
        "id": "PS-002-09"
      },
      "geometry": {
        "type": "Point",
        "coordinates": [
          116.3445,
          39.99
        ]
      }
    },
    {
      "type": "Feature",
      "id": "PS-002-10",
      "properties": {
        "layer": "PUBLIC_SPACE",
        "type": "exhibition_gallery",
        "name_zh": "开源成果展示廊（12处）",
        "capacity": null,
        "source_type": "agent_generated_design",
        "confidence": "medium",
        "geometry_role": "design_proposal",
        "id": "PS-002-10"
      },
      "geometry": {
        "type": "Point",
        "coordinates": [
          116.3445,
          39.995
        ]
      }
    },
    {
      "type": "Feature",
      "id": "PS-002-11",
      "properties": {
        "layer": "PUBLIC_SPACE",
        "type": "exhibition_gallery",
        "name_zh": "开源成果展示廊（12处）",
        "capacity": null,
        "source_type": "agent_generated_design",
        "confidence": "medium",
        "geometry_role": "design_proposal",
        "id": "PS-002-11"
      },
      "geometry": {
        "type": "Point",
        "coordinates": [
          116.3445,
          40
        ]
      }
    },
    {
      "type": "Feature",
      "id": "PS-002-12",
      "properties": {
        "layer": "PUBLIC_SPACE",
        "type": "exhibition_gallery",
        "name_zh": "开源成果展示廊（12处）",
        "capacity": null,
        "source_type": "agent_generated_design",
        "confidence": "medium",
        "geometry_role": "design_proposal",
        "id": "PS-002-12"
      },
      "geometry": {
        "type": "Point",
        "coordinates": [
          116.3445,
          40.005
        ]
      }
    },
    {
      "type": "Feature",
      "id": "PS-003-01",
      "properties": {
        "layer": "PUBLIC_SPACE",
        "type": "honor_wall",
        "name_zh": "智能体贡献荣誉墙（3处）",
        "capacity": null,
        "source_type": "agent_generated_design",
        "confidence": "medium",
        "geometry_role": "design_proposal",
        "id": "PS-003-01"
      },
      "geometry": {
        "type": "Point",
        "coordinates": [
          116.3445,
          39.985
        ]
      }
    },
    {
      "type": "Feature",
      "id": "PS-003-02",
      "properties": {
        "layer": "PUBLIC_SPACE",
        "type": "honor_wall",
        "name_zh": "智能体贡献荣誉墙（3处）",
        "capacity": null,
        "source_type": "agent_generated_design",
        "confidence": "medium",
        "geometry_role": "design_proposal",
        "id": "PS-003-02"
      },
      "geometry": {
        "type": "Point",
        "coordinates": [
          116.3444,
          39.995
        ]
      }
    },
    {
      "type": "Feature",
      "id": "PS-003-03",
      "properties": {
        "layer": "PUBLIC_SPACE",
        "type": "honor_wall",
        "name_zh": "智能体贡献荣誉墙（3处）",
        "capacity": null,
        "source_type": "agent_generated_design",
        "confidence": "medium",
        "geometry_role": "design_proposal",
        "id": "PS-003-03"
      },
      "geometry": {
        "type": "Point",
        "coordinates": [
          116.3443,
          40.008
        ]
      }
    },
    {
      "type": "Feature",
      "id": "PS-004",
      "properties": {
        "layer": "PUBLIC_SPACE",
        "type": "developer_plaza",
        "name_zh": "全球开发者广场",
        "capacity": 2000,
        "source_type": "agent_generated_design",
        "confidence": "medium",
        "geometry_role": "design_proposal",
        "id": "PS-004"
      },
      "geometry": {
        "type": "Point",
        "coordinates": [
          116.3445,
          39.945
        ]
      }
    },
    {
      "type": "Feature",
      "id": "PS-005",
      "properties": {
        "layer": "PUBLIC_SPACE",
        "type": "market",
        "name_zh": "AI+生活集市",
        "capacity": null,
        "source_type": "agent_generated_design",
        "confidence": "medium",
        "geometry_role": "design_proposal",
        "id": "PS-005"
      },
      "geometry": {
        "type": "Point",
        "coordinates": [
          116.3455,
          39.965
        ]
      }
    }
  ]
}
