{
  "type": "FeatureCollection",
  "crs": {
    "type": "name",
    "properties": {
      "name": "urn:ogc:def:crs:EPSG::4326"
    }
  },
  "features": [
    {
      "type": "Feature",
      "id": "PROV-SITE-001",
      "properties": {
        "layer": "SITE_BOUNDARY",
        "name_zh": "总体设计范围（临时边界）",
        "name_en": "Overall Design Area (Provisional Boundary)",
        "scope_id": "overall_design_area",
        "scope_level": "overall_design_area",
        "area_sqm": 11400000,
        "area_sqm_calculated": 11432167.638,
        "area_km2": 11.4,
        "official_boundary": false,
        "geometry_role": "provisional_constraint",
        "boundary_precision": "provisional_rough",
        "source_type": "agent_inferred_from_public_data",
        "confidence": "medium",
        "source_id": "DATA-SRC-PROVISIONAL-BOUNDARIES-20260605",
        "derived_from_source_ids": [
          "DATA-SRC-OFFICIAL-ANNOUNCEMENT-20260509"
        ],
        "usage_note": "仅用于 AI agent 生成、展示和临时自检；不得作为 official redline、审批依据或精确面积复算依据。",
        "id": "PROV-SITE-001",
        "area_sqm_declared": 11432167.638
      },
      "geometry": {
        "type": "Polygon",
        "coordinates": [
          [
            [
              116.3405,
              39.941
            ],
            [
              116.3545,
              39.941
            ],
            [
              116.3545,
              40.027
            ],
            [
              116.3405,
              40.027
            ],
            [
              116.3405,
              39.941
            ]
          ]
        ]
      }
    },
    {
      "type": "Feature",
      "id": "PROV-RESEARCH-001",
      "properties": {
        "layer": "SITE_BOUNDARY",
        "name_zh": "统筹研究范围（临时边界）",
        "name_en": "Coordinated Research Area (Provisional Boundary)",
        "scope_id": "coordinated_research_area",
        "scope_level": "coordinated_research_area",
        "area_sqm": 43600000,
        "area_sqm_calculated": 43677716.888,
        "area_km2": 43.6,
        "official_boundary": false,
        "geometry_role": "provisional_constraint",
        "boundary_precision": "provisional_rough",
        "source_type": "agent_inferred_from_public_data",
        "confidence": "medium",
        "source_id": "DATA-SRC-PROVISIONAL-BOUNDARIES-20260605",
        "derived_from_source_ids": [
          "DATA-SRC-OFFICIAL-ANNOUNCEMENT-20260509"
        ],
        "usage_note": "仅用于 AI agent 生成、展示和临时自检；不得作为 official redline、审批依据或精确面积复算依据。",
        "id": "PROV-RESEARCH-001",
        "area_sqm_declared": 43677716.888
      },
      "geometry": {
        "type": "Polygon",
        "coordinates": [
          [
            [
              116.318,
              39.938
            ],
            [
              116.368,
              39.938
            ],
            [
              116.368,
              40.03
            ],
            [
              116.318,
              40.03
            ],
            [
              116.318,
              39.938
            ]
          ]
        ]
      }
    }
  ]
}
