{
  "type": "FeatureCollection",
  "name": "implementation_spatial_register",
  "properties": {
    "schema_version": "1.0.0",
    "status": "provisional_conceptual_reference",
    "purpose": "One cross-reference layer for submitted scenario, project and interface anchors; it is not survey, cadastral, redline, construction or approval data.",
    "source_layers": ["geometry/key_areas.geojson", "visual/assets/implementation_nodes.json", "visual/assets/implementation_register.json"],
    "recalculation_trigger": "Replace all feature geometry and rerender every related board after official boundary, ownership, road, station, fire, accessibility, drainage or survey material is supplied."
  },
  "features": [
    {"type":"Feature","properties":{"id":"JZ-01","kind":"project_anchor","key_area":"PROV-KEY-001","plan_sheet":"assets/figures/key-area-01.png","register_ref":"visual/assets/implementation_register.json#JZ-01","condition":"site-use permission, safety plan and duty staff","exit":"safety event, missing duty staff or maintenance failure","provisional":true},"geometry":{"type":"Point","coordinates":[116.34833044788823,40.01577576523848]}},
    {"type":"Feature","properties":{"id":"JZ-02","kind":"project_anchor","key_area":"PROV-KEY-001","plan_sheet":"assets/figures/key-area-01.png","register_ref":"visual/assets/implementation_register.json#JZ-02","condition":"tenure, fire, accessibility, structure and equipment checks","exit":"failed check, withdrawn authority or changed fire condition","provisional":true},"geometry":{"type":"Point","coordinates":[116.34866956777063,40.01772367750146]}},
    {"type":"Feature","properties":{"id":"JZ-03","kind":"project_anchor","key_area":"PROV-KEY-002","plan_sheet":"assets/figures/key-area-02.png","register_ref":"visual/assets/implementation_register.json#JZ-03","condition":"co-management, venue permission and rights process","exit":"rights dispute, unavailable paper entry or unresolved nuisance","provisional":true},"geometry":{"type":"Point","coordinates":[116.34733052055178,39.98752604929125]}},
    {"type":"Feature","properties":{"id":"JZ-04","kind":"project_anchor","key_area":"PROV-KEY-002","plan_sheet":"assets/figures/key-area-02.png","register_ref":"visual/assets/implementation_register.json#JZ-04","condition":"step-free path, drainage, maintenance and venue checks","exit":"safety, drainage or maintenance condition fails","provisional":true},"geometry":{"type":"Point","coordinates":[116.3476694831217,39.98947397259367]}},
    {"type":"Feature","properties":{"id":"JZ-05","kind":"project_anchor","key_area":"PROV-KEY-003","plan_sheet":"assets/figures/key-area-03.png","register_ref":"visual/assets/implementation_register.json#JZ-05","condition":"plaza permission, crowd organisation and feedback process","exit":"crowding, safety risk or two unresolved closure periods","provisional":true},"geometry":{"type":"Point","coordinates":[116.34833059818445,39.94594617494506]}},
    {"type":"Feature","properties":{"id":"JZ-06","kind":"project_anchor","key_area":"PROV-KEY-003","plan_sheet":"assets/figures/key-area-03.png","register_ref":"visual/assets/implementation_register.json#JZ-06","condition":"station, road, drainage and maintenance confirmation","exit":"no maintainer, no approval or unsuitable road condition","provisional":true},"geometry":{"type":"Point","coordinates":[116.34866939987579,39.94789410782621]}},
    {"type":"Feature","properties":{"id":"SC-01","kind":"scenario_anchor","key_area":"PROV-KEY-001","plan_sheet":"assets/figures/key-area-01.png","register_ref":"visual/assets/implementation_register.json#SC-01","provisional":true},"geometry":{"type":"Point","coordinates":[116.34806289435838,40.01570476014761]}},
    {"type":"Feature","properties":{"id":"SC-02","kind":"scenario_anchor","key_area":"PROV-KEY-002","plan_sheet":"assets/figures/key-area-02.png","register_ref":"visual/assets/implementation_register.json#SC-02","provisional":true},"geometry":{"type":"Point","coordinates":[116.34749008056542,39.9895424632614]}},
    {"type":"Feature","properties":{"id":"SC-03","kind":"scenario_anchor","key_area":"PROV-KEY-003","plan_sheet":"assets/figures/key-area-03.png","register_ref":"visual/assets/implementation_register.json#SC-03","provisional":true},"geometry":{"type":"Point","coordinates":[116.34895645493876,39.94588019017436]}},
    {"type":"Feature","properties":{"id":"SC-04","kind":"scenario_anchor","key_area":"PROV-KEY-001","plan_sheet":"assets/figures/key-area-01.png","register_ref":"visual/assets/implementation_register.json#SC-04","provisional":true},"geometry":{"type":"Point","coordinates":[116.34804305395097,40.01778965464052]}},
    {"type":"Feature","properties":{"id":"SC-05","kind":"scenario_anchor","key_area":"PROV-KEY-001","plan_sheet":"assets/figures/key-area-01.png","register_ref":"visual/assets/implementation_register.json#SC-05","provisional":true},"geometry":{"type":"Point","coordinates":[116.34850991865535,40.015707274122484]}},
    {"type":"Feature","properties":{"id":"SC-06","kind":"scenario_anchor","key_area":"PROV-KEY-002","plan_sheet":"assets/figures/key-area-02.png","register_ref":"visual/assets/implementation_register.json#SC-06","provisional":true},"geometry":{"type":"Point","coordinates":[116.34793693422613,39.98954497808877]}},
    {"type":"Feature","properties":{"id":"SC-07","kind":"scenario_anchor","key_area":"PROV-KEY-002","plan_sheet":"assets/figures/key-area-02.png","register_ref":"visual/assets/implementation_register.json#SC-07","provisional":true},"geometry":{"type":"Point","coordinates":[116.34706307793981,39.98745504244046]}},
    {"type":"Feature","properties":{"id":"SC-08","kind":"scenario_anchor","key_area":"PROV-KEY-003","plan_sheet":"assets/figures/key-area-03.png","register_ref":"visual/assets/implementation_register.json#SC-08","provisional":true},"geometry":{"type":"Point","coordinates":[116.34849010752878,39.94796260141204]}},
    {"type":"Feature","properties":{"id":"SC-09","kind":"scenario_anchor","key_area":"PROV-KEY-003","plan_sheet":"assets/figures/key-area-03.png","register_ref":"visual/assets/implementation_register.json#SC-09","provisional":true},"geometry":{"type":"Point","coordinates":[116.34895645493876,39.94588019017436]}},
    {"type":"Feature","properties":{"id":"SC-10","kind":"scenario_anchor","key_area":"PROV-KEY-001","plan_sheet":"assets/figures/key-area-01.png","register_ref":"visual/assets/implementation_register.json#SC-10","provisional":true},"geometry":{"type":"Point","coordinates":[116.34804305395097,40.01778965464052]}},
    {"type":"Feature","properties":{"id":"KA-01-ENTRY-A","kind":"entry_anchor","key_area":"PROV-KEY-001","plan_sheet":"assets/figures/key-area-01.png","condition":"site access, emergency clearance and wayfinding review","provisional":true},"geometry":{"type":"Point","coordinates":[116.34594,40.01403]}},
    {"type":"Feature","properties":{"id":"KA-01-ENTRY-B","kind":"entry_anchor","key_area":"PROV-KEY-001","plan_sheet":"assets/figures/key-area-01.png","condition":"site access, emergency clearance and wayfinding review","provisional":true},"geometry":{"type":"Point","coordinates":[116.35119,40.01889]}},
    {"type":"Feature","properties":{"id":"KA-02-ENTRY-STATION","kind":"entry_anchor","key_area":"PROV-KEY-002","plan_sheet":"assets/figures/key-area-02.png","condition":"station-city interface and accessible-route review","provisional":true},"geometry":{"type":"Point","coordinates":[116.34462,39.98535]}},
    {"type":"Feature","properties":{"id":"KA-02-ENTRY-CAMPUS","kind":"entry_anchor","key_area":"PROV-KEY-002","plan_sheet":"assets/figures/key-area-02.png","condition":"campus interface, venue and accessible-route review","provisional":true},"geometry":{"type":"Point","coordinates":[116.35016,39.99060]}},
    {"type":"Feature","properties":{"id":"KA-03-ENTRY-STATION","kind":"entry_anchor","key_area":"PROV-KEY-003","plan_sheet":"assets/figures/key-area-03.png","condition":"station-city interface and crowd review","provisional":true},"geometry":{"type":"Point","coordinates":[116.34562,39.94375]}},
    {"type":"Feature","properties":{"id":"KA-03-ENTRY-CORNER","kind":"entry_anchor","key_area":"PROV-KEY-003","plan_sheet":"assets/figures/key-area-03.png","condition":"street-corner, road and maintenance review","provisional":true},"geometry":{"type":"Point","coordinates":[116.35122,39.94865]}},
    {"type":"Feature","properties":{"id":"KA-01-STEPFREE","kind":"step_free_route","key_area":"PROV-KEY-001","plan_sheet":"assets/figures/key-area-01.png","dimension_basis":"conceptual 3m clear walking width; not surveyed","condition":"on-site accessibility specialist confirms continuous route","provisional":true},"geometry":{"type":"LineString","coordinates":[[116.3458,40.01435],[116.3477,40.01625],[116.3504,40.01885]]}},
    {"type":"Feature","properties":{"id":"KA-02-STEPFREE","kind":"step_free_route","key_area":"PROV-KEY-002","plan_sheet":"assets/figures/key-area-02.png","dimension_basis":"conceptual 3m clear walking width; not surveyed","condition":"on-site accessibility specialist confirms continuous route","provisional":true},"geometry":{"type":"LineString","coordinates":[[116.3448,39.9858],[116.3467,39.9879],[116.3494,39.9906]]}},
    {"type":"Feature","properties":{"id":"KA-03-STEPFREE","kind":"step_free_route","key_area":"PROV-KEY-003","plan_sheet":"assets/figures/key-area-03.png","dimension_basis":"conceptual 3m clear walking width; not surveyed","condition":"on-site accessibility specialist confirms continuous route","provisional":true},"geometry":{"type":"LineString","coordinates":[[116.3458,39.9445],[116.3477,39.9464],[116.3504,39.9491]]}},
    {"type":"Feature","properties":{"id":"KA-01-FIRE-SERVICE","kind":"fire_service_clearance","key_area":"PROV-KEY-001","plan_sheet":"assets/figures/key-area-01.png","condition":"fire and service clearance specialist review","provisional":true},"geometry":{"type":"LineString","coordinates":[[116.3460,40.01675],[116.3510,40.01675]]}},
    {"type":"Feature","properties":{"id":"KA-02-FIRE-SERVICE","kind":"fire_service_clearance","key_area":"PROV-KEY-002","plan_sheet":"assets/figures/key-area-02.png","condition":"fire and service clearance specialist review","provisional":true},"geometry":{"type":"LineString","coordinates":[[116.3450,39.9885],[116.3500,39.9885]]}},
    {"type":"Feature","properties":{"id":"KA-03-FIRE-SERVICE","kind":"fire_service_clearance","key_area":"PROV-KEY-003","plan_sheet":"assets/figures/key-area-03.png","condition":"fire and service clearance specialist review","provisional":true},"geometry":{"type":"LineString","coordinates":[[116.3460,39.9469],[116.3510,39.9469]]}},
    {"type":"Feature","properties":{"id":"KA-01-ACTION","kind":"concept_action_area","key_area":"PROV-KEY-001","plan_sheet":"assets/figures/key-area-01.png","condition":"venue, tenure, fire, accessibility and maintenance review","provisional":true},"geometry":{"type":"Polygon","coordinates":[[[116.3471,40.01555],[116.3498,40.01555],[116.3498,40.01785],[116.3471,40.01785],[116.3471,40.01555]]]}},
    {"type":"Feature","properties":{"id":"KA-02-ACTION","kind":"concept_action_area","key_area":"PROV-KEY-002","plan_sheet":"assets/figures/key-area-02.png","condition":"venue, tenure, fire, accessibility and maintenance review","provisional":true},"geometry":{"type":"Polygon","coordinates":[[[116.3461,39.9873],[116.3488,39.9873],[116.3488,39.98965],[116.3461,39.98965],[116.3461,39.9873]]]}},
    {"type":"Feature","properties":{"id":"KA-03-ACTION","kind":"concept_action_area","key_area":"PROV-KEY-003","plan_sheet":"assets/figures/key-area-03.png","condition":"venue, tenure, fire, accessibility and maintenance review","provisional":true},"geometry":{"type":"Polygon","coordinates":[[[116.3471,39.9457],[116.3498,39.9457],[116.3498,39.9480],[116.3471,39.9480],[116.3471,39.9457]]]}}
  ]
}
