{
  "type": "FeatureCollection",
  "name": "GREEN_SPACE",
  "crs": {
    "type": "name",
    "properties": {
      "name": "urn:ogc:def:crs:OGC::CRS84"
    }
  },
  "features": [
    {
      "type": "Feature",
      "properties": {
        "id": "green_001",
        "layer": "GREEN_SPACE",
        "name": "京张铁路遗址公园",
        "name_en": "Beijing-Zhangjiakou Railway Heritage Park",
        "type": "公园绿地",
        "area_ha": 150,
        "source_type": "agent_generated_design",
        "confidence": "high",
        "geometry_role": "design_proposal",
        "note": "主体绿廊"
      },
      "geometry": {
        "type": "Polygon",
        "coordinates": [
          [
            [
              116.333,
              40.02
            ],
            [
              116.337,
              40.02
            ],
            [
              116.337,
              39.96
            ],
            [
              116.333,
              39.96
            ],
            [
              116.333,
              40.02
            ]
          ]
        ]
      },
      "id": "green_001"
    },
    {
      "type": "Feature",
      "properties": {
        "id": "green_002",
        "layer": "GREEN_SPACE",
        "name": "社区公园1",
        "name_en": "Community Park 1",
        "type": "社区公园",
        "area_ha": 2.5,
        "source_type": "agent_generated_design",
        "confidence": "medium",
        "geometry_role": "design_proposal"
      },
      "geometry": {
        "type": "Polygon",
        "coordinates": [
          [
            [
              116.342,
              40.015
            ],
            [
              116.345,
              40.015
            ],
            [
              116.345,
              40.017
            ],
            [
              116.342,
              40.017
            ],
            [
              116.342,
              40.015
            ]
          ]
        ]
      },
      "id": "green_002"
    },
    {
      "type": "Feature",
      "properties": {
        "id": "green_003",
        "layer": "GREEN_SPACE",
        "name": "街头绿地1",
        "name_en": "Pocket Park 1",
        "type": "街头绿地",
        "area_ha": 0.3,
        "source_type": "agent_generated_design",
        "confidence": "medium",
        "geometry_role": "design_proposal"
      },
      "geometry": {
        "type": "Polygon",
        "coordinates": [
          [
            [
              116.35,
              39.995
            ],
            [
              116.351,
              39.995
            ],
            [
              116.351,
              39.996
            ],
            [
              116.35,
              39.996
            ],
            [
              116.35,
              39.995
            ]
          ]
        ]
      },
      "id": "green_003"
    }
  ],
  "metadata": {
    "created_at": "2026-08-12T23:00:00+08:00",
    "created_by": "zihanCui1215",
    "agent_name": "WorkBuddy AI Agent",
    "source": "derived from design proposal",
    "coordinate_system": "WGS84",
    "total_features": 3,
    "total_area_ha": 1540,
    "green_rate": "35.3%",
    "note": "绿地系统，包含遗址公园、社区公园、街头绿地"
  }
}