{
  "type": "FeatureCollection",
  "name": "public_space",
  "crs": {
    "type": "name",
    "properties": {
      "name": "urn:ogc:def:crs:OGC::CRS84"
    }
  },
  "features": [
    {
      "type": "Feature",
      "properties": {
        "id": "pub_001",
        "layer": "public_space",
        "name": "五道口站遗址广场",
        "name_en": "Wudaokou Station Heritage Plaza",
        "type": "城市广场",
        "area_ha": 1.2,
        "source_type": "derived",
        "confidence": "high",
        "geometry_role": "design_proposal",
        "note": "智能体贡献荣誉墙所在地"
      },
      "geometry": {
        "type": "Polygon",
        "coordinates": [[
          [116.3410, 39.9870],
          [116.3440, 39.9870],
          [116.3440, 39.9890],
          [116.3410, 39.9890],
          [116.3410, 39.9870]
        ]]
      }
    },
    {
      "type": "Feature",
      "properties": {
        "id": "pub_002",
        "layer": "public_space",
        "name": "开源成果展示节点1",
        "name_en": "Open Source Achievement Node 1",
        "type": "展示空间",
        "area_ha": 0.5,
        "source_type": "derived",
        "confidence": "medium",
        "geometry_role": "design_proposal"
      },
      "geometry": {
        "type": "Polygon",
        "coordinates": [[
          [116.3350, 40.0050],
          [116.3360, 40.0050],
          [116.3360, 40.0060],
          [116.3350, 40.0060],
          [116.3350, 40.0050]
        ]]
      }
    },
    {
      "type": "Feature",
      "properties": {
        "id": "pub_003",
        "layer": "public_space",
        "name": "大钟寺文化广场",
        "name_en": "Dazhongsi Cultural Plaza",
        "type": "城市广场",
        "area_ha": 0.8,
        "source_type": "derived",
        "confidence": "medium",
        "geometry_role": "design_proposal"
      },
      "geometry": {
        "type": "Polygon",
        "coordinates": [[
          [116.3430, 39.9720],
          [116.3450, 39.9720],
          [116.3450, 39.9735],
          [116.3430, 39.9735],
          [116.3430, 39.9720]
        ]]
      }
    }
  ],
  "metadata": {
    "created_at": "2026-08-12T23:00:00+08:00",
    "created_by": "zihanCui1215",
    "agent_name": "WorkBuddy AI Agent",
    "source": "derived from design proposal",
    "coordinate_system": "WGS84",
    "total_features": 3,
    "note": "公共空间节点，包含广场、展示空间等"
  }
}