{
  "type": "FeatureCollection",
  "name": "ROAD_CENTERLINE",
  "crs": {
    "type": "name",
    "properties": {
      "name": "urn:ogc:def:crs:OGC::CRS84"
    }
  },
  "features": [
    {
      "type": "Feature",
      "properties": {
        "id": "road_001",
        "layer": "ROAD_CENTERLINE",
        "name": "中关村大街",
        "name_en": "Zhongguancun Street",
        "type": "城市主干路",
        "width_m": 60,
        "length_km": 3.5,
        "source_type": "agent_generated_design",
        "confidence": "high",
        "geometry_role": "design_proposal",
        "level": "arterial",
        "road_class": "branch"
      },
      "geometry": {
        "type": "LineString",
        "coordinates": [
          [
            116.33,
            40.015
          ],
          [
            116.33,
            40.005
          ],
          [
            116.33,
            39.995
          ],
          [
            116.33,
            39.985
          ],
          [
            116.33,
            39.975
          ]
        ]
      },
      "id": "road_001"
    },
    {
      "type": "Feature",
      "properties": {
        "id": "road_002",
        "layer": "ROAD_CENTERLINE",
        "name": "学院路",
        "name_en": "Xueyuan Road",
        "type": "城市主干路",
        "width_m": 50,
        "length_km": 4.0,
        "source_type": "agent_generated_design",
        "confidence": "high",
        "geometry_role": "design_proposal",
        "level": "arterial",
        "road_class": "branch"
      },
      "geometry": {
        "type": "LineString",
        "coordinates": [
          [
            116.34,
            40.02
          ],
          [
            116.34,
            40.01
          ],
          [
            116.34,
            40.0
          ],
          [
            116.34,
            39.99
          ],
          [
            116.34,
            39.98
          ]
        ]
      },
      "id": "road_002"
    },
    {
      "type": "Feature",
      "properties": {
        "id": "road_003",
        "layer": "ROAD_CENTERLINE",
        "name": "知春路",
        "name_en": "Zhichun Road",
        "type": "城市次干路",
        "width_m": 40,
        "length_km": 2.5,
        "source_type": "agent_generated_design",
        "confidence": "high",
        "geometry_role": "design_proposal",
        "level": "secondary",
        "road_class": "branch"
      },
      "geometry": {
        "type": "LineString",
        "coordinates": [
          [
            116.335,
            39.99
          ],
          [
            116.34,
            39.99
          ],
          [
            116.345,
            39.99
          ],
          [
            116.35,
            39.99
          ],
          [
            116.355,
            39.99
          ]
        ]
      },
      "id": "road_003"
    },
    {
      "type": "Feature",
      "properties": {
        "id": "road_004",
        "layer": "ROAD_CENTERLINE",
        "name": "开发者散步道",
        "name_en": "Developer Walking Path",
        "type": "慢行道路",
        "width_m": 15,
        "length_km": 6.0,
        "source_type": "agent_generated_design",
        "confidence": "high",
        "geometry_role": "design_proposal",
        "level": "pedestrian",
        "note": "沿铁路遗址公园",
        "road_class": "branch"
      },
      "geometry": {
        "type": "LineString",
        "coordinates": [
          [
            116.335,
            40.02
          ],
          [
            116.337,
            40.01
          ],
          [
            116.339,
            40.0
          ],
          [
            116.341,
            39.99
          ],
          [
            116.343,
            39.98
          ],
          [
            116.345,
            39.97
          ],
          [
            116.347,
            39.965
          ]
        ]
      },
      "id": "road_004"
    },
    {
      "type": "Feature",
      "properties": {
        "id": "road_005",
        "layer": "ROAD_CENTERLINE",
        "name": "北五环",
        "name_en": "North Fifth Ring Road",
        "type": "城市快速路",
        "width_m": 100,
        "length_km": 4.0,
        "source_type": "agent_generated_design",
        "confidence": "high",
        "geometry_role": "design_proposal",
        "level": "expressway",
        "road_class": "branch"
      },
      "geometry": {
        "type": "LineString",
        "coordinates": [
          [
            116.325,
            40.02
          ],
          [
            116.335,
            40.02
          ],
          [
            116.345,
            40.02
          ],
          [
            116.355,
            40.02
          ],
          [
            116.365,
            40.02
          ]
        ]
      },
      "id": "road_005"
    }
  ],
  "metadata": {
    "created_at": "2026-08-12T23:00:00+08:00",
    "created_by": "zihanCui1215",
    "agent_name": "WorkBuddy AI Agent",
    "source": "derived from design proposal",
    "coordinate_system": "WGS84",
    "total_features": 5,
    "note": "主要道路网络，包含快速路、主干路、次干路、慢行道路"
  }
}