{
  "type": "FeatureCollection",
  "name": "green_space_human_zigzag",
  "features": [
    {
      "type": "Feature",
      "id": "GS-00-04",
      "properties": {
        "id": "GS-00-04",
        "layer": "GREEN_SPACE",
        "name_zh": "京张遗址公园带绿地",
        "source_type": "agent_generated_design",
        "confidence": "medium",
        "geometry_role": "design_proposal",
        "official_boundary": false,
        "design_phase": "concept_proposal",
        "land_use_code": "1401",
        "area_sqm_declared": 246721.63,
        "sub_zone": "heritage_park_spine"
      },
      "geometry": {
        "type": "Polygon",
        "coordinates": [
          [
            [
              116.34705262093988,
              39.95354906360369
            ],
            [
              116.34883909847807,
              39.9535591118603
            ],
            [
              116.34897711662167,
              39.93900022570943
            ],
            [
              116.34719092222727,
              39.93900022700393
            ],
            [
              116.34705262093988,
              39.95354906360369
            ]
          ]
        ]
      }
    },
    {
      "type": "Feature",
      "id": "GS-01-04",
      "properties": {
        "id": "GS-01-04",
        "layer": "GREEN_SPACE",
        "name_zh": "京张遗址公园带绿地",
        "source_type": "agent_generated_design",
        "confidence": "medium",
        "geometry_role": "design_proposal",
        "official_boundary": false,
        "design_phase": "concept_proposal",
        "land_use_code": "1401",
        "area_sqm_declared": 247409.52,
        "sub_zone": "heritage_park_spine"
      },
      "geometry": {
        "type": "Polygon",
        "coordinates": [
          [
            [
              116.3469137851404,
              39.968143463126935
            ],
            [
              116.34870064247069,
              39.96815351655025
            ],
            [
              116.34883909847807,
              39.9535591118603
            ],
            [
              116.34705262093988,
              39.95354906360369
            ],
            [
              116.3469137851404,
              39.968143463126935
            ]
          ]
        ]
      }
    },
    {
      "type": "Feature",
      "id": "GS-02-04",
      "properties": {
        "id": "GS-02-04",
        "layer": "GREEN_SPACE",
        "name_zh": "京张遗址公园带绿地",
        "source_type": "agent_generated_design",
        "confidence": "medium",
        "geometry_role": "design_proposal",
        "official_boundary": false,
        "design_phase": "concept_proposal",
        "land_use_code": "1401",
        "area_sqm_declared": 247409.52,
        "sub_zone": "heritage_park_spine"
      },
      "geometry": {
        "type": "Polygon",
        "coordinates": [
          [
            [
              116.34677484806336,
              39.98273782539105
            ],
            [
              116.34856208546276,
              39.98274788398325
            ],
            [
              116.34870064247069,
              39.96815351655025
            ],
            [
              116.3469137851404,
              39.968143463126935
            ],
            [
              116.34677484806336,
              39.98273782539105
            ]
          ]
        ]
      }
    },
    {
      "type": "Feature",
      "id": "GS-03-04",
      "properties": {
        "id": "GS-03-04",
        "layer": "GREEN_SPACE",
        "name_zh": "京张遗址公园带绿地",
        "source_type": "agent_generated_design",
        "confidence": "medium",
        "geometry_role": "design_proposal",
        "official_boundary": false,
        "design_phase": "concept_proposal",
        "land_use_code": "1401",
        "area_sqm_declared": 247409.52,
        "sub_zone": "heritage_park_spine"
      },
      "geometry": {
        "type": "Polygon",
        "coordinates": [
          [
            [
              116.34663580962632,
              39.99733215039248
            ],
            [
              116.34842342737201,
              39.997342214155736
            ],
            [
              116.34856208546276,
              39.98274788398325
            ],
            [
              116.34677484806336,
              39.98273782539105
            ],
            [
              116.34663580962632,
              39.99733215039248
            ]
          ]
        ]
      }
    },
    {
      "type": "Feature",
      "id": "GS-04-04",
      "properties": {
        "id": "GS-04-04",
        "layer": "GREEN_SPACE",
        "name_zh": "京张遗址公园带绿地",
        "source_type": "agent_generated_design",
        "confidence": "medium",
        "geometry_role": "design_proposal",
        "official_boundary": false,
        "design_phase": "concept_proposal",
        "land_use_code": "1401",
        "area_sqm_declared": 247409.52,
        "sub_zone": "heritage_park_spine"
      },
      "geometry": {
        "type": "Polygon",
        "coordinates": [
          [
            [
              116.34649666974666,
              40.011926438127624
            ],
            [
              116.34828466811614,
              40.011936507064114
            ],
            [
              116.34842342737201,
              39.997342214155736
            ],
            [
              116.34663580962632,
              39.99733215039248
            ],
            [
              116.34649666974666,
              40.011926438127624
            ]
          ]
        ]
      }
    },
    {
      "type": "Feature",
      "id": "GS-05-04",
      "properties": {
        "id": "GS-05-04",
        "layer": "GREEN_SPACE",
        "name_zh": "京张遗址公园带绿地",
        "source_type": "agent_generated_design",
        "confidence": "medium",
        "geometry_role": "design_proposal",
        "official_boundary": false,
        "design_phase": "concept_proposal",
        "land_use_code": "1401",
        "area_sqm_declared": 246976.02,
        "sub_zone": "heritage_park_spine"
      },
      "geometry": {
        "type": "Polygon",
        "coordinates": [
          [
            [
              116.34828466811614,
              40.011936507064114
            ],
            [
              116.34649666974666,
              40.011926438127624
            ],
            [
              116.34635762445338,
              40.02650014113597
            ],
            [
              116.34814609881848,
              40.026500168117956
            ],
            [
              116.34828466811614,
              40.011936507064114
            ]
          ]
        ]
      }
    }
  ]
}