{
  "type": "FeatureCollection",
  "name": "phasing_human_zigzag",
  "features": [
    {
      "type": "Feature",
      "id": "PH-P3",
      "properties": {
        "id": "PH-P3",
        "layer": "PHASE",
        "name_zh": "远期（大钟寺及南段）",
        "source_type": "agent_generated_design",
        "confidence": "medium",
        "geometry_role": "design_proposal",
        "official_boundary": false,
        "design_phase": "concept_proposal",
        "area_sqm_declared": 2044226.84,
        "phase_code": "P3",
        "phase_key": "phase_3_long",
        "phase_order": 3
      },
      "geometry": {
        "type": "Polygon",
        "coordinates": [
          [
            [
              116.35530001628042,
              39.95359522222922
            ],
            [
              116.3553,
              39.939
            ],
            [
              116.34070000000001,
              39.93899999999999
            ],
            [
              116.34029707989795,
              39.953510817352914
            ],
            [
              116.35530001628042,
              39.95359522222922
            ]
          ]
        ]
      }
    },
    {
      "type": "Feature",
      "id": "PH-P1",
      "properties": {
        "id": "PH-P1",
        "layer": "PHASE",
        "name_zh": "近期（AI原点社区及主轴中段）",
        "source_type": "agent_generated_design",
        "confidence": "medium",
        "geometry_role": "design_proposal",
        "official_boundary": false,
        "design_phase": "concept_proposal",
        "area_sqm_declared": 2019272.63,
        "phase_code": "P1",
        "phase_key": "phase_1_immediate",
        "phase_order": 1
      },
      "geometry": {
        "type": "Polygon",
        "coordinates": [
          [
            [
              116.33989166606412,
              39.968103687635235
            ],
            [
              116.3397,
              39.975
            ],
            [
              116.34019665870896,
              39.98270056586796
            ],
            [
              116.35387795243325,
              39.9827776388478
            ],
            [
              116.3550449694261,
              39.968188989207874
            ],
            [
              116.33989166606412,
              39.968103687635235
            ]
          ]
        ]
      }
    },
    {
      "type": "Feature",
      "id": "PH-P2",
      "properties": {
        "id": "PH-P2",
        "layer": "PHASE",
        "name_zh": "中期（众智园及北段）",
        "source_type": "agent_generated_design",
        "confidence": "medium",
        "geometry_role": "design_proposal",
        "official_boundary": false,
        "design_phase": "concept_proposal",
        "area_sqm_declared": 1731608.23,
        "phase_code": "P2",
        "phase_key": "phase_2_medium",
        "phase_order": 2
      },
      "geometry": {
        "type": "Polygon",
        "coordinates": [
          [
            [
              116.34113861172393,
              39.99730103000567
            ],
            [
              116.34169999999999,
              40.00600000000001
            ],
            [
              116.34198779683791,
              40.011900924349305
            ],
            [
              116.35450368194167,
              40.011971313968374
            ],
            [
              116.35370378140554,
              39.99737177997888
            ],
            [
              116.34113861172393,
              39.99730103000567
            ]
          ]
        ]
      }
    }
  ]
}