{
  "type": "FeatureCollection",
  "name": "public_space_human_zigzag",
  "features": [
    {
      "type": "Feature",
      "id": "PS-00-05",
      "properties": {
        "id": "PS-00-05",
        "layer": "PUBLIC_SPACE",
        "name_zh": "钟声广场（大钟寺）",
        "source_type": "agent_generated_design",
        "confidence": "medium",
        "geometry_role": "design_proposal",
        "official_boundary": false,
        "design_phase": "concept_proposal",
        "land_use_code": "1403",
        "area_sqm_declared": 246891.9,
        "sub_zone": "dazhongsi",
        "plaza_role": "human_zigzag_junction"
      },
      "geometry": {
        "type": "Polygon",
        "coordinates": [
          [
            [
              116.34883909847807,
              39.9535591118603
            ],
            [
              116.35062557691188,
              39.95356913259025
            ],
            [
              116.35076331138868,
              39.93900019689528
            ],
            [
              116.34897711662167,
              39.93900022570943
            ],
            [
              116.34883909847807,
              39.9535591118603
            ]
          ]
        ]
      }
    },
    {
      "type": "Feature",
      "id": "PS-03-02",
      "properties": {
        "id": "PS-03-02",
        "layer": "PUBLIC_SPACE",
        "name_zh": "原点广场（AI原点社区）",
        "source_type": "agent_generated_design",
        "confidence": "medium",
        "geometry_role": "design_proposal",
        "official_boundary": false,
        "design_phase": "concept_proposal",
        "land_use_code": "1403",
        "area_sqm_declared": 247409.52,
        "sub_zone": "origin",
        "plaza_role": "human_zigzag_junction"
      },
      "geometry": {
        "type": "Polygon",
        "coordinates": [
          [
            [
              116.34306057683817,
              39.997311940158724
            ],
            [
              116.34484819278087,
              39.997322059060124
            ],
            [
              116.34498761156352,
              39.98272773924392
            ],
            [
              116.34320037596571,
              39.982717625541916
            ],
            [
              116.34306057683817,
              39.997311940158724
            ]
          ]
        ]
      }
    },
    {
      "type": "Feature",
      "id": "PS-05-03",
      "properties": {
        "id": "PS-05-03",
        "layer": "PUBLIC_SPACE",
        "name_zh": "智汇广场（众智园）",
        "source_type": "agent_generated_design",
        "confidence": "medium",
        "geometry_role": "design_proposal",
        "official_boundary": false,
        "design_phase": "concept_proposal",
        "land_use_code": "1403",
        "area_sqm_declared": 247146.35,
        "sub_zone": "zhongzhiyuan",
        "plaza_role": "human_zigzag_junction"
      },
      "geometry": {
        "type": "Polygon",
        "coordinates": [
          [
            [
              116.34649666974666,
              40.011926438127624
            ],
            [
              116.34470867227814,
              40.01191634160787
            ],
            [
              116.34456915046535,
              40.0265000865494
            ],
            [
              116.34635762445338,
              40.02650014113597
            ],
            [
              116.34649666974666,
              40.011926438127624
            ]
          ]
        ]
      }
    }
  ]
}