{
  "type": "FeatureCollection",
  "name": "consent_line_building_prototypes",
  "features": [
    {
      "type": "Feature",
      "id": "BLDG-001",
      "properties": {
        "id": "BLDG-001",
        "layer": "BUILDING_FOOTPRINT",
        "source_type": "agent_generated_design",
        "confidence": "medium",
        "geometry_role": "design_proposal",
        "building_type": "ai_r_and_d",
        "name_zh": "可撤回问路场建筑原型基底",
        "name_en": "Reversible consent-hall building prototype",
        "renewal_logic": "retain-first; lightweight reversible infill pending official controls",
        "area_sqm_declared": 310807.184
      },
      "geometry": {
        "type": "Polygon",
        "coordinates": [
          [
            [
              116.341572,
              39.95475
            ],
            [
              116.341572,
              39.97225
            ],
            [
              116.34344399999999,
              39.97225
            ],
            [
              116.34344399999999,
              39.95475
            ],
            [
              116.341572,
              39.95475
            ]
          ]
        ]
      }
    }
  ]
}
