{
 "type": "FeatureCollection",
 "features": [
  {
   "type": "Feature",
   "properties": {
    "id": "CON-PROV-BOUNDARY",
    "layer": "CONSTRAINT",
    "constraint_type": "provisional_boundary",
    "name_zh": "总体设计范围临时粗略边界",
    "limitation_zh": "不可作为法定红线、审批依据或精确面积复算依据",
    "source_type": "agent_inferred_from_public_data",
    "confidence": "medium",
    "geometry_role": "provisional_constraint",
    "boundary_precision": "provisional_rough",
    "official_boundary": false,
    "area_sqm_declared": 11412825.4
   },
   "geometry": {
    "type": "Polygon",
    "coordinates": [
     [
      [
       116.3407,
       39.939
      ],
      [
       116.3553,
       39.939
      ],
      [
       116.3553,
       39.965
      ],
      [
       116.3533,
       39.99
      ],
      [
       116.3553,
       40.0265
      ],
      [
       116.3427,
       40.0265
      ],
      [
       116.3417,
       40.006
      ],
      [
       116.3397,
       39.975
      ],
      [
       116.3407,
       39.939
      ]
     ]
    ]
   },
   "id": "CON-PROV-BOUNDARY"
  },
  {
   "type": "Feature",
   "properties": {
    "id": "CON-CONFLICT-0301",
    "layer": "CONSTRAINT",
    "constraint_type": "conflict_segment",
    "name_zh": "人机冲突瓶颈段",
    "limitation_zh": "分级依据为推断宽度，待实测断面数据补齐后重算",
    "mitigation_zh": "高峰轻型载具禁行并走替代路径；纳入小改造清单由专业团队深化",
    "source_type": "agent_generated_design",
    "confidence": "low",
    "geometry_role": "design_proposal",
    "official_boundary": false,
    "area_sqm_declared": 106286.3
   },
   "geometry": {
    "type": "Polygon",
    "coordinates": [
     [
      [
       116.34697563694105,
       39.993539721315265
      ],
      [
       116.34698322367584,
       39.99357906160977
      ],
      [
       116.34699578726584,
       39.993617640507836
      ],
      [
       116.34701320672464,
       39.99365508647202
      ],
      [
       116.3470353143002,
       39.99369103887518
      ],
      [
       116.34706189709004,
       39.99372515147348
      ],
      [
       116.34709269909172,
       39.993757095741
      ],
      [
       116.34712742366764,
       39.99378656403387
      ],
      [
       116.34716573640218,
       39.993813272552934
      ],
      [
       116.34720726832197,
       39.993836964077275
      ],
      [
       116.34725161944942,
       39.99385741044132
      ],
      [
       116.34729836265493,
       39.99387441473243
      ],
      [
       116.34734704777034,
       39.99388781318735
      ],
      [
       116.34739720592466,
       39.993897476769476
      ],
      [
       116.34744835405968,
       39.99390331241159
      ],
      [
       116.34749999958257,
       39.99390526391222
      ],
      [
       116.34755164510992,
       39.99390331247697
      ],
      [
       116.34760279325835,
       39.99389747689945
      ],
      [
       116.34765295143478,
       39.993887813380404
      ],
      [
       116.34770163658078,
       39.99387441498629
      ],
      [
       116.34774837982488,
       39.99385741075304
      ],
      [
       116.34779273099848,
       39.99383696444325
      ],
      [
       116.34783426297123,
       39.993813272968985
      ],
      [
       116.347872575765,
       39.99378656449527
      ],
      [
       116.34790730040564,
       39.9937570962426
      ],
      [
       116.3479381024766,
       39.99372515200971
      ],
      [
       116.34796468533965,
       39.99369103944024
      ],
      [
       116.3479867929913,
       39.99365508705987
      ],
      [
       116.34800421252828,
       39.99361764111229
      ],
      [
       116.34801677619768,
       39.99357906222464
      ],
      [
       116.34802436301221,
       39.99353972193431
      ],
      [
       116.3480268999151,
       39.99349999911083
      ],
      [
       116.3480268230854,
       39.98349999849411
      ],
      [
       116.34802428594506,
       39.983460275625085
      ],
      [
       116.34801669965275,
       39.98342093533445
      ],
      [
       116.34800413727703,
       39.98338235648981
      ],
      [
       116.34798671980826,
       39.98334491062503
      ],
      [
       116.34796461499305,
       39.983308958362166
      ],
      [
       116.34793803571847,
       39.983274845938645
      ],
      [
       116.3479072379617,
       39.98324290187284
      ],
      [
       116.3478725183246,
       39.98321343380038
      ],
      [
       116.34783421117726,
       39.9831867255116
      ],
      [
       116.34779268543758,
       39.9831630342186
      ],
      [
       116.34774834101876,
       39.983142588078245
      ],
      [
       116.34770160497769,
       39.98312558399508
      ],
      [
       116.3476529274025,
       39.98311218572511
      ],
      [
       116.34760277707814,
       39.9831025222988
      ],
      [
       116.3475516369719,
       39.9830966867786
      ],
      [
       116.34749999958261,
       39.98309473536272
      ],
      [
       116.34744836219778,
       39.983096686843965
      ],
      [
       116.34739722210496,
       39.98310252242878
      ],
      [
       116.34734707180272,
       39.98311218591816
      ],
      [
       116.34729839425809,
       39.98312558424896
      ],
      [
       116.34725165825562,
       39.983142588389974
      ],
      [
       116.3472073138829,
       39.98316303458457
      ],
      [
       116.34716578819624,
       39.98318672592765
      ],
      [
       116.34712748110809,
       39.98321343426179
      ],
      [
       116.34709276153566,
       39.98324290237445
      ],
      [
       116.34706196384823,
       39.98327484647491
      ],
      [
       116.34703538464682,
       39.98330895892727
      ],
      [
       116.3470132799077,
       39.98334491121291
      ],
      [
       116.3469958625171,
       39.983382357094314
      ],
      [
       116.34698330022077,
       39.98342093594935
      ],
      [
       116.34697571400821,
       39.983460276244166
      ],
      [
       116.34697317694712,
       39.98349999911128
      ],
      [
       116.34697310011742,
       39.9934999984937
      ],
      [
       116.34697563694105,
       39.993539721315265
      ]
     ]
    ]
   },
   "id": "CON-CONFLICT-0301"
  },
  {
   "type": "Feature",
   "properties": {
    "id": "CON-HERITAGE-RAIL",
    "layer": "CONSTRAINT",
    "constraint_type": "heritage",
    "name_zh": "京张铁路遗址文化资源提示带",
    "limitation_zh": "遗址具体保护范围与等级须以文物主管部门公布的正式文件为准，本图仅为设计提示",
    "source_type": "agent_generated_design",
    "confidence": "low",
    "geometry_role": "analysis_helper",
    "official_boundary": false,
    "area_sqm_declared": 777269.8
   },
   "geometry": {
    "type": "Polygon",
    "coordinates": [
     [
      [
       116.34703141915091,
       40.0265
      ],
      [
       116.34796858108865,
       40.0265
      ],
      [
       116.34796798369625,
       39.939
      ],
      [
       116.34703201642238,
       39.939
      ],
      [
       116.34703201632944,
       39.93900000145626
      ],
      [
       116.34703141893706,
       40.02649999665283
      ],
      [
       116.34703141915091,
       40.0265
      ]
     ]
    ]
   },
   "id": "CON-HERITAGE-RAIL"
  }
 ]
}