{
  "type": "FeatureCollection",
  "name": "constraints",
  "crs": {
    "type": "name",
    "properties": { "name": "urn:ogc:def:crs:OGC:1.3:CRS84" }
  },
  "features": [
    {
      "type": "Feature",
      "id": "CON-001",
      "properties": {
        "id": "CON-001",
        "layer": "REGULATORY_CONTROL",
        "constraint_type": "heritage_protection_line",
        "name_zh": "京张铁路遗址保护线",
        "source_type": "agent_inferred_from_public_data",
        "confidence": "medium",
        "geometry_role": "existing_condition"
      },
      "geometry": {
        "type": "LineString",
        "coordinates": [
          [116.3475, 39.939],
          [116.3472, 39.950],
          [116.3470, 39.960],
          [116.3468, 39.970],
          [116.3470, 39.980],
          [116.3472, 39.990],
          [116.3475, 40.000],
          [116.3478, 40.010],
          [116.3480, 40.020],
          [116.3480, 40.0265]
        ]
      }
    },
    {
      "type": "Feature",
      "id": "CON-002",
      "properties": {
        "id": "CON-002",
        "layer": "REGULATORY_CONTROL",
        "constraint_type": "waterway_blue_line",
        "name_zh": "小月河蓝线",
        "source_type": "agent_inferred_from_public_data",
        "confidence": "medium",
        "geometry_role": "existing_condition"
      },
      "geometry": {
        "type": "Polygon",
        "coordinates": [[
          [116.3395, 39.939],
          [116.3405, 39.939],
          [116.3400, 39.965],
          [116.3397, 39.975],
          [116.3415, 40.006],
          [116.3425, 40.0265],
          [116.3415, 40.0265],
          [116.3405, 40.006],
          [116.3387, 39.975],
          [116.3390, 39.965],
          [116.3395, 39.939]
        ]]
      }
    },
    {
      "type": "Feature",
      "id": "CON-003",
      "properties": {
        "id": "CON-003",
        "layer": "REGULATORY_CONTROL",
        "constraint_type": "metro_buffer",
        "name_zh": "地铁13号线防护范围",
        "source_type": "agent_inferred_from_public_data",
        "confidence": "medium",
        "geometry_role": "existing_condition"
      },
      "geometry": {
        "type": "Polygon",
        "coordinates": [[
          [116.3545, 39.939],
          [116.3560, 39.939],
          [116.3560, 39.965],
          [116.3545, 39.965],
          [116.3545, 39.939]
        ]]
      }
    },
    {
      "type": "Feature",
      "id": "CON-004",
      "properties": {
        "id": "CON-004",
        "layer": "REGULATORY_CONTROL",
        "constraint_type": "green_buffer",
        "name_zh": "五环路防护绿带",
        "source_type": "agent_inferred_from_public_data",
        "confidence": "medium",
        "geometry_role": "existing_condition"
      },
      "geometry": {
        "type": "Polygon",
        "coordinates": [[
          [116.3400, 40.0240],
          [116.3560, 40.0240],
          [116.3560, 40.0265],
          [116.3427, 40.0265],
          [116.3400, 40.0240]
        ]]
      }
    }
  ]
}
