{
  "type": "FeatureCollection",
  "name": "green_space",
  "crs": {
    "type": "name",
    "properties": { "name": "urn:ogc:def:crs:OGC:1.3:CRS84" }
  },
  "features": [
    {
      "type": "Feature",
      "id": "GS-001",
      "properties": {
        "id": "GS-001",
        "layer": "GREEN_SPACE",
        "name_zh": "京张遗址公园核心绿带",
        "green_type": "heritage_park",
        "source_type": "agent_generated_design",
        "confidence": "medium",
        "geometry_role": "design_proposal",
        "area_sqm_declared": 520000
      },
      "geometry": {
        "type": "Polygon",
        "coordinates": [[
          [116.3465, 39.939],
          [116.3485, 39.939],
          [116.3483, 39.955],
          [116.3480, 39.970],
          [116.3475, 39.985],
          [116.3475, 40.000],
          [116.3480, 40.015],
          [116.3490, 40.0265],
          [116.3470, 40.0265],
          [116.3460, 40.015],
          [116.3455, 40.000],
          [116.3455, 39.985],
          [116.3460, 39.970],
          [116.3463, 39.955],
          [116.3465, 39.939]
        ]]
      }
    },
    {
      "type": "Feature",
      "id": "GS-002",
      "properties": {
        "id": "GS-002",
        "layer": "GREEN_SPACE",
        "name_zh": "原点社区中央公园",
        "green_type": "community_park",
        "source_type": "agent_generated_design",
        "confidence": "medium",
        "geometry_role": "design_proposal",
        "area_sqm_declared": 32000
      },
      "geometry": {
        "type": "Polygon",
        "coordinates": [[
          [116.3440, 39.9865],
          [116.3460, 39.9865],
          [116.3460, 39.9885],
          [116.3440, 39.9885],
          [116.3440, 39.9865]
        ]]
      }
    },
    {
      "type": "Feature",
      "id": "GS-003",
      "properties": {
        "id": "GS-003",
        "layer": "GREEN_SPACE",
        "name_zh": "众智园中央绿地",
        "green_type": "community_park",
        "source_type": "agent_generated_design",
        "confidence": "medium",
        "geometry_role": "design_proposal",
        "area_sqm_declared": 45000
      },
      "geometry": {
        "type": "Polygon",
        "coordinates": [[
          [116.3455, 40.0120],
          [116.3480, 40.0120],
          [116.3480, 40.0145],
          [116.3455, 40.0145],
          [116.3455, 40.0120]
        ]]
      }
    },
    {
      "type": "Feature",
      "id": "GS-004",
      "properties": {
        "id": "GS-004",
        "layer": "GREEN_SPACE",
        "name_zh": "大钟寺遗址绿地",
        "green_type": "heritage_green",
        "source_type": "agent_generated_design",
        "confidence": "medium",
        "geometry_role": "design_proposal",
        "area_sqm_declared": 18000
      },
      "geometry": {
        "type": "Polygon",
        "coordinates": [[
          [116.3440, 39.9455],
          [116.3458, 39.9455],
          [116.3458, 39.9475],
          [116.3440, 39.9475],
          [116.3440, 39.9455]
        ]]
      }
    },
    {
      "type": "Feature",
      "id": "GS-005",
      "properties": {
        "id": "GS-005",
        "layer": "GREEN_SPACE",
        "name_zh": "高校周边防护绿地",
        "green_type": "buffer_green",
        "source_type": "agent_generated_design",
        "confidence": "medium",
        "geometry_role": "design_proposal",
        "area_sqm_declared": 25000
      },
      "geometry": {
        "type": "Polygon",
        "coordinates": [[
          [116.3400, 39.9950],
          [116.3415, 39.9950],
          [116.3420, 40.0100],
          [116.3405, 40.0100],
          [116.3400, 39.9950]
        ]]
      }
    },
    {
      "type": "Feature",
      "id": "GS-006",
      "properties": {
        "id": "GS-006",
        "layer": "GREEN_SPACE",
        "name_zh": "原点口袋公园",
        "green_type": "pocket_park",
        "source_type": "agent_generated_design",
        "confidence": "medium",
        "geometry_role": "design_proposal",
        "area_sqm_declared": 3500
      },
      "geometry": {
        "type": "Polygon",
        "coordinates": [[
          [116.3490, 39.9890],
          [116.3498, 39.9890],
          [116.3498, 39.9898],
          [116.3490, 39.9898],
          [116.3490, 39.9890]
        ]]
      }
    },
    {
      "type": "Feature",
      "id": "GS-007",
      "properties": {
        "id": "GS-007",
        "layer": "GREEN_SPACE",
        "name_zh": "众智园口袋公园",
        "green_type": "pocket_park",
        "source_type": "agent_generated_design",
        "confidence": "medium",
        "geometry_role": "design_proposal",
        "area_sqm_declared": 4200
      },
      "geometry": {
        "type": "Polygon",
        "coordinates": [[
          [116.3510, 40.0180],
          [116.3518, 40.0180],
          [116.3518, 40.0188],
          [116.3510, 40.0188],
          [116.3510, 40.0180]
        ]]
      }
    },
    {
      "type": "Feature",
      "id": "GS-008",
      "properties": {
        "id": "GS-008",
        "layer": "GREEN_SPACE",
        "name_zh": "大钟寺口袋公园",
        "green_type": "pocket_park",
        "source_type": "agent_generated_design",
        "confidence": "medium",
        "geometry_role": "design_proposal",
        "area_sqm_declared": 2800
      },
      "geometry": {
        "type": "Polygon",
        "coordinates": [[
          [116.3510, 39.9485],
          [116.3518, 39.9485],
          [116.3518, 39.9493],
          [116.3510, 39.9493],
          [116.3510, 39.9485]
        ]]
      }
    }
  ]
}
