{
  "type": "FeatureCollection",
  "name": "land_use",
  "crs": {
    "type": "name",
    "properties": { "name": "urn:ogc:def:crs:OGC:1.3:CRS84" }
  },
  "features": [
    {
      "type": "Feature",
      "id": "LU-001",
      "properties": {
        "id": "LU-001",
        "layer": "LAND_USE",
        "land_use_code": "0702",
        "name_zh": "创新社区用地",
        "name_en": "Innovation Community Land",
        "source_type": "agent_generated_design",
        "confidence": "medium",
        "geometry_role": "analysis_helper",
        "area_sqm_declared": 1199000
      },
      "geometry": {
        "type": "Polygon",
        "coordinates": [[
          [116.3407, 39.939],
          [116.3430, 39.939],
          [116.3422, 39.965],
          [116.3402, 39.965],
          [116.3407, 39.939]
        ]]
      }
    },
    {
      "type": "Feature",
      "id": "LU-002",
      "properties": {
        "id": "LU-002",
        "layer": "LAND_USE",
        "land_use_code": "1401",
        "name_zh": "遗址公园绿地（南段）",
        "name_en": "Heritage Park Green Belt (South)",
        "source_type": "agent_generated_design",
        "confidence": "medium",
        "geometry_role": "analysis_helper",
        "area_sqm_declared": 1558000
      },
      "geometry": {
        "type": "Polygon",
        "coordinates": [[
          [116.3430, 39.939],
          [116.3460, 39.939],
          [116.3450, 39.965],
          [116.3422, 39.965],
          [116.3430, 39.939]
        ]]
      }
    },
    {
      "type": "Feature",
      "id": "LU-003",
      "properties": {
        "id": "LU-003",
        "layer": "LAND_USE",
        "land_use_code": "16",
        "name_zh": "混合功能用地（南）",
        "name_en": "Mixed-Use Land (South)",
        "source_type": "agent_generated_design",
        "confidence": "medium",
        "geometry_role": "analysis_helper",
        "area_sqm_declared": 1877000
      },
      "geometry": {
        "type": "Polygon",
        "coordinates": [[
          [116.3460, 39.939],
          [116.3490, 39.939],
          [116.3480, 39.965],
          [116.3450, 39.965],
          [116.3460, 39.939]
        ]]
      }
    },
    {
      "type": "Feature",
      "id": "LU-004",
      "properties": {
        "id": "LU-004",
        "layer": "LAND_USE",
        "land_use_code": "0701",
        "name_zh": "产业融合用地（南）",
        "name_en": "Industry Integration Land (South)",
        "source_type": "agent_generated_design",
        "confidence": "medium",
        "geometry_role": "analysis_helper",
        "area_sqm_declared": 1877000
      },
      "geometry": {
        "type": "Polygon",
        "coordinates": [[
          [116.3490, 39.939],
          [116.3520, 39.939],
          [116.3512, 39.965],
          [116.3480, 39.965],
          [116.3490, 39.939]
        ]]
      }
    },
    {
      "type": "Feature",
      "id": "LU-005",
      "properties": {
        "id": "LU-005",
        "layer": "LAND_USE",
        "land_use_code": "05",
        "name_zh": "商业服务用地",
        "name_en": "Commercial Service Land",
        "source_type": "agent_generated_design",
        "confidence": "medium",
        "geometry_role": "analysis_helper",
        "area_sqm_declared": 1414000
      },
      "geometry": {
        "type": "Polygon",
        "coordinates": [[
          [116.3520, 39.939],
          [116.3553, 39.939],
          [116.3553, 39.965],
          [116.3512, 39.965],
          [116.3520, 39.939]
        ]]
      }
    },
    {
      "type": "Feature",
      "id": "LU-006",
      "properties": {
        "id": "LU-006",
        "layer": "LAND_USE",
        "land_use_code": "0701",
        "name_zh": "产业融合用地（中）",
        "name_en": "Industry Integration Land (Central)",
        "source_type": "agent_generated_design",
        "confidence": "medium",
        "geometry_role": "analysis_helper",
        "area_sqm_declared": 1166000
      },
      "geometry": {
        "type": "Polygon",
        "coordinates": [[
          [116.3402, 39.965],
          [116.3422, 39.965],
          [116.3415, 39.990],
          [116.3400, 39.990],
          [116.3402, 39.965]
        ]]
      }
    },
    {
      "type": "Feature",
      "id": "LU-007",
      "properties": {
        "id": "LU-007",
        "layer": "LAND_USE",
        "land_use_code": "1401",
        "name_zh": "遗址公园绿地（中段）",
        "name_en": "Heritage Park Green Belt (Central)",
        "source_type": "agent_generated_design",
        "confidence": "medium",
        "geometry_role": "analysis_helper",
        "area_sqm_declared": 1519000
      },
      "geometry": {
        "type": "Polygon",
        "coordinates": [[
          [116.3422, 39.965],
          [116.3450, 39.965],
          [116.3443, 39.990],
          [116.3415, 39.990],
          [116.3422, 39.965]
        ]]
      }
    },
    {
      "type": "Feature",
      "id": "LU-008",
      "properties": {
        "id": "LU-008",
        "layer": "LAND_USE",
        "land_use_code": "16",
        "name_zh": "混合功能用地（中）",
        "name_en": "Mixed-Use Land (Central)",
        "source_type": "agent_generated_design",
        "confidence": "medium",
        "geometry_role": "analysis_helper",
        "area_sqm_declared": 2710000
      },
      "geometry": {
        "type": "Polygon",
        "coordinates": [[
          [116.3450, 39.965],
          [116.3512, 39.965],
          [116.3533, 39.990],
          [116.3443, 39.990],
          [116.3450, 39.965]
        ]]
      }
    },
    {
      "type": "Feature",
      "id": "LU-009",
      "properties": {
        "id": "LU-009",
        "layer": "LAND_USE",
        "land_use_code": "0802",
        "name_zh": "教育科研用地",
        "name_en": "Education and Research Land",
        "source_type": "agent_generated_design",
        "confidence": "medium",
        "geometry_role": "analysis_helper",
        "area_sqm_declared": 196000
      },
      "geometry": {
        "type": "Polygon",
        "coordinates": [[
          [116.3400, 39.990],
          [116.3415, 39.990],
          [116.3427, 40.0265],
          [116.3400, 39.990]
        ]]
      }
    },
    {
      "type": "Feature",
      "id": "LU-010",
      "properties": {
        "id": "LU-010",
        "layer": "LAND_USE",
        "land_use_code": "0701",
        "name_zh": "研发办公用地（西）",
        "name_en": "R&D Office Land (West)",
        "source_type": "agent_generated_design",
        "confidence": "medium",
        "geometry_role": "analysis_helper",
        "area_sqm_declared": 1244000
      },
      "geometry": {
        "type": "Polygon",
        "coordinates": [[
          [116.3415, 39.990],
          [116.3443, 39.990],
          [116.3450, 40.0265],
          [116.3427, 40.0265],
          [116.3415, 39.990]
        ]]
      }
    },
    {
      "type": "Feature",
      "id": "LU-011",
      "properties": {
        "id": "LU-011",
        "layer": "LAND_USE",
        "land_use_code": "0701",
        "name_zh": "研发办公用地（东）",
        "name_en": "R&D Office Land (East)",
        "source_type": "agent_generated_design",
        "confidence": "medium",
        "geometry_role": "analysis_helper",
        "area_sqm_declared": 1244000
      },
      "geometry": {
        "type": "Polygon",
        "coordinates": [[
          [116.3443, 39.990],
          [116.3470, 39.990],
          [116.3473, 40.0265],
          [116.3450, 40.0265],
          [116.3443, 39.990]
        ]]
      }
    },
    {
      "type": "Feature",
      "id": "LU-012",
      "properties": {
        "id": "LU-012",
        "layer": "LAND_USE",
        "land_use_code": "1401",
        "name_zh": "遗址公园绿地（北段）",
        "name_en": "Heritage Park Green Belt (North)",
        "source_type": "agent_generated_design",
        "confidence": "medium",
        "geometry_role": "analysis_helper",
        "area_sqm_declared": 1640000
      },
      "geometry": {
        "type": "Polygon",
        "coordinates": [[
          [116.3470, 39.990],
          [116.3490, 39.990],
          [116.3495, 40.0265],
          [116.3473, 40.0265],
          [116.3470, 39.990]
        ]]
      }
    },
    {
      "type": "Feature",
      "id": "LU-013",
      "properties": {
        "id": "LU-013",
        "layer": "LAND_USE",
        "land_use_code": "16",
        "name_zh": "混合功能用地（北）",
        "name_en": "Mixed-Use Land (North)",
        "source_type": "agent_generated_design",
        "confidence": "medium",
        "geometry_role": "analysis_helper",
        "area_sqm_declared": 2865000
      },
      "geometry": {
        "type": "Polygon",
        "coordinates": [[
          [116.3490, 39.990],
          [116.3533, 39.990],
          [116.3533, 39.9935],
          [116.3553, 40.0265],
          [116.3495, 40.0265],
          [116.3490, 39.990]
        ]]
      }
    }
  ]
}
