{
  "type": "FeatureCollection",
  "name": "phasing",
  "crs": {
    "type": "name",
    "properties": { "name": "urn:ogc:def:crs:OGC:1.3:CRS84" }
  },
  "features": [
    {
      "type": "Feature",
      "properties": {
        "id": "PH-001",
        "layer": "PHASE",
        "phase_name_zh": "一期（AI原点社区核心启动区）",
        "phase_period": "2026-2030",
        "source_type": "agent_generated",
        "confidence": "medium",
        "geometry_role": "design_phasing",
        "area_sqm_declared": 12540000
      },
      "geometry": {
        "type": "Polygon",
        "coordinates": [[
          [116.3407, 39.939],
          [116.3553, 39.939],
          [116.3553, 39.965],
          [116.3402, 39.965],
          [116.3407, 39.939]
        ]]
      }
    },
    {
      "type": "Feature",
      "properties": {
        "id": "PH-002",
        "layer": "PHASE",
        "phase_name_zh": "二期（众智园+大钟寺）",
        "phase_period": "2030-2035",
        "source_type": "agent_generated",
        "confidence": "medium",
        "geometry_role": "design_phasing",
        "area_sqm_declared": 58470000
      },
      "geometry": {
        "type": "Polygon",
        "coordinates": [[
          [116.3402, 39.965],
          [116.3553, 39.965],
          [116.3533, 39.99],
          [116.3553, 40.0265],
          [116.3427, 40.0265],
          [116.3415, 39.99],
          [116.3402, 39.965]
        ]]
      }
    },
    {
      "type": "Feature",
      "properties": {
        "id": "PH-003",
        "layer": "PHASE",
        "phase_name_zh": "三期（全域完善）",
        "phase_period": "2035-2040",
        "source_type": "agent_generated",
        "confidence": "medium",
        "geometry_role": "design_phasing",
        "area_sqm_declared": 41750000
      },
      "geometry": {
        "type": "Polygon",
        "coordinates": [[
          [116.3415, 39.99],
          [116.3427, 40.0265],
          [116.3553, 40.0265],
          [116.3533, 39.99],
          [116.3415, 39.99]
        ]]
      }
    }
  ]
}
