{
  "type": "FeatureCollection",
  "name": "public_space",
  "crs": {
    "type": "name",
    "properties": { "name": "urn:ogc:def:crs:OGC:1.3:CRS84" }
  },
  "features": [
    {
      "type": "Feature",
      "properties": {
        "id": "PS-001",
        "layer": "PUBLIC_SPACE",
        "name_zh": "京张智门广场",
        "space_type": "entrance_plaza",
        "source_type": "agent_generated",
        "confidence": "medium",
        "geometry_role": "design_proposal",
        "area_sqm_declared": 6000
      },
      "geometry": {
        "type": "Polygon",
        "coordinates": [[
          [116.3460, 40.0230],
          [116.3480, 40.0230],
          [116.3480, 40.0250],
          [116.3460, 40.0250],
          [116.3460, 40.0230]
        ]]
      }
    },
    {
      "type": "Feature",
      "properties": {
        "id": "PS-002",
        "layer": "PUBLIC_SPACE",
        "name_zh": "原点广场",
        "space_type": "central_plaza",
        "source_type": "agent_generated",
        "confidence": "medium",
        "geometry_role": "design_proposal",
        "area_sqm_declared": 12000
      },
      "geometry": {
        "type": "Polygon",
        "coordinates": [[
          [116.3462, 39.9875],
          [116.3478, 39.9875],
          [116.3478, 39.9895],
          [116.3462, 39.9895],
          [116.3462, 39.9875]
        ]]
      }
    },
    {
      "type": "Feature",
      "properties": {
        "id": "PS-003",
        "layer": "PUBLIC_SPACE",
        "name_zh": "百年智廊",
        "space_type": "exhibition_corridor",
        "source_type": "agent_generated",
        "confidence": "medium",
        "geometry_role": "design_proposal",
        "area_sqm_declared": 8500
      },
      "geometry": {
        "type": "Polygon",
        "coordinates": [[
          [116.3470, 39.9500],
          [116.3478, 39.9500],
          [116.3478, 39.9600],
          [116.3476, 39.9700],
          [116.3474, 39.9800],
          [116.3470, 39.9800],
          [116.3472, 39.9700],
          [116.3474, 39.9600],
          [116.3470, 39.9500]
        ]]
      }
    },
    {
      "type": "Feature",
      "properties": {
        "id": "PS-004",
        "layer": "PUBLIC_SPACE",
        "name_zh": "众智穹顶广场",
        "space_type": "dome_plaza",
        "source_type": "agent_generated",
        "confidence": "medium",
        "geometry_role": "design_proposal",
        "area_sqm_declared": 8000
      },
      "geometry": {
        "type": "Polygon",
        "coordinates": [[
          [116.3470, 40.0150],
          [116.3485, 40.0150],
          [116.3485, 40.0165],
          [116.3470, 40.0165],
          [116.3470, 40.0150]
        ]]
      }
    },
    {
      "type": "Feature",
      "properties": {
        "id": "PS-005",
        "layer": "PUBLIC_SPACE",
        "name_zh": "大钟寺AI活力广场",
        "space_type": "activity_plaza",
        "source_type": "agent_generated",
        "confidence": "medium",
        "geometry_role": "design_proposal",
        "area_sqm_declared": 10000
      },
      "geometry": {
        "type": "Polygon",
        "coordinates": [[
          [116.3460, 39.9460],
          [116.3475, 39.9460],
          [116.3475, 39.9475],
          [116.3460, 39.9475],
          [116.3460, 39.9460]
        ]]
      }
    }
  ]
}
