{
  "type": "FeatureCollection",
  "name": "site_boundary",
  "crs": {
    "type": "name",
    "properties": { "name": "urn:ogc:def:crs:OGC:1.3:CRS84" }
  },
  "features": [
    {
      "type": "Feature",
      "id": "SITE-001",
      "properties": {
        "id": "SITE-001",
        "layer": "SITE_BOUNDARY",
        "name_zh": "总体设计范围",
        "source_type": "agent_inferred_from_public_data",
        "confidence": "medium",
        "geometry_role": "provisional_constraint",
        "official_boundary": false,
        "boundary_precision": "provisional_rough",
        "area_sqm_declared": 11400000
      },
      "geometry": {
        "type": "Polygon",
        "coordinates": [[
          [116.3407, 39.939],
          [116.3553, 39.939],
          [116.3553, 39.965],
          [116.3533, 39.99],
          [116.3553, 40.0265],
          [116.3427, 40.0265],
          [116.3417, 40.006],
          [116.3397, 39.975],
          [116.3407, 39.939]
        ]]
      }
    },
    {
      "type": "Feature",
      "id": "SITE-002",
      "properties": {
        "id": "SITE-002",
        "layer": "SITE_BOUNDARY",
        "name_zh": "统筹研究范围",
        "source_type": "agent_inferred_from_public_data",
        "confidence": "medium",
        "geometry_role": "provisional_constraint",
        "official_boundary": false,
        "boundary_precision": "provisional_rough",
        "area_sqm_declared": 43600000
      },
      "geometry": {
        "type": "Polygon",
        "coordinates": [[
          [116.31885, 39.938],
          [116.36615, 39.938],
          [116.37215, 39.965],
          [116.37215, 40.027],
          [116.33285, 40.027],
          [116.32085, 40.0],
          [116.31285, 39.965],
          [116.31885, 39.938]
        ]]
      }
    },
    {
      "type": "Feature",
      "id": "SITE-003",
      "properties": {
        "id": "SITE-003",
        "layer": "SITE_BOUNDARY",
        "name_zh": "京张铁路遗址轴线",
        "source_type": "agent_inferred_from_public_data",
        "confidence": "medium",
        "geometry_role": "provisional_constraint",
        "official_boundary": false,
        "boundary_precision": "provisional_rough",
        "area_sqm_declared": 1940000
      },
      "geometry": {
        "type": "Polygon",
        "coordinates": [[
          [116.3468, 39.939],
          [116.3492, 39.939],
          [116.3492, 39.975],
          [116.3487, 39.99],
          [116.3492, 40.0265],
          [116.3468, 40.0265],
          [116.3473, 39.99],
          [116.3468, 39.975],
          [116.3468, 39.939]
        ]]
      }
    }
  ]
}
