{
  "type": "FeatureCollection",
  "name": "jzoi_gate_b_blue_green_heritage",
  "features": [
    {
      "type": "Feature",
      "id": "BGH-BG-EX-WATER-001",
      "properties": {
        "id": "BGH-BG-EX-WATER-001",
        "semantic_class": "background_blue_green_heritage",
        "evidence_class": "APPROXIMATED_CONTEXT",
        "design_status": "background_reference",
        "geometry_role": "context_evidence",
        "host_scope": "OVERALL-DESIGN-001",
        "source_feature_id": "EX-WATER-001",
        "source_ids": [
          "BG-OSM-OVERPASS"
        ],
        "exact_boundary_claim": false
      },
      "geometry": {
        "type": "Point",
        "coordinates": [
          116.345,
          40.021
        ]
      }
    },
    {
      "type": "Feature",
      "id": "BGH-BG-EX-WATER-002",
      "properties": {
        "id": "BGH-BG-EX-WATER-002",
        "semantic_class": "background_blue_green_heritage",
        "evidence_class": "APPROXIMATED_CONTEXT",
        "design_status": "background_reference",
        "geometry_role": "context_evidence",
        "host_scope": "OVERALL-DESIGN-001",
        "source_feature_id": "EX-WATER-002",
        "source_ids": [
          "BG-OSM-OVERPASS"
        ],
        "exact_boundary_claim": false
      },
      "geometry": {
        "type": "Point",
        "coordinates": [
          116.359,
          39.981
        ]
      }
    },
    {
      "type": "Feature",
      "id": "BGH-BG-EX-RAIL-001",
      "properties": {
        "id": "BGH-BG-EX-RAIL-001",
        "semantic_class": "background_blue_green_heritage",
        "evidence_class": "APPROXIMATED_CONTEXT",
        "design_status": "background_reference",
        "geometry_role": "context_evidence",
        "host_scope": "OVERALL-DESIGN-001",
        "source_feature_id": "EX-RAIL-001",
        "source_ids": [
          "BG-OSM-OVERPASS",
          "OFFICIAL-ANNOUNCEMENT"
        ],
        "exact_boundary_claim": false
      },
      "geometry": {
        "type": "Point",
        "coordinates": [
          116.3328,
          39.9827
        ]
      }
    },
    {
      "type": "Feature",
      "id": "BGH-BG-EX-RAIL-002",
      "properties": {
        "id": "BGH-BG-EX-RAIL-002",
        "semantic_class": "background_blue_green_heritage",
        "evidence_class": "APPROXIMATED_CONTEXT",
        "design_status": "background_reference",
        "geometry_role": "context_evidence",
        "host_scope": "OVERALL-DESIGN-001",
        "source_feature_id": "EX-RAIL-002",
        "source_ids": [
          "BG-OSM-OVERPASS"
        ],
        "exact_boundary_claim": false
      },
      "geometry": {
        "type": "Point",
        "coordinates": [
          116.3256,
          39.9902
        ]
      }
    },
    {
      "type": "Feature",
      "id": "BGH-QINGHE-RAIN-EDGE",
      "properties": {
        "id": "BGH-QINGHE-RAIN-EDGE",
        "semantic_class": "proposed_blue_green_heritage",
        "evidence_class": "DESIGN TARGET",
        "design_status": "concept",
        "geometry_role": "design_proposal",
        "host_scope": "OVERALL-DESIGN-001",
        "system_class": "rainwater_ecology",
        "endpoint_refs": [
          "ZZY"
        ],
        "statutory_green_claim": false,
        "water_boundary_claim": false,
        "functions": [
          "public realm",
          "walking/cycling support",
          "rainwater/ecology intent"
        ]
      },
      "geometry": {
        "type": "Polygon",
        "coordinates": [
          [
            [
              116.3433,
              40.0208
            ],
            [
              116.3537,
              40.0208
            ],
            [
              116.3537,
              40.022
            ],
            [
              116.3433,
              40.022
            ],
            [
              116.3433,
              40.0208
            ]
          ]
        ]
      }
    },
    {
      "type": "Feature",
      "id": "BGH-XIAOYUEHE-SCENARIO-SPINE",
      "properties": {
        "id": "BGH-XIAOYUEHE-SCENARIO-SPINE",
        "semantic_class": "proposed_blue_green_heritage",
        "evidence_class": "DESIGN TARGET",
        "design_status": "concept",
        "geometry_role": "design_proposal",
        "host_scope": "OVERALL-DESIGN-001",
        "system_class": "ecology_scenario",
        "endpoint_refs": [
          "ORG",
          "ZZY"
        ],
        "statutory_green_claim": false,
        "water_boundary_claim": false,
        "functions": [
          "public realm",
          "walking/cycling support",
          "rainwater/ecology intent"
        ]
      },
      "geometry": {
        "type": "LineString",
        "coordinates": [
          [
            116.353,
            39.976
          ],
          [
            116.352,
            39.9885
          ],
          [
            116.353,
            40.002
          ]
        ]
      }
    },
    {
      "type": "Feature",
      "id": "BGH-JINGZHANG-PUBLIC-SEQUENCE",
      "properties": {
        "id": "BGH-JINGZHANG-PUBLIC-SEQUENCE",
        "semantic_class": "proposed_blue_green_heritage",
        "evidence_class": "DESIGN TARGET",
        "design_status": "concept",
        "geometry_role": "design_proposal",
        "host_scope": "OVERALL-DESIGN-001",
        "system_class": "heritage_public_sequence",
        "endpoint_refs": [
          "DZS",
          "ORG",
          "ZZY"
        ],
        "statutory_green_claim": false,
        "water_boundary_claim": false,
        "functions": [
          "public realm",
          "walking/cycling support",
          "rainwater/ecology intent"
        ]
      },
      "geometry": {
        "type": "LineString",
        "coordinates": [
          [
            116.346,
            39.9452
          ],
          [
            116.345,
            39.972
          ],
          [
            116.3475,
            39.9885
          ],
          [
            116.3485,
            40.0165
          ]
        ]
      }
    },
    {
      "type": "Feature",
      "id": "BGH-DZS-CIVIC-RAIN-ROOM",
      "properties": {
        "id": "BGH-DZS-CIVIC-RAIN-ROOM",
        "semantic_class": "proposed_blue_green_heritage",
        "evidence_class": "DESIGN TARGET",
        "design_status": "concept",
        "geometry_role": "design_proposal",
        "host_scope": "OVERALL-DESIGN-001",
        "system_class": "rainwater_public_room",
        "endpoint_refs": [
          "DZS"
        ],
        "statutory_green_claim": false,
        "water_boundary_claim": false,
        "functions": [
          "public realm",
          "walking/cycling support",
          "rainwater/ecology intent"
        ]
      },
      "geometry": {
        "type": "Polygon",
        "coordinates": [
          [
            [
              116.3464,
              39.9462
            ],
            [
              116.3496,
              39.9462
            ],
            [
              116.3496,
              39.9477
            ],
            [
              116.3464,
              39.9477
            ],
            [
              116.3464,
              39.9462
            ]
          ]
        ]
      }
    },
    {
      "type": "Feature",
      "id": "BGH-ORG-COMMONS-GARDEN",
      "properties": {
        "id": "BGH-ORG-COMMONS-GARDEN",
        "semantic_class": "proposed_blue_green_heritage",
        "evidence_class": "DESIGN TARGET",
        "design_status": "concept",
        "geometry_role": "design_proposal",
        "host_scope": "OVERALL-DESIGN-001",
        "system_class": "commons_garden",
        "endpoint_refs": [
          "ORG"
        ],
        "statutory_green_claim": false,
        "water_boundary_claim": false,
        "functions": [
          "public realm",
          "walking/cycling support",
          "rainwater/ecology intent"
        ]
      },
      "geometry": {
        "type": "Polygon",
        "coordinates": [
          [
            [
              116.3455,
              39.9875
            ],
            [
              116.3495,
              39.9875
            ],
            [
              116.3495,
              39.9895
            ],
            [
              116.3455,
              39.9895
            ],
            [
              116.3455,
              39.9875
            ]
          ]
        ]
      }
    },
    {
      "type": "Feature",
      "id": "BGH-ZZY-OBSERVATION-WETLAND",
      "properties": {
        "id": "BGH-ZZY-OBSERVATION-WETLAND",
        "semantic_class": "proposed_blue_green_heritage",
        "evidence_class": "DESIGN TARGET",
        "design_status": "concept",
        "geometry_role": "design_proposal",
        "host_scope": "OVERALL-DESIGN-001",
        "system_class": "safety_ecology_buffer",
        "endpoint_refs": [
          "ZZY"
        ],
        "statutory_green_claim": false,
        "water_boundary_claim": false,
        "functions": [
          "public realm",
          "walking/cycling support",
          "rainwater/ecology intent"
        ]
      },
      "geometry": {
        "type": "Polygon",
        "coordinates": [
          [
            [
              116.3462,
              40.0182
            ],
            [
              116.3508,
              40.0182
            ],
            [
              116.3508,
              40.0195
            ],
            [
              116.3462,
              40.0195
            ],
            [
              116.3462,
              40.0182
            ]
          ]
        ]
      }
    },
    {
      "type": "Feature",
      "id": "BGH-SOUTH-RAIN-STITCH",
      "properties": {
        "id": "BGH-SOUTH-RAIN-STITCH",
        "semantic_class": "proposed_blue_green_heritage",
        "evidence_class": "DESIGN TARGET",
        "design_status": "concept",
        "geometry_role": "design_proposal",
        "host_scope": "OVERALL-DESIGN-001",
        "system_class": "rainwater_stitch",
        "endpoint_refs": [
          "OVERALL"
        ],
        "statutory_green_claim": false,
        "water_boundary_claim": false,
        "functions": [
          "public realm",
          "walking/cycling support",
          "rainwater/ecology intent"
        ]
      },
      "geometry": {
        "type": "LineString",
        "coordinates": [
          [
            116.3418,
            39.955
          ],
          [
            116.3538,
            39.955
          ]
        ]
      }
    },
    {
      "type": "Feature",
      "id": "BGH-CENTRAL-RAIN-STITCH",
      "properties": {
        "id": "BGH-CENTRAL-RAIN-STITCH",
        "semantic_class": "proposed_blue_green_heritage",
        "evidence_class": "DESIGN TARGET",
        "design_status": "concept",
        "geometry_role": "design_proposal",
        "host_scope": "OVERALL-DESIGN-001",
        "system_class": "rainwater_stitch",
        "endpoint_refs": [
          "OVERALL"
        ],
        "statutory_green_claim": false,
        "water_boundary_claim": false,
        "functions": [
          "public realm",
          "walking/cycling support",
          "rainwater/ecology intent"
        ]
      },
      "geometry": {
        "type": "LineString",
        "coordinates": [
          [
            116.3418,
            39.98
          ],
          [
            116.353,
            39.98
          ]
        ]
      }
    },
    {
      "type": "Feature",
      "id": "BGH-NORTH-RAIN-STITCH",
      "properties": {
        "id": "BGH-NORTH-RAIN-STITCH",
        "semantic_class": "proposed_blue_green_heritage",
        "evidence_class": "DESIGN TARGET",
        "design_status": "concept",
        "geometry_role": "design_proposal",
        "host_scope": "OVERALL-DESIGN-001",
        "system_class": "rainwater_stitch",
        "endpoint_refs": [
          "OVERALL"
        ],
        "statutory_green_claim": false,
        "water_boundary_claim": false,
        "functions": [
          "public realm",
          "walking/cycling support",
          "rainwater/ecology intent"
        ]
      },
      "geometry": {
        "type": "LineString",
        "coordinates": [
          [
            116.3432,
            40.006
          ],
          [
            116.3538,
            40.006
          ]
        ]
      }
    }
  ]
}
