{
  "type": "FeatureCollection",
  "name": "jzoi_gate_b_components",
  "features": [
    {
      "type": "Feature",
      "id": "COMP-IF-MARK",
      "properties": {
        "id": "COMP-IF-MARK",
        "semantic_class": "spatial_component",
        "evidence_class": "DESIGN TARGET",
        "design_status": "concept",
        "geometry_role": "design_proposal",
        "host_scope": "OVERALL-DESIGN-001",
        "component_family": "IF-MARK",
        "where_used": [
          "DZS",
          "ORG",
          "ZZY"
        ],
        "dimensions_concept": "900 mm wide x 2200 mm high marker; concept dimension",
        "clearance_accessibility": "1800 mm clear path beside marker; tactile base kept outside through-route",
        "operational_state": "fixed endpoint and route identity; digital panel optional and independently switchable",
        "information_hierarchy": [
          "endpoint",
          "next public room",
          "human route",
          "operator/contact"
        ],
        "public_path_relationship": "placed at gateways beside, never within, the clear public path",
        "scenario_refs": [
          "SC-02",
          "SC-05",
          "SC-09"
        ],
        "component_status": "concept family and indicative instances",
        "detail_sequence": 1
      },
      "geometry": {
        "type": "MultiPoint",
        "coordinates": [
          [
            116.3485,
            39.947
          ],
          [
            116.3475,
            39.9885
          ],
          [
            116.3485,
            40.0165
          ]
        ]
      }
    },
    {
      "type": "Feature",
      "id": "COMP-CONSENT-POST",
      "properties": {
        "id": "COMP-CONSENT-POST",
        "semantic_class": "spatial_component",
        "evidence_class": "DESIGN TARGET",
        "design_status": "concept",
        "geometry_role": "design_proposal",
        "host_scope": "OVERALL-DESIGN-001",
        "component_family": "CONSENT-POST",
        "where_used": [
          "ZZY",
          "ORG",
          "DZS"
        ],
        "dimensions_concept": "450 mm wide x 1100 mm high post; concept dimension",
        "clearance_accessibility": "1500 mm turning space and approach from both sides",
        "operational_state": "notice, refusal, withdrawal, and human-contact states remain legible without power",
        "information_hierarchy": [
          "purpose",
          "minimum data",
          "refuse/withdraw",
          "human review",
          "complaint"
        ],
        "public_path_relationship": "aligned with service threshold but set back from walking desire line",
        "scenario_refs": [
          "SC-01",
          "SC-05",
          "SC-09"
        ],
        "component_status": "concept family and indicative instances",
        "detail_sequence": 2
      },
      "geometry": {
        "type": "MultiPoint",
        "coordinates": [
          [
            116.3487,
            40.011
          ],
          [
            116.3472,
            39.9882
          ],
          [
            116.3462,
            39.9458
          ]
        ]
      }
    },
    {
      "type": "Feature",
      "id": "COMP-HUMAN-DESK",
      "properties": {
        "id": "COMP-HUMAN-DESK",
        "semantic_class": "spatial_component",
        "evidence_class": "DESIGN TARGET",
        "design_status": "concept",
        "geometry_role": "design_proposal",
        "host_scope": "OVERALL-DESIGN-001",
        "component_family": "HUMAN-DESK",
        "where_used": [
          "DZS",
          "ORG",
          "ZZY",
          "OVERALL"
        ],
        "dimensions_concept": "1800 mm desk module with 760 mm and 900 mm work surfaces; concept dimension",
        "clearance_accessibility": "1500 mm turning circle, knee clearance, quiet-side waiting space",
        "operational_state": "staffed, paper, telephone, and spoken-service modes; screen never mandatory",
        "information_hierarchy": [
          "service name",
          "queue",
          "documents",
          "appeal",
          "operator"
        ],
        "public_path_relationship": "visible from PARALLEL-HUMAN with no controlled threshold before help",
        "scenario_refs": [
          "SC-01",
          "SC-02",
          "SC-03",
          "SC-04",
          "SC-05",
          "SC-06",
          "SC-07",
          "SC-08",
          "SC-09",
          "SC-10",
          "SC-11",
          "SC-12"
        ],
        "component_status": "concept family and indicative instances",
        "detail_sequence": 3
      },
      "geometry": {
        "type": "MultiPoint",
        "coordinates": [
          [
            116.3477,
            39.947
          ],
          [
            116.3452,
            39.9885
          ],
          [
            116.3487,
            40.0112
          ],
          [
            116.3434,
            39.972
          ],
          [
            116.345,
            40.002
          ],
          [
            116.346,
            40.0165
          ]
        ]
      }
    },
    {
      "type": "Feature",
      "id": "COMP-TEST-RAIL",
      "properties": {
        "id": "COMP-TEST-RAIL",
        "semantic_class": "spatial_component",
        "evidence_class": "DESIGN TARGET",
        "design_status": "concept",
        "geometry_role": "design_proposal",
        "host_scope": "OVERALL-DESIGN-001",
        "component_family": "TEST-RAIL",
        "where_used": [
          "ZZY"
        ],
        "dimensions_concept": "1000 mm high modular rail; bay length set by test safety case",
        "clearance_accessibility": "rail never reduces ordinary public bypass below concept clear width",
        "operational_state": "manual red stop, lockable isolation, and staffed release; power not required",
        "information_hierarchy": [
          "test state",
          "stop",
          "responsible reviewer",
          "safe bypass"
        ],
        "public_path_relationship": "defines controlled yard edge while preserving the separate ordinary path",
        "scenario_refs": [
          "SC-01",
          "SC-02"
        ],
        "component_status": "concept family and indicative instances",
        "detail_sequence": 4
      },
      "geometry": {
        "type": "Point",
        "coordinates": [
          116.3468,
          40.0147
        ]
      }
    },
    {
      "type": "Feature",
      "id": "COMP-QUIET-BEACON",
      "properties": {
        "id": "COMP-QUIET-BEACON",
        "semantic_class": "spatial_component",
        "evidence_class": "DESIGN TARGET",
        "design_status": "concept",
        "geometry_role": "design_proposal",
        "host_scope": "OVERALL-DESIGN-001",
        "component_family": "QUIET-BEACON",
        "where_used": [
          "DZS",
          "ORG",
          "ZZY"
        ],
        "dimensions_concept": "300 mm wide x 1400 mm high non-audio marker; concept dimension",
        "clearance_accessibility": "located beyond tactile route with 1500 mm turning space nearby",
        "operational_state": "fixed quiet-route symbol, tactile arrow, and low-glare status light",
        "information_hierarchy": [
          "quiet route",
          "distance band",
          "staffed help",
          "night state"
        ],
        "public_path_relationship": "marks quiet waiting/route branches without narrowing the main path",
        "scenario_refs": [
          "SC-04",
          "SC-07",
          "SC-12"
        ],
        "component_status": "concept family and indicative instances",
        "detail_sequence": 5
      },
      "geometry": {
        "type": "MultiPoint",
        "coordinates": [
          [
            116.3445,
            39.9487
          ],
          [
            116.3458,
            39.9908
          ],
          [
            116.3518,
            40.019
          ]
        ]
      }
    }
  ]
}
