{
  "type": "FeatureCollection",
  "name": "jzoi_gate_b_dzs_plan",
  "features": [
    {
      "type": "Feature",
      "id": "DZS-STATION-REL-UNRESOLVED",
      "properties": {
        "id": "DZS-STATION-REL-UNRESOLVED",
        "semantic_class": "unresolved_station_relationship",
        "evidence_class": "DATA_GAP",
        "design_status": "background_reference",
        "geometry_role": "unresolved_context",
        "host_scope": "KEY-AREA-SCOPE-DZS",
        "endpoint": "DZS",
        "source_feature_id": "EX-TRANSIT-003",
        "physical_connection_claim": false,
        "station_entrance_claim": false,
        "interface_condition": "background station relationship cannot be reconciled to provisional polygon"
      },
      "geometry": null
    },
    {
      "type": "Feature",
      "id": "DZS-PEDESTRIAN-CONVERGENCE",
      "properties": {
        "id": "DZS-PEDESTRIAN-CONVERGENCE",
        "semantic_class": "pedestrian_convergence",
        "evidence_class": "DESIGN TARGET",
        "design_status": "concept",
        "geometry_role": "design_proposal",
        "host_scope": "KEY-AREA-SCOPE-DZS",
        "endpoint": "DZS",
        "confidence": "low",
        "boundary_interpretation": "provisional study polygon; not parcel or road redline",
        "public_path": true,
        "station_connection_claim": false
      },
      "geometry": {
        "type": "MultiLineString",
        "coordinates": [
          [
            [
              116.3423,
              39.947
            ],
            [
              116.3546,
              39.947
            ]
          ],
          [
            [
              116.3485,
              39.9443
            ],
            [
              116.3485,
              39.9495
            ]
          ],
          [
            [
              116.343,
              39.9446
            ],
            [
              116.3485,
              39.947
            ],
            [
              116.354,
              39.9492
            ]
          ]
        ]
      }
    },
    {
      "type": "Feature",
      "id": "DZS-CYCLEWAY",
      "properties": {
        "id": "DZS-CYCLEWAY",
        "semantic_class": "cycleway",
        "evidence_class": "DESIGN TARGET",
        "design_status": "concept",
        "geometry_role": "design_proposal",
        "host_scope": "KEY-AREA-SCOPE-DZS",
        "endpoint": "DZS",
        "confidence": "low",
        "boundary_interpretation": "provisional study polygon; not parcel or road redline",
        "public_path": true
      },
      "geometry": {
        "type": "LineString",
        "coordinates": [
          [
            116.3424,
            39.948
          ],
          [
            116.3545,
            39.948
          ]
        ]
      }
    },
    {
      "type": "Feature",
      "id": "DZS-PROCUREMENT-ADOPTION",
      "properties": {
        "id": "DZS-PROCUREMENT-ADOPTION",
        "semantic_class": "procurement_adoption",
        "evidence_class": "DESIGN TARGET",
        "design_status": "concept",
        "geometry_role": "design_proposal",
        "host_scope": "KEY-AREA-SCOPE-DZS",
        "endpoint": "DZS",
        "confidence": "low",
        "boundary_interpretation": "provisional study polygon; not parcel or road redline",
        "project_refs": [
          "JZOI-P06"
        ]
      },
      "geometry": {
        "type": "Polygon",
        "coordinates": [
          [
            [
              116.34912,
              39.9444
            ],
            [
              116.3513,
              39.9444
            ],
            [
              116.3513,
              39.94618
            ],
            [
              116.35108,
              39.9464
            ],
            [
              116.3489,
              39.9464
            ],
            [
              116.3489,
              39.94462
            ],
            [
              116.34912,
              39.9444
            ]
          ]
        ]
      }
    },
    {
      "type": "Feature",
      "id": "DZS-ENTERPRISE-SERVICE",
      "properties": {
        "id": "DZS-ENTERPRISE-SERVICE",
        "semantic_class": "enterprise_service",
        "evidence_class": "DESIGN TARGET",
        "design_status": "concept",
        "geometry_role": "design_proposal",
        "host_scope": "KEY-AREA-SCOPE-DZS",
        "endpoint": "DZS",
        "confidence": "low",
        "boundary_interpretation": "provisional study polygon; not parcel or road redline",
        "project_refs": [
          "JZOI-P07"
        ]
      },
      "geometry": {
        "type": "Polygon",
        "coordinates": [
          [
            [
              116.35191999999999,
              39.9444
            ],
            [
              116.3543,
              39.9444
            ],
            [
              116.3543,
              39.94618
            ],
            [
              116.35408,
              39.9464
            ],
            [
              116.3517,
              39.9464
            ],
            [
              116.3517,
              39.94462
            ],
            [
              116.35191999999999,
              39.9444
            ]
          ]
        ]
      }
    },
    {
      "type": "Feature",
      "id": "DZS-CONSENT-ROOM",
      "properties": {
        "id": "DZS-CONSENT-ROOM",
        "semantic_class": "consent",
        "evidence_class": "DESIGN TARGET",
        "design_status": "concept",
        "geometry_role": "design_proposal",
        "host_scope": "KEY-AREA-SCOPE-DZS",
        "endpoint": "DZS",
        "confidence": "low",
        "boundary_interpretation": "provisional study polygon; not parcel or road redline",
        "non_digital_access": true,
        "project_refs": [
          "JZOI-P06"
        ]
      },
      "geometry": {
        "type": "Polygon",
        "coordinates": [
          [
            [
              116.3456,
              39.9444
            ],
            [
              116.3472,
              39.9444
            ],
            [
              116.3472,
              39.946
            ],
            [
              116.347,
              39.9462
            ],
            [
              116.3454,
              39.9462
            ],
            [
              116.3454,
              39.9446
            ],
            [
              116.3456,
              39.9444
            ]
          ]
        ]
      }
    },
    {
      "type": "Feature",
      "id": "DZS-APPEAL-ROOM",
      "properties": {
        "id": "DZS-APPEAL-ROOM",
        "semantic_class": "appeal",
        "evidence_class": "DESIGN TARGET",
        "design_status": "concept",
        "geometry_role": "design_proposal",
        "host_scope": "KEY-AREA-SCOPE-DZS",
        "endpoint": "DZS",
        "confidence": "low",
        "boundary_interpretation": "provisional study polygon; not parcel or road redline",
        "non_digital_access": true,
        "project_refs": [
          "JZOI-P06"
        ]
      },
      "geometry": {
        "type": "Polygon",
        "coordinates": [
          [
            [
              116.34320000000001,
              39.9444
            ],
            [
              116.3448,
              39.9444
            ],
            [
              116.3448,
              39.946
            ],
            [
              116.3446,
              39.9462
            ],
            [
              116.343,
              39.9462
            ],
            [
              116.343,
              39.9446
            ],
            [
              116.34320000000001,
              39.9444
            ]
          ]
        ]
      }
    },
    {
      "type": "Feature",
      "id": "DZS-CULTURE-ROOM",
      "properties": {
        "id": "DZS-CULTURE-ROOM",
        "semantic_class": "culture",
        "evidence_class": "DESIGN TARGET",
        "design_status": "concept",
        "geometry_role": "design_proposal",
        "host_scope": "KEY-AREA-SCOPE-DZS",
        "endpoint": "DZS",
        "confidence": "low",
        "boundary_interpretation": "provisional study polygon; not parcel or road redline",
        "project_refs": [
          "JZOI-P07"
        ]
      },
      "geometry": {
        "type": "Polygon",
        "coordinates": [
          [
            [
              116.34280000000001,
              39.9483
            ],
            [
              116.3456,
              39.9483
            ],
            [
              116.3456,
              39.9492
            ],
            [
              116.3454,
              39.9494
            ],
            [
              116.3426,
              39.9494
            ],
            [
              116.3426,
              39.9485
            ],
            [
              116.34280000000001,
              39.9483
            ]
          ]
        ]
      }
    },
    {
      "type": "Feature",
      "id": "DZS-INTERNATIONAL-TALENT",
      "properties": {
        "id": "DZS-INTERNATIONAL-TALENT",
        "semantic_class": "international_talent_service",
        "evidence_class": "DESIGN TARGET",
        "design_status": "concept",
        "geometry_role": "design_proposal",
        "host_scope": "KEY-AREA-SCOPE-DZS",
        "endpoint": "DZS",
        "confidence": "low",
        "boundary_interpretation": "provisional study polygon; not parcel or road redline",
        "non_digital_access": true,
        "project_refs": [
          "JZOI-P10"
        ]
      },
      "geometry": {
        "type": "Polygon",
        "coordinates": [
          [
            [
              116.3512,
              39.9483
            ],
            [
              116.3542,
              39.9483
            ],
            [
              116.3542,
              39.9492
            ],
            [
              116.354,
              39.9494
            ],
            [
              116.351,
              39.9494
            ],
            [
              116.351,
              39.9485
            ],
            [
              116.3512,
              39.9483
            ]
          ]
        ]
      }
    },
    {
      "type": "Feature",
      "id": "DZS-HUMAN-DESK",
      "properties": {
        "id": "DZS-HUMAN-DESK",
        "semantic_class": "non_digital_fallback",
        "evidence_class": "DESIGN TARGET",
        "design_status": "concept",
        "geometry_role": "design_proposal",
        "host_scope": "KEY-AREA-SCOPE-DZS",
        "endpoint": "DZS",
        "confidence": "low",
        "boundary_interpretation": "provisional study polygon; not parcel or road redline",
        "staffed_service": true,
        "operational_state": "printed forms, spoken support, manual queue and appeal intake"
      },
      "geometry": {
        "type": "Point",
        "coordinates": [
          116.3477,
          39.947
        ]
      }
    },
    {
      "type": "Feature",
      "id": "DZS-SERVICE-GRADIENT",
      "properties": {
        "id": "DZS-SERVICE-GRADIENT",
        "semantic_class": "public_private_service_gradient",
        "evidence_class": "DESIGN TARGET",
        "design_status": "concept",
        "geometry_role": "design_proposal",
        "host_scope": "KEY-AREA-SCOPE-DZS",
        "endpoint": "DZS",
        "confidence": "low",
        "boundary_interpretation": "provisional study polygon; not parcel or road redline",
        "sequence": [
          "public arrival",
          "consent and orientation",
          "staffed service",
          "enterprise review",
          "controlled adoption"
        ]
      },
      "geometry": {
        "type": "Polygon",
        "coordinates": [
          [
            [
              116.34598,
              39.9463
            ],
            [
              116.351,
              39.9463
            ],
            [
              116.351,
              39.94752
            ],
            [
              116.35082,
              39.9477
            ],
            [
              116.3458,
              39.9477
            ],
            [
              116.3458,
              39.94648
            ],
            [
              116.34598,
              39.9463
            ]
          ]
        ]
      }
    },
    {
      "type": "Feature",
      "id": "DZS-SWITCHBOARD-PLAZA",
      "properties": {
        "id": "DZS-SWITCHBOARD-PLAZA",
        "semantic_class": "public_space",
        "evidence_class": "DESIGN TARGET",
        "design_status": "concept",
        "geometry_role": "design_proposal",
        "host_scope": "KEY-AREA-SCOPE-DZS",
        "endpoint": "DZS",
        "confidence": "low",
        "boundary_interpretation": "provisional study polygon; not parcel or road redline",
        "public_path": true,
        "project_refs": [
          "JZOI-P06"
        ]
      },
      "geometry": {
        "type": "Polygon",
        "coordinates": [
          [
            [
              116.34660000000001,
              39.9462
            ],
            [
              116.3505,
              39.9462
            ],
            [
              116.3505,
              39.9476
            ],
            [
              116.35029999999999,
              39.9478
            ],
            [
              116.3464,
              39.9478
            ],
            [
              116.3464,
              39.9464
            ],
            [
              116.34660000000001,
              39.9462
            ]
          ]
        ]
      }
    },
    {
      "type": "Feature",
      "id": "DZS-SWITCH-MASSING",
      "properties": {
        "id": "DZS-SWITCH-MASSING",
        "semantic_class": "concept_massing",
        "evidence_class": "DESIGN TARGET",
        "design_status": "concept",
        "geometry_role": "design_proposal",
        "host_scope": "KEY-AREA-SCOPE-DZS",
        "endpoint": "DZS",
        "confidence": "low",
        "boundary_interpretation": "provisional study polygon; not parcel or road redline",
        "object_status": "new_design_volume",
        "height_hierarchy": "landmark",
        "height_status": "relative_design_envelope",
        "statutory_height_claim": false
      },
      "geometry": {
        "type": "Polygon",
        "coordinates": [
          [
            [
              116.34898,
              39.9482
            ],
            [
              116.3505,
              39.9482
            ],
            [
              116.3505,
              39.94922
            ],
            [
              116.35032,
              39.9494
            ],
            [
              116.3488,
              39.9494
            ],
            [
              116.3488,
              39.94838
            ],
            [
              116.34898,
              39.9482
            ]
          ]
        ]
      }
    },
    {
      "type": "Feature",
      "id": "DZS-SECTION-A",
      "properties": {
        "id": "DZS-SECTION-A",
        "semantic_class": "section_logic",
        "evidence_class": "DESIGN TARGET",
        "design_status": "concept",
        "geometry_role": "design_proposal",
        "host_scope": "KEY-AREA-SCOPE-DZS",
        "endpoint": "DZS",
        "confidence": "low",
        "boundary_interpretation": "provisional study polygon; not parcel or road redline",
        "sequence": [
          "city edge",
          "appeal",
          "public switchboard",
          "adoption service",
          "city edge"
        ],
        "station_connection_claim": false
      },
      "geometry": {
        "type": "LineString",
        "coordinates": [
          [
            116.3424,
            39.947
          ],
          [
            116.3545,
            39.947
          ]
        ]
      }
    }
  ]
}
