{
  "type": "FeatureCollection",
  "name": "jzoi_gate_b_land_use_program",
  "features": [
    {
      "type": "Feature",
      "id": "PROGRAM-DZS-01",
      "properties": {
        "id": "PROGRAM-DZS-01",
        "semantic_class": "program_unit",
        "evidence_class": "DESIGN TARGET",
        "design_status": "concept",
        "geometry_role": "design_proposal",
        "host_scope": "OVERALL-DESIGN-001",
        "program_class": "mobility_interface",
        "role": "DZS-01 mobility interface design unit",
        "compatible_activities": [
          "walking",
          "cycling",
          "transfer",
          "wayfinding"
        ],
        "project_refs": [
          "JZOI-P06"
        ],
        "ecosystem_refs": [
          "DZS"
        ],
        "confidence": "low",
        "planning_status": "non_statutory_design_concept"
      },
      "geometry": {
        "type": "Polygon",
        "coordinates": [
          [
            [
              116.342592,
              39.9444
            ],
            [
              116.345,
              39.9444
            ],
            [
              116.345,
              39.945808
            ],
            [
              116.344808,
              39.946
            ],
            [
              116.3424,
              39.946
            ],
            [
              116.3424,
              39.944592
            ],
            [
              116.342592,
              39.9444
            ]
          ]
        ]
      }
    },
    {
      "type": "Feature",
      "id": "PROGRAM-DZS-02",
      "properties": {
        "id": "PROGRAM-DZS-02",
        "semantic_class": "program_unit",
        "evidence_class": "DESIGN TARGET",
        "design_status": "concept",
        "geometry_role": "design_proposal",
        "host_scope": "OVERALL-DESIGN-001",
        "program_class": "mixed_public_commercial",
        "role": "DZS-02 mixed public commercial design unit",
        "compatible_activities": [
          "public hall",
          "retail",
          "exhibition",
          "civic service"
        ],
        "project_refs": [
          "JZOI-P06"
        ],
        "ecosystem_refs": [
          "DZS"
        ],
        "confidence": "low",
        "planning_status": "non_statutory_design_concept"
      },
      "geometry": {
        "type": "Polygon",
        "coordinates": [
          [
            [
              116.345392,
              39.9444
            ],
            [
              116.348,
              39.9444
            ],
            [
              116.348,
              39.945808
            ],
            [
              116.347808,
              39.946
            ],
            [
              116.3452,
              39.946
            ],
            [
              116.3452,
              39.944592
            ],
            [
              116.345392,
              39.9444
            ]
          ]
        ]
      }
    },
    {
      "type": "Feature",
      "id": "PROGRAM-DZS-03",
      "properties": {
        "id": "PROGRAM-DZS-03",
        "semantic_class": "program_unit",
        "evidence_class": "DESIGN TARGET",
        "design_status": "concept",
        "geometry_role": "design_proposal",
        "host_scope": "OVERALL-DESIGN-001",
        "program_class": "enterprise_service",
        "role": "DZS-03 enterprise service design unit",
        "compatible_activities": [
          "enterprise support",
          "procurement",
          "adoption review"
        ],
        "project_refs": [
          "JZOI-P07"
        ],
        "ecosystem_refs": [
          "DZS"
        ],
        "confidence": "low",
        "planning_status": "non_statutory_design_concept"
      },
      "geometry": {
        "type": "Polygon",
        "coordinates": [
          [
            [
              116.348392,
              39.9444
            ],
            [
              116.3545,
              39.9444
            ],
            [
              116.3545,
              39.945808
            ],
            [
              116.354308,
              39.946
            ],
            [
              116.3482,
              39.946
            ],
            [
              116.3482,
              39.944592
            ],
            [
              116.348392,
              39.9444
            ]
          ]
        ]
      }
    },
    {
      "type": "Feature",
      "id": "PROGRAM-DZS-04",
      "properties": {
        "id": "PROGRAM-DZS-04",
        "semantic_class": "program_unit",
        "evidence_class": "DESIGN TARGET",
        "design_status": "concept",
        "geometry_role": "design_proposal",
        "host_scope": "OVERALL-DESIGN-001",
        "program_class": "cultural_heritage",
        "role": "DZS-04 cultural heritage design unit",
        "compatible_activities": [
          "interpretation",
          "culture",
          "public room"
        ],
        "project_refs": [
          "JZOI-P07"
        ],
        "ecosystem_refs": [
          "DZS"
        ],
        "confidence": "low",
        "planning_status": "non_statutory_design_concept"
      },
      "geometry": {
        "type": "Polygon",
        "coordinates": [
          [
            [
              116.34264,
              39.9473
            ],
            [
              116.346,
              39.9473
            ],
            [
              116.346,
              39.94906
            ],
            [
              116.34576,
              39.9493
            ],
            [
              116.3424,
              39.9493
            ],
            [
              116.3424,
              39.94754
            ],
            [
              116.34264,
              39.9473
            ]
          ]
        ]
      }
    },
    {
      "type": "Feature",
      "id": "PROGRAM-DZS-05",
      "properties": {
        "id": "PROGRAM-DZS-05",
        "semantic_class": "program_unit",
        "evidence_class": "DESIGN TARGET",
        "design_status": "concept",
        "geometry_role": "design_proposal",
        "host_scope": "OVERALL-DESIGN-001",
        "program_class": "community_life_service",
        "role": "DZS-05 community life service design unit",
        "compatible_activities": [
          "neighborhood service",
          "talent service",
          "staffed fallback"
        ],
        "project_refs": [
          "JZOI-P10"
        ],
        "ecosystem_refs": [
          "DZS"
        ],
        "confidence": "low",
        "planning_status": "non_statutory_design_concept"
      },
      "geometry": {
        "type": "Polygon",
        "coordinates": [
          [
            [
              116.35024,
              39.9473
            ],
            [
              116.3545,
              39.9473
            ],
            [
              116.3545,
              39.94906
            ],
            [
              116.35426,
              39.9493
            ],
            [
              116.35,
              39.9493
            ],
            [
              116.35,
              39.94754
            ],
            [
              116.35024,
              39.9473
            ]
          ]
        ]
      }
    },
    {
      "type": "Feature",
      "id": "PROGRAM-ORG-01",
      "properties": {
        "id": "PROGRAM-ORG-01",
        "semantic_class": "program_unit",
        "evidence_class": "DESIGN TARGET",
        "design_status": "concept",
        "geometry_role": "design_proposal",
        "host_scope": "OVERALL-DESIGN-001",
        "program_class": "research_r_and_d",
        "role": "ORG-01 research r and d design unit",
        "compatible_activities": [
          "research",
          "translation",
          "shared labs"
        ],
        "project_refs": [
          "JZOI-P04"
        ],
        "ecosystem_refs": [
          "ORG",
          "ECO-RESEARCH"
        ],
        "confidence": "low",
        "planning_status": "non_statutory_design_concept"
      },
      "geometry": {
        "type": "Polygon",
        "coordinates": [
          [
            [
              116.34271199999999,
              39.984
            ],
            [
              116.345,
              39.984
            ],
            [
              116.345,
              39.986688
            ],
            [
              116.344688,
              39.987
            ],
            [
              116.3424,
              39.987
            ],
            [
              116.3424,
              39.984312
            ],
            [
              116.34271199999999,
              39.984
            ]
          ]
        ]
      }
    },
    {
      "type": "Feature",
      "id": "PROGRAM-ORG-02",
      "properties": {
        "id": "PROGRAM-ORG-02",
        "semantic_class": "program_unit",
        "evidence_class": "DESIGN TARGET",
        "design_status": "concept",
        "geometry_role": "design_proposal",
        "host_scope": "OVERALL-DESIGN-001",
        "program_class": "enterprise_service",
        "role": "ORG-02 enterprise service design unit",
        "compatible_activities": [
          "enterprise support",
          "procurement",
          "adoption review"
        ],
        "project_refs": [
          "JZOI-P05"
        ],
        "ecosystem_refs": [
          "ORG"
        ],
        "confidence": "low",
        "planning_status": "non_statutory_design_concept"
      },
      "geometry": {
        "type": "Polygon",
        "coordinates": [
          [
            [
              116.35031199999999,
              39.984
            ],
            [
              116.3526,
              39.984
            ],
            [
              116.3526,
              39.986688
            ],
            [
              116.352288,
              39.987
            ],
            [
              116.35,
              39.987
            ],
            [
              116.35,
              39.984312
            ],
            [
              116.35031199999999,
              39.984
            ]
          ]
        ]
      }
    },
    {
      "type": "Feature",
      "id": "PROGRAM-ORG-03",
      "properties": {
        "id": "PROGRAM-ORG-03",
        "semantic_class": "program_unit",
        "evidence_class": "DESIGN TARGET",
        "design_status": "concept",
        "geometry_role": "design_proposal",
        "host_scope": "OVERALL-DESIGN-001",
        "program_class": "mixed_public_commercial",
        "role": "ORG-03 mixed public commercial design unit",
        "compatible_activities": [
          "public hall",
          "retail",
          "exhibition",
          "civic service"
        ],
        "project_refs": [
          "JZOI-P04"
        ],
        "ecosystem_refs": [
          "ORG"
        ],
        "confidence": "low",
        "planning_status": "non_statutory_design_concept"
      },
      "geometry": {
        "type": "Polygon",
        "coordinates": [
          [
            [
              116.34576,
              39.984
            ],
            [
              116.3496,
              39.984
            ],
            [
              116.3496,
              39.98664
            ],
            [
              116.34924,
              39.987
            ],
            [
              116.3454,
              39.987
            ],
            [
              116.3454,
              39.98436
            ],
            [
              116.34576,
              39.984
            ]
          ]
        ]
      }
    },
    {
      "type": "Feature",
      "id": "PROGRAM-ORG-04",
      "properties": {
        "id": "PROGRAM-ORG-04",
        "semantic_class": "program_unit",
        "evidence_class": "DESIGN TARGET",
        "design_status": "concept",
        "geometry_role": "design_proposal",
        "host_scope": "OVERALL-DESIGN-001",
        "program_class": "innovation_testing",
        "role": "ORG-04 innovation testing design unit",
        "compatible_activities": [
          "controlled testing",
          "prototype support",
          "human review"
        ],
        "project_refs": [
          "JZOI-P05"
        ],
        "ecosystem_refs": [
          "ORG",
          "ZZY"
        ],
        "confidence": "low",
        "planning_status": "non_statutory_design_concept"
      },
      "geometry": {
        "type": "Polygon",
        "coordinates": [
          [
            [
              116.342748,
              39.99
            ],
            [
              116.3453,
              39.99
            ],
            [
              116.3453,
              39.992652
            ],
            [
              116.34495199999999,
              39.993
            ],
            [
              116.3424,
              39.993
            ],
            [
              116.3424,
              39.990348000000004
            ],
            [
              116.342748,
              39.99
            ]
          ]
        ]
      }
    },
    {
      "type": "Feature",
      "id": "PROGRAM-ORG-05",
      "properties": {
        "id": "PROGRAM-ORG-05",
        "semantic_class": "program_unit",
        "evidence_class": "DESIGN TARGET",
        "design_status": "concept",
        "geometry_role": "design_proposal",
        "host_scope": "OVERALL-DESIGN-001",
        "program_class": "community_life_service",
        "role": "ORG-05 community life service design unit",
        "compatible_activities": [
          "neighborhood service",
          "talent service",
          "staffed fallback"
        ],
        "project_refs": [
          "JZOI-P10"
        ],
        "ecosystem_refs": [
          "ORG"
        ],
        "confidence": "low",
        "planning_status": "non_statutory_design_concept"
      },
      "geometry": {
        "type": "Polygon",
        "coordinates": [
          [
            [
              116.350048,
              39.99
            ],
            [
              116.3526,
              39.99
            ],
            [
              116.3526,
              39.992652
            ],
            [
              116.352252,
              39.993
            ],
            [
              116.3497,
              39.993
            ],
            [
              116.3497,
              39.990348000000004
            ],
            [
              116.350048,
              39.99
            ]
          ]
        ]
      }
    },
    {
      "type": "Feature",
      "id": "PROGRAM-ORG-06",
      "properties": {
        "id": "PROGRAM-ORG-06",
        "semantic_class": "program_unit",
        "evidence_class": "DESIGN TARGET",
        "design_status": "concept",
        "geometry_role": "design_proposal",
        "host_scope": "OVERALL-DESIGN-001",
        "program_class": "blue_green_public_realm",
        "role": "ORG-06 blue green public realm design unit",
        "compatible_activities": [
          "rainwater",
          "ecology",
          "walking",
          "public space"
        ],
        "project_refs": [
          "JZOI-P09"
        ],
        "ecosystem_refs": [
          "ORG"
        ],
        "confidence": "low",
        "planning_status": "non_statutory_design_concept"
      },
      "geometry": {
        "type": "Polygon",
        "coordinates": [
          [
            [
              116.34606,
              39.99
            ],
            [
              116.3493,
              39.99
            ],
            [
              116.3493,
              39.99264
            ],
            [
              116.34894,
              39.993
            ],
            [
              116.3457,
              39.993
            ],
            [
              116.3457,
              39.99036
            ],
            [
              116.34606,
              39.99
            ]
          ]
        ]
      }
    },
    {
      "type": "Feature",
      "id": "PROGRAM-ZZY-01",
      "properties": {
        "id": "PROGRAM-ZZY-01",
        "semantic_class": "program_unit",
        "evidence_class": "DESIGN TARGET",
        "design_status": "concept",
        "geometry_role": "design_proposal",
        "host_scope": "OVERALL-DESIGN-001",
        "program_class": "innovation_testing",
        "role": "ZZY-01 innovation testing design unit",
        "compatible_activities": [
          "controlled testing",
          "prototype support",
          "human review"
        ],
        "project_refs": [
          "JZOI-P02"
        ],
        "ecosystem_refs": [
          "ZZY"
        ],
        "confidence": "low",
        "planning_status": "non_statutory_design_concept"
      },
      "geometry": {
        "type": "Polygon",
        "coordinates": [
          [
            [
              116.34376,
              40.008
            ],
            [
              116.3464,
              40.008
            ],
            [
              116.3464,
              40.01164
            ],
            [
              116.34604,
              40.012
            ],
            [
              116.3434,
              40.012
            ],
            [
              116.3434,
              40.00836
            ],
            [
              116.34376,
              40.008
            ]
          ]
        ]
      }
    },
    {
      "type": "Feature",
      "id": "PROGRAM-ZZY-02",
      "properties": {
        "id": "PROGRAM-ZZY-02",
        "semantic_class": "program_unit",
        "evidence_class": "DESIGN TARGET",
        "design_status": "concept",
        "geometry_role": "design_proposal",
        "host_scope": "OVERALL-DESIGN-001",
        "program_class": "research_r_and_d",
        "role": "ZZY-02 research r and d design unit",
        "compatible_activities": [
          "research",
          "translation",
          "shared labs"
        ],
        "project_refs": [
          "JZOI-P02"
        ],
        "ecosystem_refs": [
          "ZZY"
        ],
        "confidence": "low",
        "planning_status": "non_statutory_design_concept"
      },
      "geometry": {
        "type": "Polygon",
        "coordinates": [
          [
            [
              116.35096,
              40.008
            ],
            [
              116.3536,
              40.008
            ],
            [
              116.3536,
              40.01164
            ],
            [
              116.35324,
              40.012
            ],
            [
              116.3506,
              40.012
            ],
            [
              116.3506,
              40.00836
            ],
            [
              116.35096,
              40.008
            ]
          ]
        ]
      }
    },
    {
      "type": "Feature",
      "id": "PROGRAM-ZZY-03",
      "properties": {
        "id": "PROGRAM-ZZY-03",
        "semantic_class": "program_unit",
        "evidence_class": "DESIGN TARGET",
        "design_status": "concept",
        "geometry_role": "design_proposal",
        "host_scope": "OVERALL-DESIGN-001",
        "program_class": "blue_green_public_realm",
        "role": "ZZY-03 blue green public realm design unit",
        "compatible_activities": [
          "rainwater",
          "ecology",
          "walking",
          "public space"
        ],
        "project_refs": [
          "JZOI-P03"
        ],
        "ecosystem_refs": [
          "ZZY"
        ],
        "confidence": "low",
        "planning_status": "non_statutory_design_concept"
      },
      "geometry": {
        "type": "Polygon",
        "coordinates": [
          [
            [
              116.34382000000001,
              40.022
            ],
            [
              116.347,
              40.022
            ],
            [
              116.347,
              40.02508
            ],
            [
              116.34657999999999,
              40.0255
            ],
            [
              116.3434,
              40.0255
            ],
            [
              116.3434,
              40.02242
            ],
            [
              116.34382000000001,
              40.022
            ]
          ]
        ]
      }
    },
    {
      "type": "Feature",
      "id": "PROGRAM-ZZY-04",
      "properties": {
        "id": "PROGRAM-ZZY-04",
        "semantic_class": "program_unit",
        "evidence_class": "DESIGN TARGET",
        "design_status": "concept",
        "geometry_role": "design_proposal",
        "host_scope": "OVERALL-DESIGN-001",
        "program_class": "enterprise_service",
        "role": "ZZY-04 enterprise service design unit",
        "compatible_activities": [
          "enterprise support",
          "procurement",
          "adoption review"
        ],
        "project_refs": [
          "JZOI-P03"
        ],
        "ecosystem_refs": [
          "ZZY"
        ],
        "confidence": "low",
        "planning_status": "non_statutory_design_concept"
      },
      "geometry": {
        "type": "Polygon",
        "coordinates": [
          [
            [
              116.35042,
              40.0185
            ],
            [
              116.3536,
              40.0185
            ],
            [
              116.3536,
              40.02158
            ],
            [
              116.35318,
              40.022
            ],
            [
              116.35,
              40.022
            ],
            [
              116.35,
              40.01892
            ],
            [
              116.35042,
              40.0185
            ]
          ]
        ]
      }
    },
    {
      "type": "Feature",
      "id": "PROGRAM-ZZY-05",
      "properties": {
        "id": "PROGRAM-ZZY-05",
        "semantic_class": "program_unit",
        "evidence_class": "DESIGN TARGET",
        "design_status": "concept",
        "geometry_role": "design_proposal",
        "host_scope": "OVERALL-DESIGN-001",
        "program_class": "mobility_interface",
        "role": "ZZY-05 mobility interface design unit",
        "compatible_activities": [
          "walking",
          "cycling",
          "transfer",
          "wayfinding"
        ],
        "project_refs": [
          "JZOI-P01"
        ],
        "ecosystem_refs": [
          "ZZY"
        ],
        "confidence": "low",
        "planning_status": "non_statutory_design_concept"
      },
      "geometry": {
        "type": "Polygon",
        "coordinates": [
          [
            [
              116.343664,
              40.013
            ],
            [
              116.3456,
              40.013
            ],
            [
              116.3456,
              40.017736
            ],
            [
              116.345336,
              40.018
            ],
            [
              116.3434,
              40.018
            ],
            [
              116.3434,
              40.013264
            ],
            [
              116.343664,
              40.013
            ]
          ]
        ]
      }
    },
    {
      "type": "Feature",
      "id": "PROGRAM-ZZY-06",
      "properties": {
        "id": "PROGRAM-ZZY-06",
        "semantic_class": "program_unit",
        "evidence_class": "DESIGN TARGET",
        "design_status": "concept",
        "geometry_role": "design_proposal",
        "host_scope": "OVERALL-DESIGN-001",
        "program_class": "community_life_service",
        "role": "ZZY-06 community life service design unit",
        "compatible_activities": [
          "neighborhood service",
          "talent service",
          "staffed fallback"
        ],
        "project_refs": [
          "JZOI-P10"
        ],
        "ecosystem_refs": [
          "ZZY"
        ],
        "confidence": "low",
        "planning_status": "non_statutory_design_concept"
      },
      "geometry": {
        "type": "Polygon",
        "coordinates": [
          [
            [
              116.351664,
              40.013
            ],
            [
              116.3536,
              40.013
            ],
            [
              116.3536,
              40.017736
            ],
            [
              116.353336,
              40.018
            ],
            [
              116.3514,
              40.018
            ],
            [
              116.3514,
              40.013264
            ],
            [
              116.351664,
              40.013
            ]
          ]
        ]
      }
    },
    {
      "type": "Feature",
      "id": "PROGRAM-ZZY-07",
      "properties": {
        "id": "PROGRAM-ZZY-07",
        "semantic_class": "program_unit",
        "evidence_class": "DESIGN TARGET",
        "design_status": "concept",
        "geometry_role": "design_proposal",
        "host_scope": "OVERALL-DESIGN-001",
        "program_class": "cultural_heritage",
        "role": "ZZY-07 cultural heritage design unit",
        "compatible_activities": [
          "interpretation",
          "culture",
          "public room"
        ],
        "project_refs": [
          "JZOI-P11"
        ],
        "ecosystem_refs": [
          "ZZY"
        ],
        "confidence": "low",
        "planning_status": "non_statutory_design_concept"
      },
      "geometry": {
        "type": "Polygon",
        "coordinates": [
          [
            [
              116.34739599999999,
              40.0222
            ],
            [
              116.3536,
              40.0222
            ],
            [
              116.3536,
              40.025104
            ],
            [
              116.353204,
              40.0255
            ],
            [
              116.347,
              40.0255
            ],
            [
              116.347,
              40.022596
            ],
            [
              116.34739599999999,
              40.0222
            ]
          ]
        ]
      }
    }
  ]
}
