{
  "type": "FeatureCollection",
  "name": "jzoi_gate_b_landmarks",
  "features": [
    {
      "type": "Feature",
      "id": "LANDMARK-ZZY-SAFETY-GANTRY",
      "properties": {
        "id": "LANDMARK-ZZY-SAFETY-GANTRY",
        "semantic_class": "endpoint_landmark",
        "evidence_class": "DESIGN TARGET",
        "design_status": "concept",
        "geometry_role": "design_proposal",
        "host_scope": "KEY-AREA-SCOPE-ZZY",
        "endpoint": "ZZY",
        "confidence": "low",
        "boundary_interpretation": "provisional study polygon; not parcel or road redline",
        "location_ref": "ZZY-HUMAN-REVIEW-GATE",
        "role": "marks the transition between ordinary city movement and controlled testing",
        "form": "open steel gantry with visible manual stop bar",
        "scale_concept": "district gateway; relative scale below surrounding landmark massing",
        "interaction": "walk-through threshold with staffed test-status panel",
        "accessibility": "wide step-free passage, tactile edge, high-contrast stop state",
        "non_digital_state": "fixed sign, manual stop bar, and staffed explanation remain available",
        "daytime_state": "open frame and test-status board",
        "nighttime_state": "low-glare white frame with red physical stop state; no dynamic advertising",
        "maintenance": "quarterly stop drill and replaceable rail/panel inspection",
        "vi_relationship": "black frame, cyan access line, yellow bounded-test field, orange review point",
        "endpoint_identity": "Controlled Test Yard"
      },
      "geometry": {
        "type": "Point",
        "coordinates": [
          116.3492,
          40.0112
        ]
      }
    },
    {
      "type": "Feature",
      "id": "LANDMARK-ORG-OPEN-BRACKET",
      "properties": {
        "id": "LANDMARK-ORG-OPEN-BRACKET",
        "semantic_class": "endpoint_landmark",
        "evidence_class": "DESIGN TARGET",
        "design_status": "concept",
        "geometry_role": "design_proposal",
        "host_scope": "KEY-AREA-SCOPE-ORG",
        "endpoint": "ORG",
        "confidence": "low",
        "boundary_interpretation": "provisional study polygon; not parcel or road redline",
        "location_ref": "ORG-COMMONS-ROOM",
        "role": "makes the public commons and four-way permeability legible",
        "form": "two offset enterable brackets framing the commons crossing",
        "scale_concept": "civic room marker; lower than adjacent medium massing",
        "interaction": "seating, notice rail, open-source display, and four-way passage",
        "accessibility": "step-free central opening, tactile route, quiet seating edge",
        "non_digital_state": "printed dependency board and staffed commons desk",
        "daytime_state": "open frame, shade, and public work surface",
        "nighttime_state": "soft white task light and fixed green commons marker",
        "maintenance": "monthly fastener, surface, tactile-route, and notice-board check",
        "vi_relationship": "black brackets, green commons plane, cyan path, orange help point",
        "endpoint_identity": "Porous Commons"
      },
      "geometry": {
        "type": "Point",
        "coordinates": [
          116.3475,
          39.9888
        ]
      }
    },
    {
      "type": "Feature",
      "id": "LANDMARK-DZS-CIVIC-SWITCH",
      "properties": {
        "id": "LANDMARK-DZS-CIVIC-SWITCH",
        "semantic_class": "endpoint_landmark",
        "evidence_class": "DESIGN TARGET",
        "design_status": "concept",
        "geometry_role": "design_proposal",
        "host_scope": "KEY-AREA-SCOPE-DZS",
        "endpoint": "DZS",
        "confidence": "low",
        "boundary_interpretation": "provisional study polygon; not parcel or road redline",
        "location_ref": "DZS-SWITCHBOARD-PLAZA",
        "role": "marks consent, appeal, enterprise service, and culture as one civic interface",
        "form": "four-faced vertical switch with a low public canopy",
        "scale_concept": "endpoint marker using a relative landmark envelope, not a statutory height",
        "interaction": "four directional faces point to consent, appeal, adoption, and culture",
        "accessibility": "step-free canopy, tactile orientation strip, quiet waiting bay",
        "non_digital_state": "paper directory, staffed HUMAN-DESK, and fixed arrows remain operational",
        "daytime_state": "fixed civic directory and shaded waiting point",
        "nighttime_state": "low-glare face lighting; service-open state shown without tracking",
        "maintenance": "weekly directory update and quarterly lighting/manual-mode inspection",
        "vi_relationship": "black switch frame, cyan movement, orange human service, white civic text",
        "endpoint_identity": "Urban Switchboard"
      },
      "geometry": {
        "type": "Point",
        "coordinates": [
          116.3507,
          39.947
        ]
      }
    }
  ]
}
