{
  "type": "FeatureCollection",
  "name": "jzoi_gate_b_massing",
  "features": [
    {
      "type": "Feature",
      "id": "MASS-DZS-A",
      "properties": {
        "id": "MASS-DZS-A",
        "semantic_class": "concept_massing",
        "evidence_class": "DESIGN TARGET",
        "design_status": "concept",
        "geometry_role": "design_proposal",
        "host_scope": "OVERALL-DESIGN-001",
        "object_status": "concept_building",
        "height_hierarchy": "medium",
        "height_status": "relative_design_envelope",
        "ground_floor_role": "active_service",
        "active_ground_floor": true,
        "frontage_rule": "face public room or stitch; detailed setback requires survey",
        "existing_building_claim": false
      },
      "geometry": {
        "type": "Polygon",
        "coordinates": [
          [
            [
              116.34298,
              39.9445
            ],
            [
              116.3445,
              39.9445
            ],
            [
              116.3445,
              39.94552
            ],
            [
              116.34432,
              39.9457
            ],
            [
              116.3428,
              39.9457
            ],
            [
              116.3428,
              39.94468
            ],
            [
              116.34298,
              39.9445
            ]
          ]
        ]
      }
    },
    {
      "type": "Feature",
      "id": "MASS-DZS-B",
      "properties": {
        "id": "MASS-DZS-B",
        "semantic_class": "concept_massing",
        "evidence_class": "DESIGN TARGET",
        "design_status": "concept",
        "geometry_role": "design_proposal",
        "host_scope": "OVERALL-DESIGN-001",
        "object_status": "concept_massing",
        "height_hierarchy": "low",
        "height_status": "relative_design_envelope",
        "ground_floor_role": "public_commercial",
        "active_ground_floor": true,
        "frontage_rule": "face public room or stitch; detailed setback requires survey",
        "existing_building_claim": false
      },
      "geometry": {
        "type": "Polygon",
        "coordinates": [
          [
            [
              116.34518,
              39.9445
            ],
            [
              116.3466,
              39.9445
            ],
            [
              116.3466,
              39.94552
            ],
            [
              116.34642,
              39.9457
            ],
            [
              116.345,
              39.9457
            ],
            [
              116.345,
              39.94468
            ],
            [
              116.34518,
              39.9445
            ]
          ]
        ]
      }
    },
    {
      "type": "Feature",
      "id": "MASS-DZS-C",
      "properties": {
        "id": "MASS-DZS-C",
        "semantic_class": "concept_massing",
        "evidence_class": "DESIGN TARGET",
        "design_status": "concept",
        "geometry_role": "design_proposal",
        "host_scope": "OVERALL-DESIGN-001",
        "object_status": "new_design_volume",
        "height_hierarchy": "medium",
        "height_status": "relative_design_envelope",
        "ground_floor_role": "enterprise_service",
        "active_ground_floor": true,
        "frontage_rule": "face public room or stitch; detailed setback requires survey",
        "existing_building_claim": false
      },
      "geometry": {
        "type": "Polygon",
        "coordinates": [
          [
            [
              116.34998,
              39.9445
            ],
            [
              116.3514,
              39.9445
            ],
            [
              116.3514,
              39.94552
            ],
            [
              116.35122,
              39.9457
            ],
            [
              116.3498,
              39.9457
            ],
            [
              116.3498,
              39.94468
            ],
            [
              116.34998,
              39.9445
            ]
          ]
        ]
      }
    },
    {
      "type": "Feature",
      "id": "MASS-DZS-D",
      "properties": {
        "id": "MASS-DZS-D",
        "semantic_class": "concept_massing",
        "evidence_class": "DESIGN TARGET",
        "design_status": "concept",
        "geometry_role": "design_proposal",
        "host_scope": "OVERALL-DESIGN-001",
        "object_status": "concept_building",
        "height_hierarchy": "tall",
        "height_status": "relative_design_envelope",
        "ground_floor_role": "landmark_support",
        "active_ground_floor": true,
        "frontage_rule": "face public room or stitch; detailed setback requires survey",
        "existing_building_claim": false
      },
      "geometry": {
        "type": "Polygon",
        "coordinates": [
          [
            [
              116.35218,
              39.9445
            ],
            [
              116.354,
              39.9445
            ],
            [
              116.354,
              39.94552
            ],
            [
              116.35382,
              39.9457
            ],
            [
              116.352,
              39.9457
            ],
            [
              116.352,
              39.94468
            ],
            [
              116.35218,
              39.9445
            ]
          ]
        ]
      }
    },
    {
      "type": "Feature",
      "id": "MASS-DZS-E",
      "properties": {
        "id": "MASS-DZS-E",
        "semantic_class": "concept_massing",
        "evidence_class": "DESIGN TARGET",
        "design_status": "concept",
        "geometry_role": "design_proposal",
        "host_scope": "OVERALL-DESIGN-001",
        "object_status": "concept_massing",
        "height_hierarchy": "low",
        "height_status": "relative_design_envelope",
        "ground_floor_role": "culture",
        "active_ground_floor": true,
        "frontage_rule": "face public room or stitch; detailed setback requires survey",
        "existing_building_claim": false
      },
      "geometry": {
        "type": "Polygon",
        "coordinates": [
          [
            [
              116.343165,
              39.9481
            ],
            [
              116.3455,
              39.9481
            ],
            [
              116.3455,
              39.949034999999995
            ],
            [
              116.345335,
              39.9492
            ],
            [
              116.343,
              39.9492
            ],
            [
              116.343,
              39.948265
            ],
            [
              116.343165,
              39.9481
            ]
          ]
        ]
      }
    },
    {
      "type": "Feature",
      "id": "MASS-DZS-F",
      "properties": {
        "id": "MASS-DZS-F",
        "semantic_class": "concept_massing",
        "evidence_class": "DESIGN TARGET",
        "design_status": "concept",
        "geometry_role": "design_proposal",
        "host_scope": "OVERALL-DESIGN-001",
        "object_status": "new_design_volume",
        "height_hierarchy": "medium",
        "height_status": "relative_design_envelope",
        "ground_floor_role": "talent_service",
        "active_ground_floor": true,
        "frontage_rule": "face public room or stitch; detailed setback requires survey",
        "existing_building_claim": false
      },
      "geometry": {
        "type": "Polygon",
        "coordinates": [
          [
            [
              116.350965,
              39.9481
            ],
            [
              116.3538,
              39.9481
            ],
            [
              116.3538,
              39.949034999999995
            ],
            [
              116.35363500000001,
              39.9492
            ],
            [
              116.3508,
              39.9492
            ],
            [
              116.3508,
              39.948265
            ],
            [
              116.350965,
              39.9481
            ]
          ]
        ]
      }
    },
    {
      "type": "Feature",
      "id": "MASS-ORG-A",
      "properties": {
        "id": "MASS-ORG-A",
        "semantic_class": "concept_massing",
        "evidence_class": "DESIGN TARGET",
        "design_status": "concept",
        "geometry_role": "design_proposal",
        "host_scope": "OVERALL-DESIGN-001",
        "object_status": "concept_building",
        "height_hierarchy": "medium",
        "height_status": "relative_design_envelope",
        "ground_floor_role": "research",
        "active_ground_floor": true,
        "frontage_rule": "face public room or stitch; detailed setback requires survey",
        "existing_building_claim": false
      },
      "geometry": {
        "type": "Polygon",
        "coordinates": [
          [
            [
              116.34327,
              39.9842
            ],
            [
              116.3448,
              39.9842
            ],
            [
              116.3448,
              39.98613
            ],
            [
              116.34453,
              39.9864
            ],
            [
              116.343,
              39.9864
            ],
            [
              116.343,
              39.98447
            ],
            [
              116.34327,
              39.9842
            ]
          ]
        ]
      }
    },
    {
      "type": "Feature",
      "id": "MASS-ORG-B",
      "properties": {
        "id": "MASS-ORG-B",
        "semantic_class": "concept_massing",
        "evidence_class": "DESIGN TARGET",
        "design_status": "concept",
        "geometry_role": "design_proposal",
        "host_scope": "OVERALL-DESIGN-001",
        "object_status": "concept_massing",
        "height_hierarchy": "low",
        "height_status": "relative_design_envelope",
        "ground_floor_role": "open_source_commons",
        "active_ground_floor": true,
        "frontage_rule": "face public room or stitch; detailed setback requires survey",
        "existing_building_claim": false
      },
      "geometry": {
        "type": "Polygon",
        "coordinates": [
          [
            [
              116.34564,
              39.9842
            ],
            [
              116.347,
              39.9842
            ],
            [
              116.347,
              39.986160000000005
            ],
            [
              116.34675999999999,
              39.9864
            ],
            [
              116.3454,
              39.9864
            ],
            [
              116.3454,
              39.98444
            ],
            [
              116.34564,
              39.9842
            ]
          ]
        ]
      }
    },
    {
      "type": "Feature",
      "id": "MASS-ORG-C",
      "properties": {
        "id": "MASS-ORG-C",
        "semantic_class": "concept_massing",
        "evidence_class": "DESIGN TARGET",
        "design_status": "concept",
        "geometry_role": "design_proposal",
        "host_scope": "OVERALL-DESIGN-001",
        "object_status": "new_design_volume",
        "height_hierarchy": "medium",
        "height_status": "relative_design_envelope",
        "ground_floor_role": "startup",
        "active_ground_floor": true,
        "frontage_rule": "face public room or stitch; detailed setback requires survey",
        "existing_building_claim": false
      },
      "geometry": {
        "type": "Polygon",
        "coordinates": [
          [
            [
              116.3501,
              39.9842
            ],
            [
              116.3518,
              39.9842
            ],
            [
              116.3518,
              39.98610000000001
            ],
            [
              116.3515,
              39.9864
            ],
            [
              116.3498,
              39.9864
            ],
            [
              116.3498,
              39.9845
            ],
            [
              116.3501,
              39.9842
            ]
          ]
        ]
      }
    },
    {
      "type": "Feature",
      "id": "MASS-ORG-D",
      "properties": {
        "id": "MASS-ORG-D",
        "semantic_class": "concept_massing",
        "evidence_class": "DESIGN TARGET",
        "design_status": "concept",
        "geometry_role": "design_proposal",
        "host_scope": "OVERALL-DESIGN-001",
        "object_status": "concept_building",
        "height_hierarchy": "medium",
        "height_status": "relative_design_envelope",
        "ground_floor_role": "prototype",
        "active_ground_floor": true,
        "frontage_rule": "face public room or stitch; detailed setback requires survey",
        "existing_building_claim": false
      },
      "geometry": {
        "type": "Polygon",
        "coordinates": [
          [
            [
              116.34327,
              39.9905
            ],
            [
              116.3448,
              39.9905
            ],
            [
              116.3448,
              39.99233
            ],
            [
              116.34453,
              39.9926
            ],
            [
              116.343,
              39.9926
            ],
            [
              116.343,
              39.99077
            ],
            [
              116.34327,
              39.9905
            ]
          ]
        ]
      }
    },
    {
      "type": "Feature",
      "id": "MASS-ORG-E",
      "properties": {
        "id": "MASS-ORG-E",
        "semantic_class": "concept_massing",
        "evidence_class": "DESIGN TARGET",
        "design_status": "concept",
        "geometry_role": "design_proposal",
        "host_scope": "OVERALL-DESIGN-001",
        "object_status": "concept_massing",
        "height_hierarchy": "low",
        "height_status": "relative_design_envelope",
        "ground_floor_role": "neighborhood_service",
        "active_ground_floor": true,
        "frontage_rule": "face public room or stitch; detailed setback requires survey",
        "existing_building_claim": false
      },
      "geometry": {
        "type": "Polygon",
        "coordinates": [
          [
            [
              116.34567,
              39.9905
            ],
            [
              116.3472,
              39.9905
            ],
            [
              116.3472,
              39.99233
            ],
            [
              116.34693,
              39.9926
            ],
            [
              116.3454,
              39.9926
            ],
            [
              116.3454,
              39.99077
            ],
            [
              116.34567,
              39.9905
            ]
          ]
        ]
      }
    },
    {
      "type": "Feature",
      "id": "MASS-ORG-F",
      "properties": {
        "id": "MASS-ORG-F",
        "semantic_class": "concept_massing",
        "evidence_class": "DESIGN TARGET",
        "design_status": "concept",
        "geometry_role": "design_proposal",
        "host_scope": "OVERALL-DESIGN-001",
        "object_status": "new_design_volume",
        "height_hierarchy": "tall",
        "height_status": "relative_design_envelope",
        "ground_floor_role": "talent_service",
        "active_ground_floor": true,
        "frontage_rule": "face public room or stitch; detailed setback requires survey",
        "existing_building_claim": false
      },
      "geometry": {
        "type": "Polygon",
        "coordinates": [
          [
            [
              116.35029999999999,
              39.9905
            ],
            [
              116.352,
              39.9905
            ],
            [
              116.352,
              39.9923
            ],
            [
              116.35170000000001,
              39.9926
            ],
            [
              116.35,
              39.9926
            ],
            [
              116.35,
              39.9908
            ],
            [
              116.35029999999999,
              39.9905
            ]
          ]
        ]
      }
    },
    {
      "type": "Feature",
      "id": "MASS-ZZY-A",
      "properties": {
        "id": "MASS-ZZY-A",
        "semantic_class": "concept_massing",
        "evidence_class": "DESIGN TARGET",
        "design_status": "concept",
        "geometry_role": "design_proposal",
        "host_scope": "OVERALL-DESIGN-001",
        "object_status": "concept_building",
        "height_hierarchy": "medium",
        "height_status": "relative_design_envelope",
        "ground_floor_role": "enterprise_test",
        "active_ground_floor": true,
        "frontage_rule": "face public room or stitch; detailed setback requires survey",
        "existing_building_claim": false
      },
      "geometry": {
        "type": "Polygon",
        "coordinates": [
          [
            [
              116.34429999999999,
              40.0083
            ],
            [
              116.346,
              40.0083
            ],
            [
              116.346,
              40.0109
            ],
            [
              116.34570000000001,
              40.0112
            ],
            [
              116.344,
              40.0112
            ],
            [
              116.344,
              40.0086
            ],
            [
              116.34429999999999,
              40.0083
            ]
          ]
        ]
      }
    },
    {
      "type": "Feature",
      "id": "MASS-ZZY-B",
      "properties": {
        "id": "MASS-ZZY-B",
        "semantic_class": "concept_massing",
        "evidence_class": "DESIGN TARGET",
        "design_status": "concept",
        "geometry_role": "design_proposal",
        "host_scope": "OVERALL-DESIGN-001",
        "object_status": "concept_massing",
        "height_hierarchy": "medium",
        "height_status": "relative_design_envelope",
        "ground_floor_role": "human_review",
        "active_ground_floor": true,
        "frontage_rule": "face public room or stitch; detailed setback requires survey",
        "existing_building_claim": false
      },
      "geometry": {
        "type": "Polygon",
        "coordinates": [
          [
            [
              116.35113000000001,
              40.0083
            ],
            [
              116.353,
              40.0083
            ],
            [
              116.353,
              40.010870000000004
            ],
            [
              116.35266999999999,
              40.0112
            ],
            [
              116.3508,
              40.0112
            ],
            [
              116.3508,
              40.00863
            ],
            [
              116.35113000000001,
              40.0083
            ]
          ]
        ]
      }
    },
    {
      "type": "Feature",
      "id": "MASS-ZZY-C",
      "properties": {
        "id": "MASS-ZZY-C",
        "semantic_class": "concept_massing",
        "evidence_class": "DESIGN TARGET",
        "design_status": "concept",
        "geometry_role": "design_proposal",
        "host_scope": "OVERALL-DESIGN-001",
        "object_status": "new_design_volume",
        "height_hierarchy": "low",
        "height_status": "relative_design_envelope",
        "ground_floor_role": "public_observation",
        "active_ground_floor": true,
        "frontage_rule": "face public room or stitch; detailed setback requires survey",
        "existing_building_claim": false
      },
      "geometry": {
        "type": "Polygon",
        "coordinates": [
          [
            [
              116.344225,
              40.013
            ],
            [
              116.3455,
              40.013
            ],
            [
              116.3455,
              40.017175
            ],
            [
              116.345275,
              40.0174
            ],
            [
              116.344,
              40.0174
            ],
            [
              116.344,
              40.013225
            ],
            [
              116.344225,
              40.013
            ]
          ]
        ]
      }
    },
    {
      "type": "Feature",
      "id": "MASS-ZZY-D",
      "properties": {
        "id": "MASS-ZZY-D",
        "semantic_class": "concept_massing",
        "evidence_class": "DESIGN TARGET",
        "design_status": "concept",
        "geometry_role": "design_proposal",
        "host_scope": "OVERALL-DESIGN-001",
        "object_status": "concept_building",
        "height_hierarchy": "medium",
        "height_status": "relative_design_envelope",
        "ground_floor_role": "test_support",
        "active_ground_floor": true,
        "frontage_rule": "face public room or stitch; detailed setback requires survey",
        "existing_building_claim": false
      },
      "geometry": {
        "type": "Polygon",
        "coordinates": [
          [
            [
              116.351725,
              40.013
            ],
            [
              116.353,
              40.013
            ],
            [
              116.353,
              40.017175
            ],
            [
              116.352775,
              40.0174
            ],
            [
              116.3515,
              40.0174
            ],
            [
              116.3515,
              40.013225
            ],
            [
              116.351725,
              40.013
            ]
          ]
        ]
      }
    },
    {
      "type": "Feature",
      "id": "MASS-ZZY-E",
      "properties": {
        "id": "MASS-ZZY-E",
        "semantic_class": "concept_massing",
        "evidence_class": "DESIGN TARGET",
        "design_status": "concept",
        "geometry_role": "design_proposal",
        "host_scope": "OVERALL-DESIGN-001",
        "object_status": "concept_massing",
        "height_hierarchy": "low",
        "height_status": "relative_design_envelope",
        "ground_floor_role": "ecology_workshop",
        "active_ground_floor": true,
        "frontage_rule": "face public room or stitch; detailed setback requires survey",
        "existing_building_claim": false
      },
      "geometry": {
        "type": "Polygon",
        "coordinates": [
          [
            [
              116.34434499999999,
              40.0225
            ],
            [
              116.3465,
              40.0225
            ],
            [
              116.3465,
              40.024454999999996
            ],
            [
              116.34615500000001,
              40.0248
            ],
            [
              116.344,
              40.0248
            ],
            [
              116.344,
              40.022845000000004
            ],
            [
              116.34434499999999,
              40.0225
            ]
          ]
        ]
      }
    },
    {
      "type": "Feature",
      "id": "MASS-ZZY-F",
      "properties": {
        "id": "MASS-ZZY-F",
        "semantic_class": "concept_massing",
        "evidence_class": "DESIGN TARGET",
        "design_status": "concept",
        "geometry_role": "design_proposal",
        "host_scope": "OVERALL-DESIGN-001",
        "object_status": "new_design_volume",
        "height_hierarchy": "tall",
        "height_status": "relative_design_envelope",
        "ground_floor_role": "landmark_support",
        "active_ground_floor": true,
        "frontage_rule": "face public room or stitch; detailed setback requires survey",
        "existing_building_claim": false
      },
      "geometry": {
        "type": "Polygon",
        "coordinates": [
          [
            [
              116.35084499999999,
              40.0225
            ],
            [
              116.353,
              40.0225
            ],
            [
              116.353,
              40.024454999999996
            ],
            [
              116.352655,
              40.0248
            ],
            [
              116.3505,
              40.0248
            ],
            [
              116.3505,
              40.022845000000004
            ],
            [
              116.35084499999999,
              40.0225
            ]
          ]
        ]
      }
    }
  ]
}
