{
  "type": "FeatureCollection",
  "name": "jzoi_gate_b_mobility",
  "features": [
    {
      "type": "Feature",
      "id": "MOB-BG-ROAD-NS",
      "properties": {
        "id": "MOB-BG-ROAD-NS",
        "semantic_class": "mobility_background",
        "evidence_class": "APPROXIMATED_CONTEXT",
        "design_status": "background_reference",
        "geometry_role": "context_evidence",
        "host_scope": "OVERALL-DESIGN-001",
        "mobility_class": "background_road_context",
        "source_feature_id": "EX-ROAD-001",
        "redline_claim": false,
        "containment_applicable": false
      },
      "geometry": {
        "type": "LineString",
        "coordinates": [
          [
            116.332,
            39.945
          ],
          [
            116.333,
            39.99
          ],
          [
            116.334,
            40.025
          ]
        ]
      }
    },
    {
      "type": "Feature",
      "id": "MOB-PROPOSED-STREETS",
      "properties": {
        "id": "MOB-PROPOSED-STREETS",
        "semantic_class": "mobility_design",
        "evidence_class": "DESIGN TARGET",
        "design_status": "concept",
        "geometry_role": "design_proposal",
        "host_scope": "OVERALL-DESIGN-001",
        "mobility_class": "proposed_street",
        "public_path": true,
        "redline_claim": false
      },
      "geometry": {
        "type": "MultiLineString",
        "coordinates": [
          [
            [
              116.3424,
              39.9465
            ],
            [
              116.3545,
              39.9465
            ]
          ],
          [
            [
              116.3424,
              39.9885
            ],
            [
              116.3526,
              39.9885
            ]
          ],
          [
            [
              116.3434,
              40.0165
            ],
            [
              116.3536,
              40.0165
            ]
          ]
        ]
      }
    },
    {
      "type": "Feature",
      "id": "MOB-PEDESTRIAN-NETWORK",
      "properties": {
        "id": "MOB-PEDESTRIAN-NETWORK",
        "semantic_class": "mobility_design",
        "evidence_class": "DESIGN TARGET",
        "design_status": "concept",
        "geometry_role": "design_proposal",
        "host_scope": "OVERALL-DESIGN-001",
        "mobility_class": "pedestrian_path",
        "public_path": true,
        "access_intent": "step-free; detailed grades require survey"
      },
      "geometry": {
        "type": "MultiLineString",
        "coordinates": [
          [
            [
              116.3485,
              39.9443
            ],
            [
              116.3485,
              39.947
            ],
            [
              116.3475,
              39.9805
            ],
            [
              116.3475,
              39.9885
            ],
            [
              116.3485,
              40.0165
            ]
          ],
          [
            [
              116.3418,
              39.9885
            ],
            [
              116.353,
              39.9885
            ]
          ],
          [
            [
              116.3432,
              40.0165
            ],
            [
              116.3538,
              40.0165
            ]
          ]
        ]
      }
    },
    {
      "type": "Feature",
      "id": "MOB-CYCLE-NETWORK",
      "properties": {
        "id": "MOB-CYCLE-NETWORK",
        "semantic_class": "mobility_design",
        "evidence_class": "DESIGN TARGET",
        "design_status": "concept",
        "geometry_role": "design_proposal",
        "host_scope": "OVERALL-DESIGN-001",
        "mobility_class": "cycleway",
        "public_path": true
      },
      "geometry": {
        "type": "MultiLineString",
        "coordinates": [
          [
            [
              116.343,
              39.9478
            ],
            [
              116.3537,
              39.9478
            ]
          ],
          [
            [
              116.3426,
              39.9931
            ],
            [
              116.3524,
              39.9931
            ]
          ],
          [
            [
              116.3435,
              40.02
            ],
            [
              116.3534,
              40.02
            ]
          ]
        ]
      }
    },
    {
      "type": "Feature",
      "id": "MOB-LOGISTICS-NETWORK",
      "properties": {
        "id": "MOB-LOGISTICS-NETWORK",
        "semantic_class": "mobility_design",
        "evidence_class": "DESIGN TARGET",
        "design_status": "concept",
        "geometry_role": "design_proposal",
        "host_scope": "OVERALL-DESIGN-001",
        "mobility_class": "service_logistics",
        "public_path": false,
        "separation_rule": "time and access controlled; no public-path claim"
      },
      "geometry": {
        "type": "MultiLineString",
        "coordinates": [
          [
            [
              116.3542,
              39.9445
            ],
            [
              116.3542,
              39.9488
            ]
          ],
          [
            [
              116.3524,
              39.984
            ],
            [
              116.3524,
              39.987
            ]
          ],
          [
            [
              116.3534,
              40.008
            ],
            [
              116.3534,
              40.0148
            ]
          ]
        ]
      }
    },
    {
      "type": "Feature",
      "id": "MOB-EMERGENCY-NETWORK",
      "properties": {
        "id": "MOB-EMERGENCY-NETWORK",
        "semantic_class": "mobility_design",
        "evidence_class": "DESIGN TARGET",
        "design_status": "concept",
        "geometry_role": "design_proposal",
        "host_scope": "OVERALL-DESIGN-001",
        "mobility_class": "emergency_access",
        "public_path": false,
        "separation_rule": "controlled emergency access; detailed code review pending"
      },
      "geometry": {
        "type": "MultiLineString",
        "coordinates": [
          [
            [
              116.3426,
              39.9446
            ],
            [
              116.3426,
              39.949
            ]
          ],
          [
            [
              116.3426,
              39.984
            ],
            [
              116.3426,
              39.9928
            ]
          ],
          [
            [
              116.3435,
              40.008
            ],
            [
              116.3435,
              40.0248
            ]
          ]
        ]
      }
    },
    {
      "type": "Feature",
      "id": "DZS-STATION-BACKGROUND-RELATIONSHIP",
      "properties": {
        "id": "DZS-STATION-BACKGROUND-RELATIONSHIP",
        "semantic_class": "unresolved_station_relationship",
        "evidence_class": "DATA_GAP",
        "design_status": "background_reference",
        "geometry_role": "unresolved_context",
        "host_scope": "KEY-AREA-SCOPE-DZS",
        "mobility_class": "rail_station_background_relationship",
        "source_feature_id": "EX-TRANSIT-003",
        "physical_connection_claim": false,
        "station_entrance_claim": false
      },
      "geometry": null
    }
  ]
}
