{
  "type": "FeatureCollection",
  "name": "jzoi_gate_b_org_plan",
  "features": [
    {
      "type": "Feature",
      "id": "ORG-RESEARCH",
      "properties": {
        "id": "ORG-RESEARCH",
        "semantic_class": "research",
        "evidence_class": "DESIGN TARGET",
        "design_status": "concept",
        "geometry_role": "design_proposal",
        "host_scope": "KEY-AREA-SCOPE-ORG",
        "endpoint": "ORG",
        "confidence": "low",
        "boundary_interpretation": "provisional study polygon; not parcel or road redline",
        "project_refs": [
          "JZOI-P04"
        ]
      },
      "geometry": {
        "type": "Polygon",
        "coordinates": [
          [
            [
              116.34285,
              39.984
            ],
            [
              116.345,
              39.984
            ],
            [
              116.345,
              39.98655
            ],
            [
              116.34475,
              39.9868
            ],
            [
              116.3426,
              39.9868
            ],
            [
              116.3426,
              39.98425
            ],
            [
              116.34285,
              39.984
            ]
          ]
        ]
      }
    },
    {
      "type": "Feature",
      "id": "ORG-TRANSLATION",
      "properties": {
        "id": "ORG-TRANSLATION",
        "semantic_class": "translation",
        "evidence_class": "DESIGN TARGET",
        "design_status": "concept",
        "geometry_role": "design_proposal",
        "host_scope": "KEY-AREA-SCOPE-ORG",
        "endpoint": "ORG",
        "confidence": "low",
        "boundary_interpretation": "provisional study polygon; not parcel or road redline",
        "project_refs": [
          "JZOI-P04"
        ]
      },
      "geometry": {
        "type": "Polygon",
        "coordinates": [
          [
            [
              116.34562,
              39.984
            ],
            [
              116.3472,
              39.984
            ],
            [
              116.3472,
              39.986580000000004
            ],
            [
              116.34698,
              39.9868
            ],
            [
              116.3454,
              39.9868
            ],
            [
              116.3454,
              39.98422
            ],
            [
              116.34562,
              39.984
            ]
          ]
        ]
      }
    },
    {
      "type": "Feature",
      "id": "ORG-PROTOTYPE",
      "properties": {
        "id": "ORG-PROTOTYPE",
        "semantic_class": "prototype",
        "evidence_class": "DESIGN TARGET",
        "design_status": "concept",
        "geometry_role": "design_proposal",
        "host_scope": "KEY-AREA-SCOPE-ORG",
        "endpoint": "ORG",
        "confidence": "low",
        "boundary_interpretation": "provisional study polygon; not parcel or road redline",
        "project_refs": [
          "JZOI-P04",
          "JZOI-P05"
        ]
      },
      "geometry": {
        "type": "Polygon",
        "coordinates": [
          [
            [
              116.34802,
              39.984
            ],
            [
              116.3496,
              39.984
            ],
            [
              116.3496,
              39.986580000000004
            ],
            [
              116.34938,
              39.9868
            ],
            [
              116.3478,
              39.9868
            ],
            [
              116.3478,
              39.98422
            ],
            [
              116.34802,
              39.984
            ]
          ]
        ]
      }
    },
    {
      "type": "Feature",
      "id": "ORG-OPEN-SOURCE-COMMONS",
      "properties": {
        "id": "ORG-OPEN-SOURCE-COMMONS",
        "semantic_class": "open_source_commons",
        "evidence_class": "DESIGN TARGET",
        "design_status": "concept",
        "geometry_role": "design_proposal",
        "host_scope": "KEY-AREA-SCOPE-ORG",
        "endpoint": "ORG",
        "confidence": "low",
        "boundary_interpretation": "provisional study polygon; not parcel or road redline",
        "public_path": true,
        "ground_floor_access": "open public commons during operating hours"
      },
      "geometry": {
        "type": "Polygon",
        "coordinates": [
          [
            [
              116.34548000000001,
              39.9874
            ],
            [
              116.3498,
              39.9874
            ],
            [
              116.3498,
              39.989320000000006
            ],
            [
              116.34952,
              39.9896
            ],
            [
              116.3452,
              39.9896
            ],
            [
              116.3452,
              39.98768
            ],
            [
              116.34548000000001,
              39.9874
            ]
          ]
        ]
      }
    },
    {
      "type": "Feature",
      "id": "ORG-STARTUP-INCUBATION",
      "properties": {
        "id": "ORG-STARTUP-INCUBATION",
        "semantic_class": "startup_incubation",
        "evidence_class": "DESIGN TARGET",
        "design_status": "concept",
        "geometry_role": "design_proposal",
        "host_scope": "KEY-AREA-SCOPE-ORG",
        "endpoint": "ORG",
        "confidence": "low",
        "boundary_interpretation": "provisional study polygon; not parcel or road redline",
        "project_refs": [
          "JZOI-P05"
        ]
      },
      "geometry": {
        "type": "Polygon",
        "coordinates": [
          [
            [
              116.35024999999999,
              39.984
            ],
            [
              116.3524,
              39.984
            ],
            [
              116.3524,
              39.98655
            ],
            [
              116.35215000000001,
              39.9868
            ],
            [
              116.35,
              39.9868
            ],
            [
              116.35,
              39.98425
            ],
            [
              116.35024999999999,
              39.984
            ]
          ]
        ]
      }
    },
    {
      "type": "Feature",
      "id": "ORG-FOUR-WAY-PERMEABILITY",
      "properties": {
        "id": "ORG-FOUR-WAY-PERMEABILITY",
        "semantic_class": "permeability_path",
        "evidence_class": "DESIGN TARGET",
        "design_status": "concept",
        "geometry_role": "design_proposal",
        "host_scope": "KEY-AREA-SCOPE-ORG",
        "endpoint": "ORG",
        "confidence": "low",
        "boundary_interpretation": "provisional study polygon; not parcel or road redline",
        "public_path": true,
        "directions": [
          "west",
          "east",
          "south",
          "north"
        ],
        "access_intent": "step-free four-direction public network; grades require survey"
      },
      "geometry": {
        "type": "MultiLineString",
        "coordinates": [
          [
            [
              116.3422,
              39.9885
            ],
            [
              116.3528,
              39.9885
            ]
          ],
          [
            [
              116.3475,
              39.9838
            ],
            [
              116.3475,
              39.9932
            ]
          ],
          [
            [
              116.3424,
              39.9855
            ],
            [
              116.3475,
              39.9885
            ]
          ],
          [
            [
              116.3526,
              39.9915
            ],
            [
              116.3475,
              39.9885
            ]
          ]
        ]
      }
    },
    {
      "type": "Feature",
      "id": "ORG-NEIGHBORHOOD-SERVICE",
      "properties": {
        "id": "ORG-NEIGHBORHOOD-SERVICE",
        "semantic_class": "neighborhood_service",
        "evidence_class": "DESIGN TARGET",
        "design_status": "concept",
        "geometry_role": "design_proposal",
        "host_scope": "KEY-AREA-SCOPE-ORG",
        "endpoint": "ORG",
        "confidence": "low",
        "boundary_interpretation": "provisional study polygon; not parcel or road redline",
        "non_digital_access": true,
        "project_refs": [
          "JZOI-P05"
        ]
      },
      "geometry": {
        "type": "Polygon",
        "coordinates": [
          [
            [
              116.34285,
              39.9902
            ],
            [
              116.345,
              39.9902
            ],
            [
              116.345,
              39.99265
            ],
            [
              116.34475,
              39.9929
            ],
            [
              116.3426,
              39.9929
            ],
            [
              116.3426,
              39.99045
            ],
            [
              116.34285,
              39.9902
            ]
          ]
        ]
      }
    },
    {
      "type": "Feature",
      "id": "ORG-TALENT-SERVICE",
      "properties": {
        "id": "ORG-TALENT-SERVICE",
        "semantic_class": "talent_service",
        "evidence_class": "DESIGN TARGET",
        "design_status": "concept",
        "geometry_role": "design_proposal",
        "host_scope": "KEY-AREA-SCOPE-ORG",
        "endpoint": "ORG",
        "confidence": "low",
        "boundary_interpretation": "provisional study polygon; not parcel or road redline",
        "non_digital_access": true,
        "project_refs": [
          "JZOI-P10"
        ]
      },
      "geometry": {
        "type": "Polygon",
        "coordinates": [
          [
            [
              116.35024999999999,
              39.9902
            ],
            [
              116.3524,
              39.9902
            ],
            [
              116.3524,
              39.99265
            ],
            [
              116.35215000000001,
              39.9929
            ],
            [
              116.35,
              39.9929
            ],
            [
              116.35,
              39.99045
            ],
            [
              116.35024999999999,
              39.9902
            ]
          ]
        ]
      }
    },
    {
      "type": "Feature",
      "id": "ORG-ACTIVE-GROUND-FLOOR",
      "properties": {
        "id": "ORG-ACTIVE-GROUND-FLOOR",
        "semantic_class": "active_ground_floor",
        "evidence_class": "DESIGN TARGET",
        "design_status": "concept",
        "geometry_role": "design_proposal",
        "host_scope": "KEY-AREA-SCOPE-ORG",
        "endpoint": "ORG",
        "confidence": "low",
        "boundary_interpretation": "provisional study polygon; not parcel or road redline",
        "ground_floor_programs": [
          "commons",
          "translation desk",
          "neighborhood service",
          "startup showcase"
        ]
      },
      "geometry": {
        "type": "MultiLineString",
        "coordinates": [
          [
            [
              116.3428,
              39.9872
            ],
            [
              116.3468,
              39.9872
            ]
          ],
          [
            [
              116.3482,
              39.9898
            ],
            [
              116.3522,
              39.9898
            ]
          ]
        ]
      }
    },
    {
      "type": "Feature",
      "id": "ORG-PUBLIC-PRIVATE-GRADIENT",
      "properties": {
        "id": "ORG-PUBLIC-PRIVATE-GRADIENT",
        "semantic_class": "public_private_gradient",
        "evidence_class": "DESIGN TARGET",
        "design_status": "concept",
        "geometry_role": "design_proposal",
        "host_scope": "KEY-AREA-SCOPE-ORG",
        "endpoint": "ORG",
        "confidence": "low",
        "boundary_interpretation": "provisional study polygon; not parcel or road redline",
        "sequence": [
          "public commons",
          "shared translation",
          "booked prototype",
          "controlled research"
        ]
      },
      "geometry": {
        "type": "Polygon",
        "coordinates": [
          [
            [
              116.34525,
              39.9869
            ],
            [
              116.35,
              39.9869
            ],
            [
              116.35,
              39.98985
            ],
            [
              116.34975,
              39.9901
            ],
            [
              116.345,
              39.9901
            ],
            [
              116.345,
              39.98715
            ],
            [
              116.34525,
              39.9869
            ]
          ]
        ]
      }
    },
    {
      "type": "Feature",
      "id": "ORG-COMMONS-ROOM",
      "properties": {
        "id": "ORG-COMMONS-ROOM",
        "semantic_class": "public_space",
        "evidence_class": "DESIGN TARGET",
        "design_status": "concept",
        "geometry_role": "design_proposal",
        "host_scope": "KEY-AREA-SCOPE-ORG",
        "endpoint": "ORG",
        "confidence": "low",
        "boundary_interpretation": "provisional study polygon; not parcel or road redline",
        "public_path": true,
        "project_refs": [
          "JZOI-P04"
        ]
      },
      "geometry": {
        "type": "Polygon",
        "coordinates": [
          [
            [
              116.3464,
              39.9877
            ],
            [
              116.3488,
              39.9877
            ],
            [
              116.3488,
              39.9891
            ],
            [
              116.34859999999999,
              39.9893
            ],
            [
              116.3462,
              39.9893
            ],
            [
              116.3462,
              39.987899999999996
            ],
            [
              116.3464,
              39.9877
            ]
          ]
        ]
      }
    },
    {
      "type": "Feature",
      "id": "ORG-COURTYARD-MASSING",
      "properties": {
        "id": "ORG-COURTYARD-MASSING",
        "semantic_class": "concept_massing",
        "evidence_class": "DESIGN TARGET",
        "design_status": "concept",
        "geometry_role": "design_proposal",
        "host_scope": "KEY-AREA-SCOPE-ORG",
        "endpoint": "ORG",
        "confidence": "low",
        "boundary_interpretation": "provisional study polygon; not parcel or road redline",
        "object_status": "concept_building",
        "height_hierarchy": "medium",
        "height_status": "relative_design_envelope",
        "courtyard_logic": true
      },
      "geometry": {
        "type": "Polygon",
        "coordinates": [
          [
            [
              116.3505,
              39.9872
            ],
            [
              116.3523,
              39.9872
            ],
            [
              116.3523,
              39.9893
            ],
            [
              116.352,
              39.9896
            ],
            [
              116.3502,
              39.9896
            ],
            [
              116.3502,
              39.987500000000004
            ],
            [
              116.3505,
              39.9872
            ]
          ]
        ]
      }
    },
    {
      "type": "Feature",
      "id": "ORG-SECTION-A",
      "properties": {
        "id": "ORG-SECTION-A",
        "semantic_class": "section_logic",
        "evidence_class": "DESIGN TARGET",
        "design_status": "concept",
        "geometry_role": "design_proposal",
        "host_scope": "KEY-AREA-SCOPE-ORG",
        "endpoint": "ORG",
        "confidence": "low",
        "boundary_interpretation": "provisional study polygon; not parcel or road redline",
        "sequence": [
          "campus context",
          "research",
          "commons",
          "startup",
          "neighborhood context"
        ]
      },
      "geometry": {
        "type": "LineString",
        "coordinates": [
          [
            116.3423,
            39.9885
          ],
          [
            116.3527,
            39.9885
          ]
        ]
      }
    }
  ]
}
