{
  "type": "FeatureCollection",
  "name": "jzoi_gate_b_overall_structure",
  "features": [
    {
      "type": "Feature",
      "id": "MAIN-IF-01",
      "properties": {
        "id": "MAIN-IF-01",
        "semantic_class": "main_if_segment",
        "evidence_class": "DESIGN TARGET",
        "design_status": "concept",
        "geometry_role": "design_proposal",
        "host_scope": "OVERALL-DESIGN-001",
        "network_id": "MAIN-IF",
        "sequence": 1,
        "name_en": "DZS switch",
        "public_path": true,
        "access_intent": "step-free continuous public route; verification pending",
        "physical_corridor_claim": true
      },
      "geometry": {
        "type": "LineString",
        "coordinates": [
          [
            116.3485,
            39.9443
          ],
          [
            116.3485,
            39.947
          ]
        ]
      }
    },
    {
      "type": "Feature",
      "id": "PARALLEL-HUMAN-01",
      "properties": {
        "id": "PARALLEL-HUMAN-01",
        "semantic_class": "parallel_human_segment",
        "evidence_class": "DESIGN TARGET",
        "design_status": "concept",
        "geometry_role": "design_proposal",
        "host_scope": "OVERALL-DESIGN-001",
        "network_id": "PARALLEL-HUMAN",
        "sequence": 1,
        "public_path": true,
        "access_intent": "step-free staffed alternative; DESIGN INTENT",
        "non_digital_access": true,
        "physical_corridor_claim": true
      },
      "geometry": {
        "type": "LineString",
        "coordinates": [
          [
            116.3423,
            39.9468
          ],
          [
            116.3462,
            39.9472
          ]
        ]
      }
    },
    {
      "type": "Feature",
      "id": "MAIN-IF-02",
      "properties": {
        "id": "MAIN-IF-02",
        "semantic_class": "main_if_segment",
        "evidence_class": "DESIGN TARGET",
        "design_status": "concept",
        "geometry_role": "design_proposal",
        "host_scope": "OVERALL-DESIGN-001",
        "network_id": "MAIN-IF",
        "sequence": 2,
        "name_en": "South civic link",
        "public_path": true,
        "access_intent": "step-free continuous public route; verification pending",
        "physical_corridor_claim": true
      },
      "geometry": {
        "type": "LineString",
        "coordinates": [
          [
            116.3485,
            39.947
          ],
          [
            116.3475,
            39.9805
          ]
        ]
      }
    },
    {
      "type": "Feature",
      "id": "PARALLEL-HUMAN-02",
      "properties": {
        "id": "PARALLEL-HUMAN-02",
        "semantic_class": "parallel_human_segment",
        "evidence_class": "DESIGN TARGET",
        "design_status": "concept",
        "geometry_role": "design_proposal",
        "host_scope": "OVERALL-DESIGN-001",
        "network_id": "PARALLEL-HUMAN",
        "sequence": 2,
        "public_path": true,
        "access_intent": "step-free staffed alternative; DESIGN INTENT",
        "non_digital_access": true,
        "physical_corridor_claim": true
      },
      "geometry": {
        "type": "LineString",
        "coordinates": [
          [
            116.3462,
            39.9472
          ],
          [
            116.3445,
            39.9805
          ]
        ]
      }
    },
    {
      "type": "Feature",
      "id": "MAIN-IF-03",
      "properties": {
        "id": "MAIN-IF-03",
        "semantic_class": "main_if_segment",
        "evidence_class": "DESIGN TARGET",
        "design_status": "concept",
        "geometry_role": "design_proposal",
        "host_scope": "OVERALL-DESIGN-001",
        "network_id": "MAIN-IF",
        "sequence": 3,
        "name_en": "ORG commons link",
        "public_path": true,
        "access_intent": "step-free continuous public route; verification pending",
        "physical_corridor_claim": true
      },
      "geometry": {
        "type": "LineString",
        "coordinates": [
          [
            116.3475,
            39.9805
          ],
          [
            116.3475,
            39.9885
          ]
        ]
      }
    },
    {
      "type": "Feature",
      "id": "PARALLEL-HUMAN-03",
      "properties": {
        "id": "PARALLEL-HUMAN-03",
        "semantic_class": "parallel_human_segment",
        "evidence_class": "DESIGN TARGET",
        "design_status": "concept",
        "geometry_role": "design_proposal",
        "host_scope": "OVERALL-DESIGN-001",
        "network_id": "PARALLEL-HUMAN",
        "sequence": 3,
        "public_path": true,
        "access_intent": "step-free staffed alternative; DESIGN INTENT",
        "non_digital_access": true,
        "physical_corridor_claim": true
      },
      "geometry": {
        "type": "LineString",
        "coordinates": [
          [
            116.3445,
            39.9805
          ],
          [
            116.3452,
            39.9885
          ]
        ]
      }
    },
    {
      "type": "Feature",
      "id": "MAIN-IF-04",
      "properties": {
        "id": "MAIN-IF-04",
        "semantic_class": "main_if_segment",
        "evidence_class": "DESIGN TARGET",
        "design_status": "concept",
        "geometry_role": "design_proposal",
        "host_scope": "OVERALL-DESIGN-001",
        "network_id": "MAIN-IF",
        "sequence": 4,
        "name_en": "North test link",
        "public_path": true,
        "access_intent": "step-free continuous public route; verification pending",
        "physical_corridor_claim": true
      },
      "geometry": {
        "type": "LineString",
        "coordinates": [
          [
            116.3475,
            39.9885
          ],
          [
            116.3485,
            40.0165
          ]
        ]
      }
    },
    {
      "type": "Feature",
      "id": "PARALLEL-HUMAN-04",
      "properties": {
        "id": "PARALLEL-HUMAN-04",
        "semantic_class": "parallel_human_segment",
        "evidence_class": "DESIGN TARGET",
        "design_status": "concept",
        "geometry_role": "design_proposal",
        "host_scope": "OVERALL-DESIGN-001",
        "network_id": "PARALLEL-HUMAN",
        "sequence": 4,
        "public_path": true,
        "access_intent": "step-free staffed alternative; DESIGN INTENT",
        "non_digital_access": true,
        "physical_corridor_claim": true
      },
      "geometry": {
        "type": "LineString",
        "coordinates": [
          [
            116.3452,
            39.9885
          ],
          [
            116.346,
            40.0165
          ]
        ]
      }
    },
    {
      "type": "Feature",
      "id": "HUMAN-NODE-DZS-SOUTH",
      "properties": {
        "id": "HUMAN-NODE-DZS-SOUTH",
        "semantic_class": "human_service_node",
        "evidence_class": "DESIGN TARGET",
        "design_status": "concept",
        "geometry_role": "design_proposal",
        "host_scope": "OVERALL-DESIGN-001",
        "network_id": "PARALLEL-HUMAN",
        "endpoint": "DZS",
        "staffed_service": true,
        "non_digital_access": true,
        "coverage_status": "DESIGN INTENT"
      },
      "geometry": {
        "type": "Point",
        "coordinates": [
          116.3423,
          39.9468
        ]
      }
    },
    {
      "type": "Feature",
      "id": "HUMAN-NODE-DZS-HRG",
      "properties": {
        "id": "HUMAN-NODE-DZS-HRG",
        "semantic_class": "human_service_node",
        "evidence_class": "DESIGN TARGET",
        "design_status": "concept",
        "geometry_role": "design_proposal",
        "host_scope": "OVERALL-DESIGN-001",
        "network_id": "PARALLEL-HUMAN",
        "endpoint": "DZS",
        "staffed_service": true,
        "non_digital_access": true,
        "coverage_status": "DESIGN INTENT"
      },
      "geometry": {
        "type": "Point",
        "coordinates": [
          116.3462,
          39.9472
        ]
      }
    },
    {
      "type": "Feature",
      "id": "HUMAN-NODE-SOUTH-RELAY",
      "properties": {
        "id": "HUMAN-NODE-SOUTH-RELAY",
        "semantic_class": "human_service_node",
        "evidence_class": "DESIGN TARGET",
        "design_status": "concept",
        "geometry_role": "design_proposal",
        "host_scope": "OVERALL-DESIGN-001",
        "network_id": "PARALLEL-HUMAN",
        "endpoint": "OVERALL",
        "staffed_service": true,
        "non_digital_access": true,
        "coverage_status": "DESIGN INTENT"
      },
      "geometry": {
        "type": "Point",
        "coordinates": [
          116.3445,
          39.9805
        ]
      }
    },
    {
      "type": "Feature",
      "id": "HUMAN-NODE-ORG-HRG",
      "properties": {
        "id": "HUMAN-NODE-ORG-HRG",
        "semantic_class": "human_service_node",
        "evidence_class": "DESIGN TARGET",
        "design_status": "concept",
        "geometry_role": "design_proposal",
        "host_scope": "OVERALL-DESIGN-001",
        "network_id": "PARALLEL-HUMAN",
        "endpoint": "ORG",
        "staffed_service": true,
        "non_digital_access": true,
        "coverage_status": "DESIGN INTENT"
      },
      "geometry": {
        "type": "Point",
        "coordinates": [
          116.3452,
          39.9885
        ]
      }
    },
    {
      "type": "Feature",
      "id": "HUMAN-NODE-NORTH-RELAY",
      "properties": {
        "id": "HUMAN-NODE-NORTH-RELAY",
        "semantic_class": "human_service_node",
        "evidence_class": "DESIGN TARGET",
        "design_status": "concept",
        "geometry_role": "design_proposal",
        "host_scope": "OVERALL-DESIGN-001",
        "network_id": "PARALLEL-HUMAN",
        "endpoint": "OVERALL",
        "staffed_service": true,
        "non_digital_access": true,
        "coverage_status": "DESIGN INTENT"
      },
      "geometry": {
        "type": "Point",
        "coordinates": [
          116.345,
          40.002
        ]
      }
    },
    {
      "type": "Feature",
      "id": "HUMAN-NODE-ZZY-HRG",
      "properties": {
        "id": "HUMAN-NODE-ZZY-HRG",
        "semantic_class": "human_service_node",
        "evidence_class": "DESIGN TARGET",
        "design_status": "concept",
        "geometry_role": "design_proposal",
        "host_scope": "OVERALL-DESIGN-001",
        "network_id": "PARALLEL-HUMAN",
        "endpoint": "ZZY",
        "staffed_service": true,
        "non_digital_access": true,
        "coverage_status": "DESIGN INTENT"
      },
      "geometry": {
        "type": "Point",
        "coordinates": [
          116.346,
          40.0165
        ]
      }
    },
    {
      "type": "Feature",
      "id": "EW-STITCH-DZS",
      "properties": {
        "id": "EW-STITCH-DZS",
        "semantic_class": "east_west_public_stitch",
        "evidence_class": "DESIGN TARGET",
        "design_status": "concept",
        "geometry_role": "design_proposal",
        "host_scope": "OVERALL-DESIGN-001",
        "endpoint": "DZS",
        "public_path": true,
        "spatial_claim": "proposed public connection; alignment subject to survey"
      },
      "geometry": {
        "type": "LineString",
        "coordinates": [
          [
            116.3415,
            39.947
          ],
          [
            116.3538,
            39.947
          ]
        ]
      }
    },
    {
      "type": "Feature",
      "id": "EW-STITCH-ORG",
      "properties": {
        "id": "EW-STITCH-ORG",
        "semantic_class": "east_west_public_stitch",
        "evidence_class": "DESIGN TARGET",
        "design_status": "concept",
        "geometry_role": "design_proposal",
        "host_scope": "OVERALL-DESIGN-001",
        "endpoint": "ORG",
        "public_path": true,
        "spatial_claim": "proposed public connection; alignment subject to survey"
      },
      "geometry": {
        "type": "LineString",
        "coordinates": [
          [
            116.3418,
            39.9885
          ],
          [
            116.353,
            39.9885
          ]
        ]
      }
    },
    {
      "type": "Feature",
      "id": "EW-STITCH-ZZY",
      "properties": {
        "id": "EW-STITCH-ZZY",
        "semantic_class": "east_west_public_stitch",
        "evidence_class": "DESIGN TARGET",
        "design_status": "concept",
        "geometry_role": "design_proposal",
        "host_scope": "OVERALL-DESIGN-001",
        "endpoint": "ZZY",
        "public_path": true,
        "spatial_claim": "proposed public connection; alignment subject to survey"
      },
      "geometry": {
        "type": "LineString",
        "coordinates": [
          [
            116.3432,
            40.0165
          ],
          [
            116.3538,
            40.0165
          ]
        ]
      }
    },
    {
      "type": "Feature",
      "id": "GATEWAY-DZS",
      "properties": {
        "id": "GATEWAY-DZS",
        "semantic_class": "endpoint_gateway",
        "evidence_class": "DESIGN TARGET",
        "design_status": "concept",
        "geometry_role": "design_proposal",
        "host_scope": "OVERALL-DESIGN-001",
        "endpoint": "DZS",
        "network_id": "MAIN-IF",
        "destination_ref": "PUBLIC-ROOM-DZS"
      },
      "geometry": {
        "type": "Point",
        "coordinates": [
          116.3485,
          39.947
        ]
      }
    },
    {
      "type": "Feature",
      "id": "PUBLIC-ROOM-DZS",
      "properties": {
        "id": "PUBLIC-ROOM-DZS",
        "semantic_class": "endpoint_public_room",
        "evidence_class": "DESIGN TARGET",
        "design_status": "concept",
        "geometry_role": "design_proposal",
        "host_scope": "OVERALL-DESIGN-001",
        "endpoint": "DZS",
        "public_path": true,
        "project_refs": [
          "JZOI-P01"
        ]
      },
      "geometry": {
        "type": "Polygon",
        "coordinates": [
          [
            [
              116.3475,
              39.9463
            ],
            [
              116.3495,
              39.9463
            ],
            [
              116.3495,
              39.947700000000005
            ],
            [
              116.3475,
              39.947700000000005
            ],
            [
              116.3475,
              39.9463
            ]
          ]
        ]
      }
    },
    {
      "type": "Feature",
      "id": "GATEWAY-ORG",
      "properties": {
        "id": "GATEWAY-ORG",
        "semantic_class": "endpoint_gateway",
        "evidence_class": "DESIGN TARGET",
        "design_status": "concept",
        "geometry_role": "design_proposal",
        "host_scope": "OVERALL-DESIGN-001",
        "endpoint": "ORG",
        "network_id": "MAIN-IF",
        "destination_ref": "PUBLIC-ROOM-ORG"
      },
      "geometry": {
        "type": "Point",
        "coordinates": [
          116.3475,
          39.9885
        ]
      }
    },
    {
      "type": "Feature",
      "id": "PUBLIC-ROOM-ORG",
      "properties": {
        "id": "PUBLIC-ROOM-ORG",
        "semantic_class": "endpoint_public_room",
        "evidence_class": "DESIGN TARGET",
        "design_status": "concept",
        "geometry_role": "design_proposal",
        "host_scope": "OVERALL-DESIGN-001",
        "endpoint": "ORG",
        "public_path": true,
        "project_refs": [
          "JZOI-P01"
        ]
      },
      "geometry": {
        "type": "Polygon",
        "coordinates": [
          [
            [
              116.34649999999999,
              39.9878
            ],
            [
              116.3485,
              39.9878
            ],
            [
              116.3485,
              39.989200000000004
            ],
            [
              116.34649999999999,
              39.989200000000004
            ],
            [
              116.34649999999999,
              39.9878
            ]
          ]
        ]
      }
    },
    {
      "type": "Feature",
      "id": "GATEWAY-ZZY",
      "properties": {
        "id": "GATEWAY-ZZY",
        "semantic_class": "endpoint_gateway",
        "evidence_class": "DESIGN TARGET",
        "design_status": "concept",
        "geometry_role": "design_proposal",
        "host_scope": "OVERALL-DESIGN-001",
        "endpoint": "ZZY",
        "network_id": "MAIN-IF",
        "destination_ref": "PUBLIC-ROOM-ZZY"
      },
      "geometry": {
        "type": "Point",
        "coordinates": [
          116.3485,
          40.0165
        ]
      }
    },
    {
      "type": "Feature",
      "id": "PUBLIC-ROOM-ZZY",
      "properties": {
        "id": "PUBLIC-ROOM-ZZY",
        "semantic_class": "endpoint_public_room",
        "evidence_class": "DESIGN TARGET",
        "design_status": "concept",
        "geometry_role": "design_proposal",
        "host_scope": "OVERALL-DESIGN-001",
        "endpoint": "ZZY",
        "public_path": true,
        "project_refs": [
          "JZOI-P01"
        ]
      },
      "geometry": {
        "type": "Polygon",
        "coordinates": [
          [
            [
              116.3475,
              40.0158
            ],
            [
              116.3495,
              40.0158
            ],
            [
              116.3495,
              40.0172
            ],
            [
              116.3475,
              40.0172
            ],
            [
              116.3475,
              40.0158
            ]
          ]
        ]
      }
    }
  ]
}
