{
  "type": "FeatureCollection",
  "name": "jzoi_gate_b_project_spatial_basis",
  "features": [
    {
      "type": "Feature",
      "id": "PROJECT-BASIS-JZOI-P01",
      "properties": {
        "id": "PROJECT-BASIS-JZOI-P01",
        "semantic_class": "project_spatial_basis",
        "evidence_class": "DESIGN TARGET",
        "design_status": "concept",
        "geometry_role": "design_proposal",
        "host_scope": "OVERALL-DESIGN-001",
        "project_id": "JZOI-P01",
        "project_name": "Continuous public interface",
        "host_refs": [
          "OVERALL-DESIGN-001"
        ],
        "key_spatial_intervention": "connect MAIN-IF, PARALLEL-HUMAN, gateways, and endpoint public rooms",
        "dependencies": [
          "official redlines",
          "accessibility survey",
          "fire access"
        ],
        "scenario_refs": [
          "SC-02",
          "SC-04",
          "SC-08",
          "SC-12"
        ],
        "feature_refs": [
          "MAIN-IF-01",
          "MAIN-IF-02",
          "MAIN-IF-03",
          "MAIN-IF-04",
          "PARALLEL-HUMAN-01",
          "PARALLEL-HUMAN-02",
          "PARALLEL-HUMAN-03",
          "PARALLEL-HUMAN-04"
        ],
        "spatial_status": "Gate B basis only; project registry not finalized"
      },
      "geometry": {
        "type": "MultiLineString",
        "coordinates": [
          [
            [
              116.346,
              39.9452
            ],
            [
              116.3485,
              39.947
            ],
            [
              116.345,
              39.972
            ],
            [
              116.3475,
              39.9885
            ],
            [
              116.3485,
              40.0165
            ]
          ],
          [
            [
              116.3438,
              39.9452
            ],
            [
              116.3462,
              39.9472
            ],
            [
              116.3434,
              39.972
            ],
            [
              116.3452,
              39.9885
            ],
            [
              116.346,
              40.0165
            ]
          ]
        ]
      }
    },
    {
      "type": "Feature",
      "id": "PROJECT-BASIS-JZOI-P02",
      "properties": {
        "id": "PROJECT-BASIS-JZOI-P02",
        "semantic_class": "project_spatial_basis",
        "evidence_class": "DESIGN TARGET",
        "design_status": "concept",
        "geometry_role": "design_proposal",
        "host_scope": "OVERALL-DESIGN-001",
        "project_id": "JZOI-P02",
        "project_name": "Controlled Yard",
        "host_refs": [
          "KEY-AREA-SCOPE-ZZY"
        ],
        "key_spatial_intervention": "controlled test yard, human review, observation, and physical stop",
        "dependencies": [
          "test safety case",
          "responsibility insurance",
          "professional review"
        ],
        "scenario_refs": [
          "SC-01",
          "SC-02"
        ],
        "feature_refs": [
          "ZZY-CONTROLLED-YARD",
          "ZZY-HUMAN-REVIEW-GATE",
          "ZZY-TEST-RAIL-STOP"
        ],
        "spatial_status": "Gate B basis only; project registry not finalized"
      },
      "geometry": {
        "type": "Point",
        "coordinates": [
          116.3487,
          40.0147
        ]
      }
    },
    {
      "type": "Feature",
      "id": "PROJECT-BASIS-JZOI-P03",
      "properties": {
        "id": "PROJECT-BASIS-JZOI-P03",
        "semantic_class": "project_spatial_basis",
        "evidence_class": "DESIGN TARGET",
        "design_status": "concept",
        "geometry_role": "design_proposal",
        "host_scope": "OVERALL-DESIGN-001",
        "project_id": "JZOI-P03",
        "project_name": "Qinghe human and ecology interface",
        "host_refs": [
          "KEY-AREA-SCOPE-ZZY"
        ],
        "key_spatial_intervention": "rainwater ecology edge, manual operation, and public bypass",
        "dependencies": [
          "Qinghe blue-line",
          "flood data",
          "maintenance agreement"
        ],
        "scenario_refs": [
          "SC-03",
          "SC-04"
        ],
        "feature_refs": [
          "ZZY-QINGHE-RAIN-GARDEN",
          "ZZY-ORDINARY-PUBLIC-PATH",
          "COMP-QUIET-BEACON"
        ],
        "spatial_status": "Gate B basis only; project registry not finalized"
      },
      "geometry": {
        "type": "LineString",
        "coordinates": [
          [
            116.3435,
            40.0212
          ],
          [
            116.3535,
            40.0212
          ]
        ]
      }
    },
    {
      "type": "Feature",
      "id": "PROJECT-BASIS-JZOI-P04",
      "properties": {
        "id": "PROJECT-BASIS-JZOI-P04",
        "semantic_class": "project_spatial_basis",
        "evidence_class": "DESIGN TARGET",
        "design_status": "concept",
        "geometry_role": "design_proposal",
        "host_scope": "OVERALL-DESIGN-001",
        "project_id": "JZOI-P04",
        "project_name": "Origin open-source commons",
        "host_refs": [
          "KEY-AREA-SCOPE-ORG"
        ],
        "key_spatial_intervention": "four-way commons linking research, translation, and prototype",
        "dependencies": [
          "campus-city agreement",
          "open-source licensing review",
          "operating hours"
        ],
        "scenario_refs": [
          "SC-05",
          "SC-06"
        ],
        "feature_refs": [
          "ORG-OPEN-SOURCE-COMMONS",
          "ORG-FOUR-WAY-PERMEABILITY",
          "ORG-TRANSLATION"
        ],
        "spatial_status": "Gate B basis only; project registry not finalized"
      },
      "geometry": {
        "type": "Point",
        "coordinates": [
          116.3475,
          39.9885
        ]
      }
    },
    {
      "type": "Feature",
      "id": "PROJECT-BASIS-JZOI-P05",
      "properties": {
        "id": "PROJECT-BASIS-JZOI-P05",
        "semantic_class": "project_spatial_basis",
        "evidence_class": "DESIGN TARGET",
        "design_status": "concept",
        "geometry_role": "design_proposal",
        "host_scope": "OVERALL-DESIGN-001",
        "project_id": "JZOI-P05",
        "project_name": "Origin neighborhood service edge",
        "host_refs": [
          "KEY-AREA-SCOPE-ORG"
        ],
        "key_spatial_intervention": "staffed neighborhood and talent service edge",
        "dependencies": [
          "ownership survey",
          "ground-floor access agreement",
          "operating budget"
        ],
        "scenario_refs": [
          "SC-07",
          "SC-08"
        ],
        "feature_refs": [
          "ORG-NEIGHBORHOOD-SERVICE",
          "ORG-TALENT-SERVICE",
          "COMP-HUMAN-DESK"
        ],
        "spatial_status": "Gate B basis only; project registry not finalized"
      },
      "geometry": {
        "type": "LineString",
        "coordinates": [
          [
            116.3426,
            39.9915
          ],
          [
            116.3524,
            39.9915
          ]
        ]
      }
    },
    {
      "type": "Feature",
      "id": "PROJECT-BASIS-JZOI-P06",
      "properties": {
        "id": "PROJECT-BASIS-JZOI-P06",
        "semantic_class": "project_spatial_basis",
        "evidence_class": "DESIGN TARGET",
        "design_status": "concept",
        "geometry_role": "design_proposal",
        "host_scope": "OVERALL-DESIGN-001",
        "project_id": "JZOI-P06",
        "project_name": "Dazhongsi switchboard",
        "host_refs": [
          "KEY-AREA-SCOPE-DZS"
        ],
        "key_spatial_intervention": "pedestrian convergence, consent, appeal, and procurement interface",
        "dependencies": [
          "station entrance evidence",
          "traffic survey",
          "municipal capacity"
        ],
        "scenario_refs": [
          "SC-09",
          "SC-10",
          "SC-12"
        ],
        "feature_refs": [
          "DZS-PEDESTRIAN-CONVERGENCE",
          "DZS-CONSENT-ROOM",
          "DZS-APPEAL-ROOM",
          "DZS-PROCUREMENT-ADOPTION"
        ],
        "spatial_status": "Gate B basis only; project registry not finalized"
      },
      "geometry": {
        "type": "Point",
        "coordinates": [
          116.3485,
          39.947
        ]
      }
    },
    {
      "type": "Feature",
      "id": "PROJECT-BASIS-JZOI-P07",
      "properties": {
        "id": "PROJECT-BASIS-JZOI-P07",
        "semantic_class": "project_spatial_basis",
        "evidence_class": "DESIGN TARGET",
        "design_status": "concept",
        "geometry_role": "design_proposal",
        "host_scope": "OVERALL-DESIGN-001",
        "project_id": "JZOI-P07",
        "project_name": "Dazhongsi cultural forecourt",
        "host_refs": [
          "KEY-AREA-SCOPE-DZS"
        ],
        "key_spatial_intervention": "culture, quiet navigation, and civic landmark interface",
        "dependencies": [
          "content rights",
          "noise review",
          "event safety"
        ],
        "scenario_refs": [
          "SC-11",
          "SC-12"
        ],
        "feature_refs": [
          "DZS-CULTURE-ROOM",
          "LANDMARK-DZS-CIVIC-SWITCH",
          "COMP-QUIET-BEACON"
        ],
        "spatial_status": "Gate B basis only; project registry not finalized"
      },
      "geometry": {
        "type": "Point",
        "coordinates": [
          116.3507,
          39.947
        ]
      }
    },
    {
      "type": "Feature",
      "id": "PROJECT-BASIS-JZOI-P08",
      "properties": {
        "id": "PROJECT-BASIS-JZOI-P08",
        "semantic_class": "project_spatial_basis",
        "evidence_class": "DESIGN TARGET",
        "design_status": "concept",
        "geometry_role": "design_proposal",
        "host_scope": "OVERALL-DESIGN-001",
        "project_id": "JZOI-P08",
        "project_name": "Open research frontage",
        "host_refs": [
          "KEY-AREA-SCOPE-ORG",
          "OVERALL-DESIGN-001"
        ],
        "key_spatial_intervention": "bookable public research and evaluation frontages",
        "dependencies": [
          "building survey",
          "fire review",
          "owner agreement"
        ],
        "scenario_refs": [
          "SC-05",
          "SC-06"
        ],
        "feature_refs": [
          "ORG-ACTIVE-GROUND-FLOOR",
          "MASS-ORG-A",
          "MASS-ORG-B"
        ],
        "spatial_status": "Gate B basis only; project registry not finalized"
      },
      "geometry": {
        "type": "MultiLineString",
        "coordinates": [
          [
            [
              116.3428,
              39.9872
            ],
            [
              116.3468,
              39.9872
            ]
          ],
          [
            [
              116.3482,
              39.9898
            ],
            [
              116.3522,
              39.9898
            ]
          ]
        ]
      }
    },
    {
      "type": "Feature",
      "id": "PROJECT-BASIS-JZOI-P09",
      "properties": {
        "id": "PROJECT-BASIS-JZOI-P09",
        "semantic_class": "project_spatial_basis",
        "evidence_class": "DESIGN TARGET",
        "design_status": "concept",
        "geometry_role": "design_proposal",
        "host_scope": "OVERALL-DESIGN-001",
        "project_id": "JZOI-P09",
        "project_name": "Mixed service edge",
        "host_refs": [
          "OVERALL-DESIGN-001"
        ],
        "key_spatial_intervention": "alternate civic and enterprise service frontage at three endpoints",
        "dependencies": [
          "tenancy review",
          "fire review",
          "public-service operating covenant"
        ],
        "scenario_refs": [
          "SC-04",
          "SC-07",
          "SC-09"
        ],
        "feature_refs": [
          "DZS-SWITCHBOARD-PLAZA",
          "ORG-OPEN-SOURCE-COMMONS",
          "ZZY-PUBLIC-OBSERVATION"
        ],
        "spatial_status": "Gate B basis only; project registry not finalized"
      },
      "geometry": {
        "type": "MultiLineString",
        "coordinates": [
          [
            [
              116.3464,
              39.9462
            ],
            [
              116.3505,
              39.9462
            ]
          ],
          [
            [
              116.3452,
              39.9874
            ],
            [
              116.3498,
              39.9874
            ]
          ],
          [
            [
              116.3463,
              40.0112
            ],
            [
              116.351,
              40.0112
            ]
          ]
        ]
      }
    },
    {
      "type": "Feature",
      "id": "PROJECT-BASIS-JZOI-P10",
      "properties": {
        "id": "PROJECT-BASIS-JZOI-P10",
        "semantic_class": "project_spatial_basis",
        "evidence_class": "DESIGN TARGET",
        "design_status": "concept",
        "geometry_role": "design_proposal",
        "host_scope": "OVERALL-DESIGN-001",
        "project_id": "JZOI-P10",
        "project_name": "No-device service network",
        "host_refs": [
          "OVERALL-DESIGN-001",
          "KEY-AREA-SCOPE-DZS",
          "KEY-AREA-SCOPE-ORG",
          "KEY-AREA-SCOPE-ZZY"
        ],
        "key_spatial_intervention": "distributed staffed, paper, telephone, and spoken-service network",
        "dependencies": [
          "staffing plan",
          "long-term operating budget",
          "service-distance survey"
        ],
        "scenario_refs": [
          "SC-01",
          "SC-02",
          "SC-03",
          "SC-04",
          "SC-05",
          "SC-06",
          "SC-07",
          "SC-08",
          "SC-09",
          "SC-10",
          "SC-11",
          "SC-12"
        ],
        "feature_refs": [
          "COMP-HUMAN-DESK",
          "HUMAN-NODE-DZS-HRG",
          "HUMAN-NODE-ORG-HRG",
          "HUMAN-NODE-ZZY-HRG"
        ],
        "spatial_status": "Gate B basis only; project registry not finalized"
      },
      "geometry": {
        "type": "MultiPoint",
        "coordinates": [
          [
            116.3477,
            39.947
          ],
          [
            116.3452,
            39.9885
          ],
          [
            116.3487,
            40.0112
          ],
          [
            116.3434,
            39.972
          ],
          [
            116.345,
            40.002
          ],
          [
            116.346,
            40.0165
          ]
        ]
      }
    },
    {
      "type": "Feature",
      "id": "PROJECT-BASIS-JZOI-P11",
      "properties": {
        "id": "PROJECT-BASIS-JZOI-P11",
        "semantic_class": "project_spatial_basis",
        "evidence_class": "DESIGN TARGET",
        "design_status": "concept",
        "geometry_role": "design_proposal",
        "host_scope": "OVERALL-DESIGN-001",
        "project_id": "JZOI-P11",
        "project_name": "Contribution and evidence ledger",
        "host_refs": [
          "OVERALL-DESIGN-001"
        ],
        "key_spatial_intervention": "physical public ledger points at all three endpoint landmarks",
        "dependencies": [
          "consent procedure",
          "content rights",
          "independent audit"
        ],
        "scenario_refs": [
          "SC-01",
          "SC-05",
          "SC-09",
          "SC-11"
        ],
        "feature_refs": [
          "LANDMARK-ZZY-SAFETY-GANTRY",
          "LANDMARK-ORG-OPEN-BRACKET",
          "LANDMARK-DZS-CIVIC-SWITCH"
        ],
        "spatial_status": "Gate B basis only; project registry not finalized"
      },
      "geometry": {
        "type": "MultiPoint",
        "coordinates": [
          [
            116.3492,
            40.0112
          ],
          [
            116.3475,
            39.9888
          ],
          [
            116.3507,
            39.947
          ]
        ]
      }
    },
    {
      "type": "Feature",
      "id": "PROJECT-BASIS-JZOI-P12",
      "properties": {
        "id": "PROJECT-BASIS-JZOI-P12",
        "semantic_class": "project_spatial_basis",
        "evidence_class": "DESIGN TARGET",
        "design_status": "concept",
        "geometry_role": "design_proposal",
        "host_scope": "OVERALL-DESIGN-001",
        "project_id": "JZOI-P12",
        "project_name": "Annual public operations",
        "host_refs": [
          "OVERALL-DESIGN-001"
        ],
        "key_spatial_intervention": "seasonal program distributed across the three endpoint public rooms",
        "dependencies": [
          "venue permissions",
          "annual budget",
          "event safety"
        ],
        "scenario_refs": [
          "SC-02",
          "SC-05",
          "SC-07",
          "SC-10",
          "SC-11"
        ],
        "feature_refs": [
          "PUBLIC-ROOM-DZS",
          "PUBLIC-ROOM-ORG",
          "PUBLIC-ROOM-ZZY"
        ],
        "spatial_status": "Gate B basis only; project registry not finalized"
      },
      "geometry": {
        "type": "MultiPoint",
        "coordinates": [
          [
            116.3485,
            39.947
          ],
          [
            116.3475,
            39.9885
          ],
          [
            116.3485,
            40.0165
          ]
        ]
      }
    }
  ]
}
