{
  "type": "FeatureCollection",
  "name": "jzoi_gate_b_regional_ecosystem",
  "features": [
    {
      "type": "Feature",
      "id": "REG-EX-RAIL-001",
      "properties": {
        "id": "REG-EX-RAIL-001",
        "semantic_class": "context_anchor",
        "evidence_class": "APPROXIMATED_CONTEXT",
        "design_status": "background_reference",
        "geometry_role": "context_evidence",
        "host_scope": "RESEARCH-SCOPE-001",
        "source_feature_id": "EX-RAIL-001",
        "source_ids": [
          "BG-OSM-OVERPASS",
          "OFFICIAL-ANNOUNCEMENT"
        ],
        "confidence": "medium",
        "name_en": "Jingzhang heritage park context"
      },
      "geometry": {
        "type": "Point",
        "coordinates": [
          116.3328,
          39.9827
        ]
      }
    },
    {
      "type": "Feature",
      "id": "REG-EX-RAIL-002",
      "properties": {
        "id": "REG-EX-RAIL-002",
        "semantic_class": "context_anchor",
        "evidence_class": "APPROXIMATED_CONTEXT",
        "design_status": "background_reference",
        "geometry_role": "context_evidence",
        "host_scope": "RESEARCH-SCOPE-001",
        "source_feature_id": "EX-RAIL-002",
        "source_ids": [
          "BG-OSM-OVERPASS"
        ],
        "confidence": "low",
        "name_en": "Former Qinghuayuan Station context"
      },
      "geometry": {
        "type": "Point",
        "coordinates": [
          116.3256,
          39.9902
        ]
      }
    },
    {
      "type": "Feature",
      "id": "REG-EX-WATER-001",
      "properties": {
        "id": "REG-EX-WATER-001",
        "semantic_class": "context_anchor",
        "evidence_class": "APPROXIMATED_CONTEXT",
        "design_status": "background_reference",
        "geometry_role": "context_evidence",
        "host_scope": "RESEARCH-SCOPE-001",
        "source_feature_id": "EX-WATER-001",
        "source_ids": [
          "BG-OSM-OVERPASS"
        ],
        "confidence": "low",
        "name_en": "Qinghe context relationship"
      },
      "geometry": {
        "type": "Point",
        "coordinates": [
          116.345,
          40.021
        ]
      }
    },
    {
      "type": "Feature",
      "id": "REG-EX-WATER-002",
      "properties": {
        "id": "REG-EX-WATER-002",
        "semantic_class": "context_anchor",
        "evidence_class": "APPROXIMATED_CONTEXT",
        "design_status": "background_reference",
        "geometry_role": "context_evidence",
        "host_scope": "RESEARCH-SCOPE-001",
        "source_feature_id": "EX-WATER-002",
        "source_ids": [
          "BG-OSM-OVERPASS"
        ],
        "confidence": "low",
        "name_en": "Xiaoyuehe context relationship"
      },
      "geometry": {
        "type": "Point",
        "coordinates": [
          116.359,
          39.981
        ]
      }
    },
    {
      "type": "Feature",
      "id": "REG-EX-ROAD-001",
      "properties": {
        "id": "REG-EX-ROAD-001",
        "semantic_class": "physical_corridor_background",
        "evidence_class": "APPROXIMATED_CONTEXT",
        "design_status": "background_reference",
        "geometry_role": "context_evidence",
        "host_scope": "RESEARCH-SCOPE-001",
        "source_feature_id": "EX-ROAD-001",
        "source_ids": [
          "BG-OSM-OVERPASS"
        ],
        "confidence": "medium",
        "name_en": "North-south street structure context"
      },
      "geometry": {
        "type": "LineString",
        "coordinates": [
          [
            116.332,
            39.945
          ],
          [
            116.333,
            39.99
          ],
          [
            116.334,
            40.025
          ]
        ]
      }
    },
    {
      "type": "Feature",
      "id": "REG-EX-ROAD-002",
      "properties": {
        "id": "REG-EX-ROAD-002",
        "semantic_class": "physical_corridor_background",
        "evidence_class": "APPROXIMATED_CONTEXT",
        "design_status": "background_reference",
        "geometry_role": "context_evidence",
        "host_scope": "RESEARCH-SCOPE-001",
        "source_feature_id": "EX-ROAD-002",
        "source_ids": [
          "BG-OSM-OVERPASS"
        ],
        "confidence": "low",
        "name_en": "East-west campus-city connections context"
      },
      "geometry": {
        "type": "LineString",
        "coordinates": [
          [
            116.325,
            39.99
          ],
          [
            116.355,
            39.991
          ]
        ]
      }
    },
    {
      "type": "Feature",
      "id": "REG-EX-INST-001",
      "properties": {
        "id": "REG-EX-INST-001",
        "semantic_class": "context_anchor",
        "evidence_class": "APPROXIMATED_CONTEXT",
        "design_status": "background_reference",
        "geometry_role": "context_evidence",
        "host_scope": "RESEARCH-SCOPE-001",
        "source_feature_id": "EX-INST-001",
        "source_ids": [
          "BG-OSM-OVERPASS",
          "AGENT-TASKBOOK"
        ],
        "confidence": "low",
        "name_en": "Tsinghua University context"
      },
      "geometry": {
        "type": "Point",
        "coordinates": [
          116.326,
          40.003
        ]
      }
    },
    {
      "type": "Feature",
      "id": "REG-EX-INST-002",
      "properties": {
        "id": "REG-EX-INST-002",
        "semantic_class": "context_anchor",
        "evidence_class": "APPROXIMATED_CONTEXT",
        "design_status": "background_reference",
        "geometry_role": "context_evidence",
        "host_scope": "RESEARCH-SCOPE-001",
        "source_feature_id": "EX-INST-002",
        "source_ids": [
          "BG-OSM-OVERPASS",
          "AGENT-TASKBOOK"
        ],
        "confidence": "low",
        "name_en": "Peking University context"
      },
      "geometry": {
        "type": "Point",
        "coordinates": [
          116.31,
          39.992
        ]
      }
    },
    {
      "type": "Feature",
      "id": "REG-EX-INST-003",
      "properties": {
        "id": "REG-EX-INST-003",
        "semantic_class": "context_anchor",
        "evidence_class": "APPROXIMATED_CONTEXT",
        "design_status": "background_reference",
        "geometry_role": "context_evidence",
        "host_scope": "RESEARCH-SCOPE-001",
        "source_feature_id": "EX-INST-003",
        "source_ids": [
          "BG-OSM-OVERPASS",
          "AGENT-TASKBOOK"
        ],
        "confidence": "low",
        "name_en": "Chinese Academy of Sciences research context"
      },
      "geometry": {
        "type": "Point",
        "coordinates": [
          116.332,
          39.977
        ]
      }
    },
    {
      "type": "Feature",
      "id": "REG-EX-INDUSTRY-001",
      "properties": {
        "id": "REG-EX-INDUSTRY-001",
        "semantic_class": "context_anchor",
        "evidence_class": "SCHEMATIC_INFERENCE",
        "design_status": "background_reference",
        "geometry_role": "context_evidence",
        "host_scope": "RESEARCH-SCOPE-001",
        "source_feature_id": "EX-INDUSTRY-001",
        "source_ids": [
          "BG-OSM-OVERPASS",
          "AGENT-TASKBOOK"
        ],
        "confidence": "low",
        "name_en": "Zhongguancun industry-service context"
      },
      "geometry": {
        "type": "Point",
        "coordinates": [
          116.318,
          39.982
        ]
      }
    },
    {
      "type": "Feature",
      "id": "REG-NODE-ECO-RESEARCH",
      "properties": {
        "id": "REG-NODE-ECO-RESEARCH",
        "semantic_class": "ecosystem_node",
        "evidence_class": "DESIGN TARGET",
        "design_status": "concept",
        "geometry_role": "design_proposal",
        "host_scope": "RESEARCH-SCOPE-001",
        "ecosystem_ref": "ECO-RESEARCH",
        "confidence": "low",
        "spatial_claim": "schematic node for relationship mapping"
      },
      "geometry": {
        "type": "Point",
        "coordinates": [
          116.326,
          40.003
        ]
      }
    },
    {
      "type": "Feature",
      "id": "REG-NODE-ECO-FEEDBACK",
      "properties": {
        "id": "REG-NODE-ECO-FEEDBACK",
        "semantic_class": "ecosystem_node",
        "evidence_class": "DESIGN TARGET",
        "design_status": "concept",
        "geometry_role": "design_proposal",
        "host_scope": "RESEARCH-SCOPE-001",
        "ecosystem_ref": "ECO-FEEDBACK",
        "confidence": "low",
        "spatial_claim": "schematic node for relationship mapping"
      },
      "geometry": {
        "type": "Point",
        "coordinates": [
          116.323,
          39.958
        ]
      }
    },
    {
      "type": "Feature",
      "id": "REG-NODE-ECO-DATA-ACCESS",
      "properties": {
        "id": "REG-NODE-ECO-DATA-ACCESS",
        "semantic_class": "ecosystem_node",
        "evidence_class": "DESIGN TARGET",
        "design_status": "concept",
        "geometry_role": "design_proposal",
        "host_scope": "RESEARCH-SCOPE-001",
        "ecosystem_ref": "ECO-DATA-ACCESS",
        "confidence": "low",
        "spatial_claim": "schematic node for relationship mapping"
      },
      "geometry": {
        "type": "Point",
        "coordinates": [
          116.321,
          39.982
        ]
      }
    },
    {
      "type": "Feature",
      "id": "REG-NODE-zhongguancun_technology_service_wing",
      "properties": {
        "id": "REG-NODE-zhongguancun_technology_service_wing",
        "semantic_class": "ecosystem_node",
        "evidence_class": "DESIGN TARGET",
        "design_status": "concept",
        "geometry_role": "design_proposal",
        "host_scope": "RESEARCH-SCOPE-001",
        "ecosystem_ref": "zhongguancun_technology_service_wing",
        "confidence": "low",
        "spatial_claim": "schematic node for relationship mapping"
      },
      "geometry": {
        "type": "Point",
        "coordinates": [
          116.318,
          39.982
        ]
      }
    },
    {
      "type": "Feature",
      "id": "REG-NODE-xiaoyuehe_scenario_empowerment_wing",
      "properties": {
        "id": "REG-NODE-xiaoyuehe_scenario_empowerment_wing",
        "semantic_class": "ecosystem_node",
        "evidence_class": "DESIGN TARGET",
        "design_status": "concept",
        "geometry_role": "design_proposal",
        "host_scope": "RESEARCH-SCOPE-001",
        "ecosystem_ref": "xiaoyuehe_scenario_empowerment_wing",
        "confidence": "low",
        "spatial_claim": "schematic node for relationship mapping"
      },
      "geometry": {
        "type": "Point",
        "coordinates": [
          116.359,
          39.981
        ]
      }
    },
    {
      "type": "Feature",
      "id": "REG-NODE-ZZY",
      "properties": {
        "id": "REG-NODE-ZZY",
        "semantic_class": "ecosystem_node",
        "evidence_class": "DESIGN TARGET",
        "design_status": "concept",
        "geometry_role": "design_proposal",
        "host_scope": "RESEARCH-SCOPE-001",
        "ecosystem_ref": "ZZY",
        "confidence": "low",
        "spatial_claim": "schematic node for relationship mapping"
      },
      "geometry": {
        "type": "Point",
        "coordinates": [
          116.3485,
          40.0165
        ]
      }
    },
    {
      "type": "Feature",
      "id": "REG-NODE-ORG",
      "properties": {
        "id": "REG-NODE-ORG",
        "semantic_class": "ecosystem_node",
        "evidence_class": "DESIGN TARGET",
        "design_status": "concept",
        "geometry_role": "design_proposal",
        "host_scope": "RESEARCH-SCOPE-001",
        "ecosystem_ref": "ORG",
        "confidence": "low",
        "spatial_claim": "schematic node for relationship mapping"
      },
      "geometry": {
        "type": "Point",
        "coordinates": [
          116.3475,
          39.9885
        ]
      }
    },
    {
      "type": "Feature",
      "id": "REG-NODE-DZS",
      "properties": {
        "id": "REG-NODE-DZS",
        "semantic_class": "ecosystem_node",
        "evidence_class": "DESIGN TARGET",
        "design_status": "concept",
        "geometry_role": "design_proposal",
        "host_scope": "RESEARCH-SCOPE-001",
        "ecosystem_ref": "DZS",
        "confidence": "low",
        "spatial_claim": "schematic node for relationship mapping"
      },
      "geometry": {
        "type": "Point",
        "coordinates": [
          116.3485,
          39.947
        ]
      }
    },
    {
      "type": "Feature",
      "id": "REG-WING-EDGE-01",
      "properties": {
        "id": "REG-WING-EDGE-01",
        "semantic_class": "service_resource_relationship",
        "evidence_class": "DESIGN TARGET",
        "design_status": "concept",
        "geometry_role": "design_proposal",
        "host_scope": "RESEARCH-SCOPE-001",
        "ecosystem_edge_id": "WING-EDGE-01",
        "service_or_resource": "IP",
        "stage": "research_translation",
        "output": "cleared IP route",
        "physical_corridor_claim": false,
        "schematic_offset_sequence": 1
      },
      "geometry": {
        "type": "LineString",
        "coordinates": [
          [
            116.318,
            39.982
          ],
          [
            116.33282316036056,
            39.98491796451749
          ],
          [
            116.3475,
            39.9885
          ]
        ]
      }
    },
    {
      "type": "Feature",
      "id": "REG-WING-EDGE-02",
      "properties": {
        "id": "REG-WING-EDGE-02",
        "semantic_class": "service_resource_relationship",
        "evidence_class": "DESIGN TARGET",
        "design_status": "concept",
        "geometry_role": "design_proposal",
        "host_scope": "RESEARCH-SCOPE-001",
        "ecosystem_edge_id": "WING-EDGE-02",
        "service_or_resource": "law",
        "stage": "research_translation",
        "output": "legal review route",
        "physical_corridor_claim": false,
        "schematic_offset_sequence": 2
      },
      "geometry": {
        "type": "LineString",
        "coordinates": [
          [
            116.318,
            39.982
          ],
          [
            116.33274569644938,
            39.98526953149897
          ],
          [
            116.3475,
            39.9885
          ]
        ]
      }
    },
    {
      "type": "Feature",
      "id": "REG-WING-EDGE-03",
      "properties": {
        "id": "REG-WING-EDGE-03",
        "semantic_class": "service_resource_relationship",
        "evidence_class": "DESIGN TARGET",
        "design_status": "concept",
        "geometry_role": "design_proposal",
        "host_scope": "RESEARCH-SCOPE-001",
        "ecosystem_edge_id": "WING-EDGE-03",
        "service_or_resource": "standards",
        "stage": "controlled_testing",
        "output": "test standard package",
        "physical_corridor_claim": false,
        "schematic_offset_sequence": 3
      },
      "geometry": {
        "type": "LineString",
        "coordinates": [
          [
            116.318,
            39.982
          ],
          [
            116.3329653025657,
            39.99950168903612
          ],
          [
            116.3485,
            40.0165
          ]
        ]
      }
    },
    {
      "type": "Feature",
      "id": "REG-WING-EDGE-04",
      "properties": {
        "id": "REG-WING-EDGE-04",
        "semantic_class": "service_resource_relationship",
        "evidence_class": "DESIGN TARGET",
        "design_status": "concept",
        "geometry_role": "design_proposal",
        "host_scope": "RESEARCH-SCOPE-001",
        "ecosystem_edge_id": "WING-EDGE-04",
        "service_or_resource": "capital",
        "stage": "startup_formation",
        "output": "capital referral record",
        "physical_corridor_claim": false,
        "schematic_offset_sequence": 4
      },
      "geometry": {
        "type": "LineString",
        "coordinates": [
          [
            116.318,
            39.982
          ],
          [
            116.33259076862704,
            39.98597266546193
          ],
          [
            116.3475,
            39.9885
          ]
        ]
      }
    },
    {
      "type": "Feature",
      "id": "REG-WING-EDGE-05",
      "properties": {
        "id": "REG-WING-EDGE-05",
        "semantic_class": "service_resource_relationship",
        "evidence_class": "DESIGN TARGET",
        "design_status": "concept",
        "geometry_role": "design_proposal",
        "host_scope": "RESEARCH-SCOPE-001",
        "ecosystem_edge_id": "WING-EDGE-05",
        "service_or_resource": "startup support",
        "stage": "startup_formation",
        "output": "incubation support",
        "physical_corridor_claim": false,
        "schematic_offset_sequence": 5
      },
      "geometry": {
        "type": "LineString",
        "coordinates": [
          [
            116.318,
            39.982
          ],
          [
            116.33288986539517,
            39.984615226283445
          ],
          [
            116.3475,
            39.9885
          ]
        ]
      }
    },
    {
      "type": "Feature",
      "id": "REG-WING-EDGE-06",
      "properties": {
        "id": "REG-WING-EDGE-06",
        "semantic_class": "service_resource_relationship",
        "evidence_class": "DESIGN TARGET",
        "design_status": "concept",
        "geometry_role": "design_proposal",
        "host_scope": "RESEARCH-SCOPE-001",
        "ecosystem_edge_id": "WING-EDGE-06",
        "service_or_resource": "international resources",
        "stage": "scaling",
        "output": "international connection",
        "physical_corridor_claim": false,
        "schematic_offset_sequence": 6
      },
      "geometry": {
        "type": "LineString",
        "coordinates": [
          [
            116.318,
            39.982
          ],
          [
            116.3330313662442,
            39.96430947629852
          ],
          [
            116.3485,
            39.947
          ]
        ]
      }
    },
    {
      "type": "Feature",
      "id": "REG-WING-EDGE-07",
      "properties": {
        "id": "REG-WING-EDGE-07",
        "semantic_class": "service_resource_relationship",
        "evidence_class": "DESIGN TARGET",
        "design_status": "concept",
        "geometry_role": "design_proposal",
        "host_scope": "RESEARCH-SCOPE-001",
        "ecosystem_edge_id": "WING-EDGE-07",
        "service_or_resource": "technical services",
        "stage": "prototype",
        "output": "technical test support",
        "physical_corridor_claim": false,
        "schematic_offset_sequence": 7
      },
      "geometry": {
        "type": "LineString",
        "coordinates": [
          [
            116.318,
            39.982
          ],
          [
            116.33319755573578,
            39.999296363769815
          ],
          [
            116.3485,
            40.0165
          ]
        ]
      }
    },
    {
      "type": "Feature",
      "id": "REG-WING-EDGE-08",
      "properties": {
        "id": "REG-WING-EDGE-08",
        "semantic_class": "service_resource_relationship",
        "evidence_class": "DESIGN TARGET",
        "design_status": "concept",
        "geometry_role": "design_proposal",
        "host_scope": "RESEARCH-SCOPE-001",
        "ecosystem_edge_id": "WING-EDGE-08",
        "service_or_resource": "compute",
        "stage": "controlled_testing",
        "output": "lawful compute access request",
        "physical_corridor_claim": false,
        "schematic_offset_sequence": 8
      },
      "geometry": {
        "type": "LineString",
        "coordinates": [
          [
            116.318,
            39.982
          ],
          [
            116.33292784237698,
            39.99953480601456
          ],
          [
            116.3485,
            40.0165
          ]
        ]
      }
    },
    {
      "type": "Feature",
      "id": "REG-WING-EDGE-09",
      "properties": {
        "id": "REG-WING-EDGE-09",
        "semantic_class": "service_resource_relationship",
        "evidence_class": "DESIGN TARGET",
        "design_status": "concept",
        "geometry_role": "design_proposal",
        "host_scope": "RESEARCH-SCOPE-001",
        "ecosystem_edge_id": "WING-EDGE-09",
        "service_or_resource": "talent",
        "stage": "prototype",
        "output": "mentor and talent service",
        "physical_corridor_claim": false,
        "schematic_offset_sequence": 9
      },
      "geometry": {
        "type": "LineString",
        "coordinates": [
          [
            116.318,
            39.982
          ],
          [
            116.33258000975049,
            39.98602149420935
          ],
          [
            116.3475,
            39.9885
          ]
        ]
      }
    },
    {
      "type": "Feature",
      "id": "REG-WING-EDGE-10",
      "properties": {
        "id": "REG-WING-EDGE-10",
        "semantic_class": "service_resource_relationship",
        "evidence_class": "DESIGN TARGET",
        "design_status": "concept",
        "geometry_role": "design_proposal",
        "host_scope": "RESEARCH-SCOPE-001",
        "ecosystem_edge_id": "WING-EDGE-10",
        "service_or_resource": "enterprise growth",
        "stage": "adoption",
        "output": "enterprise adoption service",
        "physical_corridor_claim": false,
        "schematic_offset_sequence": 10
      },
      "geometry": {
        "type": "LineString",
        "coordinates": [
          [
            116.318,
            39.982
          ],
          [
            116.33279765429835,
            39.96410581303142
          ],
          [
            116.3485,
            39.947
          ]
        ]
      }
    },
    {
      "type": "Feature",
      "id": "REG-WING-EDGE-11",
      "properties": {
        "id": "REG-WING-EDGE-11",
        "semantic_class": "service_resource_relationship",
        "evidence_class": "DESIGN TARGET",
        "design_status": "concept",
        "geometry_role": "design_proposal",
        "host_scope": "RESEARCH-SCOPE-001",
        "ecosystem_edge_id": "WING-EDGE-11",
        "service_or_resource": "public-life",
        "stage": "scenario_definition",
        "output": "public-life context",
        "physical_corridor_claim": false,
        "schematic_offset_sequence": 11
      },
      "geometry": {
        "type": "LineString",
        "coordinates": [
          [
            116.359,
            39.981
          ],
          [
            116.35338110426733,
            39.98495102654325
          ],
          [
            116.3475,
            39.9885
          ]
        ]
      }
    },
    {
      "type": "Feature",
      "id": "REG-WING-EDGE-12",
      "properties": {
        "id": "REG-WING-EDGE-12",
        "semantic_class": "service_resource_relationship",
        "evidence_class": "DESIGN TARGET",
        "design_status": "concept",
        "geometry_role": "design_proposal",
        "host_scope": "RESEARCH-SCOPE-001",
        "ecosystem_edge_id": "WING-EDGE-12",
        "service_or_resource": "ecology",
        "stage": "controlled_testing",
        "output": "ecology test context",
        "physical_corridor_claim": false,
        "schematic_offset_sequence": 12
      },
      "geometry": {
        "type": "LineString",
        "coordinates": [
          [
            116.359,
            39.981
          ],
          [
            116.35363492788929,
            39.99871596458698
          ],
          [
            116.3485,
            40.0165
          ]
        ]
      }
    },
    {
      "type": "Feature",
      "id": "REG-WING-EDGE-13",
      "properties": {
        "id": "REG-WING-EDGE-13",
        "semantic_class": "service_resource_relationship",
        "evidence_class": "DESIGN TARGET",
        "design_status": "concept",
        "geometry_role": "design_proposal",
        "host_scope": "RESEARCH-SCOPE-001",
        "ecosystem_edge_id": "WING-EDGE-13",
        "service_or_resource": "community",
        "stage": "scenario_definition",
        "output": "community problem definition",
        "physical_corridor_claim": false,
        "schematic_offset_sequence": 13
      },
      "geometry": {
        "type": "LineString",
        "coordinates": [
          [
            116.359,
            39.981
          ],
          [
            116.35298779146534,
            39.98434794691352
          ],
          [
            116.3475,
            39.9885
          ]
        ]
      }
    },
    {
      "type": "Feature",
      "id": "REG-WING-EDGE-14",
      "properties": {
        "id": "REG-WING-EDGE-14",
        "semantic_class": "service_resource_relationship",
        "evidence_class": "DESIGN TARGET",
        "design_status": "concept",
        "geometry_role": "design_proposal",
        "host_scope": "RESEARCH-SCOPE-001",
        "ecosystem_edge_id": "WING-EDGE-14",
        "service_or_resource": "mobility",
        "stage": "adoption",
        "output": "mobility adoption context",
        "physical_corridor_claim": false,
        "schematic_offset_sequence": 14
      },
      "geometry": {
        "type": "LineString",
        "coordinates": [
          [
            116.359,
            39.981
          ],
          [
            116.35455259874058,
            39.96375213862423
          ],
          [
            116.3485,
            39.947
          ]
        ]
      }
    },
    {
      "type": "Feature",
      "id": "REG-WING-EDGE-15",
      "properties": {
        "id": "REG-WING-EDGE-15",
        "semantic_class": "service_resource_relationship",
        "evidence_class": "DESIGN TARGET",
        "design_status": "concept",
        "geometry_role": "design_proposal",
        "host_scope": "RESEARCH-SCOPE-001",
        "ecosystem_edge_id": "WING-EDGE-15",
        "service_or_resource": "robotics",
        "stage": "controlled_testing",
        "output": "robotics test context",
        "physical_corridor_claim": false,
        "schematic_offset_sequence": 15
      },
      "geometry": {
        "type": "LineString",
        "coordinates": [
          [
            116.359,
            39.981
          ],
          [
            116.35427741384069,
            39.99890599564302
          ],
          [
            116.3485,
            40.0165
          ]
        ]
      }
    },
    {
      "type": "Feature",
      "id": "REG-WING-EDGE-16",
      "properties": {
        "id": "REG-WING-EDGE-16",
        "semantic_class": "service_resource_relationship",
        "evidence_class": "DESIGN TARGET",
        "design_status": "concept",
        "geometry_role": "design_proposal",
        "host_scope": "RESEARCH-SCOPE-001",
        "ecosystem_edge_id": "WING-EDGE-16",
        "service_or_resource": "AI public-service",
        "stage": "human_review",
        "output": "public-service review and appeal",
        "physical_corridor_claim": false,
        "schematic_offset_sequence": 16
      },
      "geometry": {
        "type": "LineString",
        "coordinates": [
          [
            116.359,
            39.981
          ],
          [
            116.35356845980867,
            39.964056063882616
          ],
          [
            116.3485,
            39.947
          ]
        ]
      }
    },
    {
      "type": "Feature",
      "id": "REG-WING-EDGE-17",
      "properties": {
        "id": "REG-WING-EDGE-17",
        "semantic_class": "service_resource_relationship",
        "evidence_class": "DESIGN TARGET",
        "design_status": "concept",
        "geometry_role": "design_proposal",
        "host_scope": "RESEARCH-SCOPE-001",
        "ecosystem_edge_id": "WING-EDGE-17",
        "service_or_resource": "testing-to-adoption",
        "stage": "adoption",
        "output": "scenario evidence to adoption gate",
        "physical_corridor_claim": false,
        "schematic_offset_sequence": 17
      },
      "geometry": {
        "type": "LineString",
        "coordinates": [
          [
            116.359,
            39.981
          ],
          [
            116.35391243069749,
            39.96394983757871
          ],
          [
            116.3485,
            39.947
          ]
        ]
      }
    },
    {
      "type": "Feature",
      "id": "REG-ECO-EDGE-01",
      "properties": {
        "id": "REG-ECO-EDGE-01",
        "semantic_class": "schematic_ecosystem_edge",
        "evidence_class": "DESIGN TARGET",
        "design_status": "concept",
        "geometry_role": "design_proposal",
        "host_scope": "RESEARCH-SCOPE-001",
        "ecosystem_edge_id": "ECO-EDGE-01",
        "service_or_resource": "research translation",
        "stage": "research_translation",
        "output": "problem and research brief",
        "physical_corridor_claim": false,
        "schematic_offset_sequence": 18
      },
      "geometry": {
        "type": "LineString",
        "coordinates": [
          [
            116.326,
            40.003
          ],
          [
            116.33704634508418,
            39.996189408228275
          ],
          [
            116.3475,
            39.9885
          ]
        ]
      }
    },
    {
      "type": "Feature",
      "id": "REG-ECO-EDGE-02",
      "properties": {
        "id": "REG-ECO-EDGE-02",
        "semantic_class": "schematic_ecosystem_edge",
        "evidence_class": "DESIGN TARGET",
        "design_status": "concept",
        "geometry_role": "design_proposal",
        "host_scope": "RESEARCH-SCOPE-001",
        "ecosystem_edge_id": "ECO-EDGE-02",
        "service_or_resource": "prototype",
        "stage": "controlled_testing",
        "output": "testable prototype",
        "physical_corridor_claim": false,
        "schematic_offset_sequence": 19
      },
      "geometry": {
        "type": "LineString",
        "coordinates": [
          [
            116.3475,
            39.9885
          ],
          [
            116.34711056705963,
            40.00253176546215
          ],
          [
            116.3485,
            40.0165
          ]
        ]
      }
    },
    {
      "type": "Feature",
      "id": "REG-ECO-EDGE-03",
      "properties": {
        "id": "REG-ECO-EDGE-03",
        "semantic_class": "schematic_ecosystem_edge",
        "evidence_class": "DESIGN TARGET",
        "design_status": "concept",
        "geometry_role": "design_proposal",
        "host_scope": "RESEARCH-SCOPE-001",
        "ecosystem_edge_id": "ECO-EDGE-03",
        "service_or_resource": "reviewed evidence",
        "stage": "adoption",
        "output": "review record",
        "physical_corridor_claim": false,
        "schematic_offset_sequence": 20
      },
      "geometry": {
        "type": "LineString",
        "coordinates": [
          [
            116.3485,
            40.0165
          ],
          [
            116.348,
            39.981750000000005
          ],
          [
            116.3485,
            39.947
          ]
        ]
      }
    },
    {
      "type": "Feature",
      "id": "REG-ECO-EDGE-04",
      "properties": {
        "id": "REG-ECO-EDGE-04",
        "semantic_class": "schematic_ecosystem_edge",
        "evidence_class": "DESIGN TARGET",
        "design_status": "concept",
        "geometry_role": "design_proposal",
        "host_scope": "RESEARCH-SCOPE-001",
        "ecosystem_edge_id": "ECO-EDGE-04",
        "service_or_resource": "exit and appeal feedback",
        "stage": "exit_feedback",
        "output": "corrective record",
        "physical_corridor_claim": false,
        "schematic_offset_sequence": 21
      },
      "geometry": {
        "type": "LineString",
        "coordinates": [
          [
            116.3485,
            39.947
          ],
          [
            116.3358054527556,
            39.9526285495698
          ],
          [
            116.323,
            39.958
          ]
        ]
      }
    },
    {
      "type": "Feature",
      "id": "REG-ECO-EDGE-05",
      "properties": {
        "id": "REG-ECO-EDGE-05",
        "semantic_class": "schematic_ecosystem_edge",
        "evidence_class": "DESIGN TARGET",
        "design_status": "concept",
        "geometry_role": "design_proposal",
        "host_scope": "RESEARCH-SCOPE-001",
        "ecosystem_edge_id": "ECO-EDGE-05",
        "service_or_resource": "feedback",
        "stage": "research",
        "output": "revised problem brief",
        "physical_corridor_claim": false,
        "schematic_offset_sequence": 22
      },
      "geometry": {
        "type": "LineString",
        "coordinates": [
          [
            116.323,
            39.958
          ],
          [
            116.32428048726527,
            39.98051463418231
          ],
          [
            116.326,
            40.003
          ]
        ]
      }
    },
    {
      "type": "Feature",
      "id": "REG-DATA-EDGE-01",
      "properties": {
        "id": "REG-DATA-EDGE-01",
        "semantic_class": "data_governance_relationship",
        "evidence_class": "DESIGN TARGET",
        "design_status": "concept",
        "geometry_role": "design_proposal",
        "host_scope": "RESEARCH-SCOPE-001",
        "ecosystem_edge_id": "DATA-EDGE-01",
        "service_or_resource": "lawful / consented data access",
        "stage": "research_prototype",
        "output": "purpose-bound access request with source, license/legal basis, and minimum-data rule",
        "physical_corridor_claim": false,
        "schematic_offset_sequence": 23
      },
      "geometry": {
        "type": "LineString",
        "coordinates": [
          [
            116.321,
            39.982
          ],
          [
            116.33411183151388,
            39.98581330228958
          ],
          [
            116.3475,
            39.9885
          ]
        ]
      }
    },
    {
      "type": "Feature",
      "id": "REG-DATA-EDGE-02",
      "properties": {
        "id": "REG-DATA-EDGE-02",
        "semantic_class": "data_governance_relationship",
        "evidence_class": "DESIGN TARGET",
        "design_status": "concept",
        "geometry_role": "design_proposal",
        "host_scope": "RESEARCH-SCOPE-001",
        "ecosystem_edge_id": "DATA-EDGE-02",
        "service_or_resource": "lawful / consented data access",
        "stage": "controlled_testing",
        "output": "minimum-data test package with provenance, retention, and withdrawal conditions",
        "physical_corridor_claim": false,
        "schematic_offset_sequence": 24
      },
      "geometry": {
        "type": "LineString",
        "coordinates": [
          [
            116.3475,
            39.9885
          ],
          [
            116.34706059891691,
            40.00253355003868
          ],
          [
            116.3485,
            40.0165
          ]
        ]
      }
    },
    {
      "type": "Feature",
      "id": "REG-DATA-EDGE-03",
      "properties": {
        "id": "REG-DATA-EDGE-03",
        "semantic_class": "data_governance_relationship",
        "evidence_class": "DESIGN TARGET",
        "design_status": "concept",
        "geometry_role": "design_proposal",
        "host_scope": "RESEARCH-SCOPE-001",
        "ecosystem_edge_id": "DATA-EDGE-03",
        "service_or_resource": "lawful / consented data access",
        "stage": "review_adoption",
        "output": "human-reviewed data-use record for adoption, rejection, or exit",
        "physical_corridor_claim": false,
        "schematic_offset_sequence": 25
      },
      "geometry": {
        "type": "LineString",
        "coordinates": [
          [
            116.3485,
            40.0165
          ],
          [
            116.34805,
            39.981750000000005
          ],
          [
            116.3485,
            39.947
          ]
        ]
      }
    }
  ]
}
