{
  "type": "FeatureCollection",
  "name": "jzoi_gate_b_zzy_plan",
  "features": [
    {
      "type": "Feature",
      "id": "ZZY-CONTROLLED-YARD",
      "properties": {
        "id": "ZZY-CONTROLLED-YARD",
        "semantic_class": "controlled_test_yard",
        "evidence_class": "DESIGN TARGET",
        "design_status": "concept",
        "geometry_role": "design_proposal",
        "host_scope": "KEY-AREA-SCOPE-ZZY",
        "endpoint": "ZZY",
        "confidence": "low",
        "boundary_interpretation": "provisional study polygon; not parcel or road redline",
        "access_state": "controlled during tests; ordinary public route remains outside",
        "scenario_refs": [
          "SC-01",
          "SC-02",
          "SC-03"
        ],
        "project_refs": [
          "JZOI-P02"
        ]
      },
      "geometry": {
        "type": "Polygon",
        "coordinates": [
          [
            [
              116.3471,
              40.0122
            ],
            [
              116.3505,
              40.0122
            ],
            [
              116.3505,
              40.0169
            ],
            [
              116.3502,
              40.0172
            ],
            [
              116.3468,
              40.0172
            ],
            [
              116.3468,
              40.0125
            ],
            [
              116.3471,
              40.0122
            ]
          ]
        ]
      }
    },
    {
      "type": "Feature",
      "id": "ZZY-SAFETY-BUFFER",
      "properties": {
        "id": "ZZY-SAFETY-BUFFER",
        "semantic_class": "safety_buffer",
        "evidence_class": "DESIGN TARGET",
        "design_status": "concept",
        "geometry_role": "design_proposal",
        "host_scope": "KEY-AREA-SCOPE-ZZY",
        "endpoint": "ZZY",
        "confidence": "low",
        "boundary_interpretation": "provisional study polygon; not parcel or road redline",
        "buffer_status": "design envelope; test-specific distance requires safety case",
        "public_access": false,
        "project_refs": [
          "JZOI-P02"
        ]
      },
      "geometry": {
        "type": "Polygon",
        "coordinates": [
          [
            [
              116.34655,
              40.0116
            ],
            [
              116.3511,
              40.0116
            ],
            [
              116.3511,
              40.017450000000004
            ],
            [
              116.35075,
              40.0178
            ],
            [
              116.3462,
              40.0178
            ],
            [
              116.3462,
              40.01195
            ],
            [
              116.34655,
              40.0116
            ]
          ]
        ]
      }
    },
    {
      "type": "Feature",
      "id": "ZZY-PUBLIC-OBSERVATION",
      "properties": {
        "id": "ZZY-PUBLIC-OBSERVATION",
        "semantic_class": "public_observation",
        "evidence_class": "DESIGN TARGET",
        "design_status": "concept",
        "geometry_role": "design_proposal",
        "host_scope": "KEY-AREA-SCOPE-ZZY",
        "endpoint": "ZZY",
        "confidence": "low",
        "boundary_interpretation": "provisional study polygon; not parcel or road redline",
        "visibility": "screened direct view to controlled yard",
        "public_path": true,
        "project_refs": [
          "JZOI-P02"
        ]
      },
      "geometry": {
        "type": "LineString",
        "coordinates": [
          [
            116.3463,
            40.0112
          ],
          [
            116.351,
            40.0112
          ]
        ]
      }
    },
    {
      "type": "Feature",
      "id": "ZZY-HUMAN-REVIEW-GATE",
      "properties": {
        "id": "ZZY-HUMAN-REVIEW-GATE",
        "semantic_class": "human_review_gate",
        "evidence_class": "DESIGN TARGET",
        "design_status": "concept",
        "geometry_role": "design_proposal",
        "host_scope": "KEY-AREA-SCOPE-ZZY",
        "endpoint": "ZZY",
        "confidence": "low",
        "boundary_interpretation": "provisional study polygon; not parcel or road redline",
        "staffed_service": true,
        "non_digital_access": true,
        "fallback_state": "manual check-in, printed test brief, physical stop control",
        "scenario_refs": [
          "SC-01",
          "SC-03",
          "SC-04"
        ]
      },
      "geometry": {
        "type": "Point",
        "coordinates": [
          116.3487,
          40.0112
        ]
      }
    },
    {
      "type": "Feature",
      "id": "ZZY-ORDINARY-PUBLIC-PATH",
      "properties": {
        "id": "ZZY-ORDINARY-PUBLIC-PATH",
        "semantic_class": "ordinary_public_path",
        "evidence_class": "DESIGN TARGET",
        "design_status": "concept",
        "geometry_role": "design_proposal",
        "host_scope": "KEY-AREA-SCOPE-ZZY",
        "endpoint": "ZZY",
        "confidence": "low",
        "boundary_interpretation": "provisional study polygon; not parcel or road redline",
        "public_path": true,
        "access_intent": "step-free bypass outside controlled test boundary"
      },
      "geometry": {
        "type": "LineString",
        "coordinates": [
          [
            116.3435,
            40.0083
          ],
          [
            116.3458,
            40.0112
          ],
          [
            116.3487,
            40.0112
          ],
          [
            116.3512,
            40.0182
          ],
          [
            116.3535,
            40.0238
          ]
        ]
      }
    },
    {
      "type": "Feature",
      "id": "ZZY-CYCLE-LOOP",
      "properties": {
        "id": "ZZY-CYCLE-LOOP",
        "semantic_class": "cycle_test_loop",
        "evidence_class": "DESIGN TARGET",
        "design_status": "concept",
        "geometry_role": "design_proposal",
        "host_scope": "KEY-AREA-SCOPE-ZZY",
        "endpoint": "ZZY",
        "confidence": "low",
        "boundary_interpretation": "provisional study polygon; not parcel or road redline",
        "loop_claim": true,
        "operating_modes": [
          "ordinary cycle circulation",
          "booked controlled test"
        ],
        "public_path": true,
        "project_refs": [
          "JZOI-P03"
        ]
      },
      "geometry": {
        "type": "LineString",
        "coordinates": [
          [
            116.3437,
            40.0079
          ],
          [
            116.3533,
            40.0079
          ],
          [
            116.3533,
            40.0252
          ],
          [
            116.3437,
            40.0252
          ],
          [
            116.3437,
            40.0079
          ]
        ]
      }
    },
    {
      "type": "Feature",
      "id": "ZZY-LOGISTICS",
      "properties": {
        "id": "ZZY-LOGISTICS",
        "semantic_class": "service_logistics",
        "evidence_class": "DESIGN TARGET",
        "design_status": "concept",
        "geometry_role": "design_proposal",
        "host_scope": "KEY-AREA-SCOPE-ZZY",
        "endpoint": "ZZY",
        "confidence": "low",
        "boundary_interpretation": "provisional study polygon; not parcel or road redline",
        "public_path": false,
        "separation_rule": "controlled access and timed operation"
      },
      "geometry": {
        "type": "LineString",
        "coordinates": [
          [
            116.3533,
            40.0082
          ],
          [
            116.3533,
            40.018
          ],
          [
            116.3512,
            40.018
          ]
        ]
      }
    },
    {
      "type": "Feature",
      "id": "ZZY-EMERGENCY-ACCESS",
      "properties": {
        "id": "ZZY-EMERGENCY-ACCESS",
        "semantic_class": "emergency_access",
        "evidence_class": "DESIGN TARGET",
        "design_status": "concept",
        "geometry_role": "design_proposal",
        "host_scope": "KEY-AREA-SCOPE-ZZY",
        "endpoint": "ZZY",
        "confidence": "low",
        "boundary_interpretation": "provisional study polygon; not parcel or road redline",
        "public_path": false,
        "fail_safe_priority": "unobstructed emergency route"
      },
      "geometry": {
        "type": "LineString",
        "coordinates": [
          [
            116.3436,
            40.0082
          ],
          [
            116.3436,
            40.018
          ],
          [
            116.3461,
            40.018
          ]
        ]
      }
    },
    {
      "type": "Feature",
      "id": "ZZY-QINGHE-RAIN-GARDEN",
      "properties": {
        "id": "ZZY-QINGHE-RAIN-GARDEN",
        "semantic_class": "ecology_rainwater",
        "evidence_class": "DESIGN TARGET",
        "design_status": "concept",
        "geometry_role": "design_proposal",
        "host_scope": "KEY-AREA-SCOPE-ZZY",
        "endpoint": "ZZY",
        "confidence": "low",
        "boundary_interpretation": "provisional study polygon; not parcel or road redline",
        "source_relation": "Qinghe background point; exact bank and blue-line unknown",
        "water_boundary_claim": false,
        "functions": [
          "rainwater detention intent",
          "habitat edge",
          "public walk"
        ]
      },
      "geometry": {
        "type": "Polygon",
        "coordinates": [
          [
            [
              116.34375,
              40.0204
            ],
            [
              116.3535,
              40.0204
            ],
            [
              116.3535,
              40.02175
            ],
            [
              116.35325,
              40.022
            ],
            [
              116.3435,
              40.022
            ],
            [
              116.3435,
              40.02065
            ],
            [
              116.34375,
              40.0204
            ]
          ]
        ]
      }
    },
    {
      "type": "Feature",
      "id": "ZZY-TEST-RAIL-STOP",
      "properties": {
        "id": "ZZY-TEST-RAIL-STOP",
        "semantic_class": "physical_emergency_stop",
        "evidence_class": "DESIGN TARGET",
        "design_status": "concept",
        "geometry_role": "design_proposal",
        "host_scope": "KEY-AREA-SCOPE-ZZY",
        "endpoint": "ZZY",
        "confidence": "low",
        "boundary_interpretation": "provisional study polygon; not parcel or road redline",
        "physical_control": true,
        "operational_state": "red stop rail and manual isolation points during tests"
      },
      "geometry": {
        "type": "MultiLineString",
        "coordinates": [
          [
            [
              116.3468,
              40.0122
            ],
            [
              116.3505,
              40.0122
            ]
          ],
          [
            [
              116.3505,
              40.0122
            ],
            [
              116.3505,
              40.0172
            ]
          ],
          [
            [
              116.3505,
              40.0172
            ],
            [
              116.3468,
              40.0172
            ]
          ],
          [
            [
              116.3468,
              40.0172
            ],
            [
              116.3468,
              40.0122
            ]
          ]
        ]
      }
    },
    {
      "type": "Feature",
      "id": "ZZY-ENTERPRISE-TEST-BAY",
      "properties": {
        "id": "ZZY-ENTERPRISE-TEST-BAY",
        "semantic_class": "enterprise_testing",
        "evidence_class": "DESIGN TARGET",
        "design_status": "concept",
        "geometry_role": "design_proposal",
        "host_scope": "KEY-AREA-SCOPE-ZZY",
        "endpoint": "ZZY",
        "confidence": "low",
        "boundary_interpretation": "provisional study polygon; not parcel or road redline",
        "access_state": "booked enterprise test support; no automatic public access",
        "project_refs": [
          "JZOI-P02"
        ]
      },
      "geometry": {
        "type": "Polygon",
        "coordinates": [
          [
            [
              116.35105,
              40.0083
            ],
            [
              116.353,
              40.0083
            ],
            [
              116.353,
              40.01075
            ],
            [
              116.35275,
              40.011
            ],
            [
              116.3508,
              40.011
            ],
            [
              116.3508,
              40.00855
            ],
            [
              116.35105,
              40.0083
            ]
          ]
        ]
      }
    },
    {
      "type": "Feature",
      "id": "ZZY-PUBLIC-TEST-BOUNDARY",
      "properties": {
        "id": "ZZY-PUBLIC-TEST-BOUNDARY",
        "semantic_class": "public_testing_boundary",
        "evidence_class": "DESIGN TARGET",
        "design_status": "concept",
        "geometry_role": "design_proposal",
        "host_scope": "KEY-AREA-SCOPE-ZZY",
        "endpoint": "ZZY",
        "confidence": "low",
        "boundary_interpretation": "provisional study polygon; not parcel or road redline",
        "boundary_type": "operational design boundary",
        "legal_boundary_claim": false
      },
      "geometry": {
        "type": "LineString",
        "coordinates": [
          [
            116.3462,
            40.0116
          ],
          [
            116.3511,
            40.0116
          ],
          [
            116.3511,
            40.0178
          ]
        ]
      }
    },
    {
      "type": "Feature",
      "id": "ZZY-MASSING-FRAME",
      "properties": {
        "id": "ZZY-MASSING-FRAME",
        "semantic_class": "concept_massing",
        "evidence_class": "DESIGN TARGET",
        "design_status": "concept",
        "geometry_role": "design_proposal",
        "host_scope": "KEY-AREA-SCOPE-ZZY",
        "endpoint": "ZZY",
        "confidence": "low",
        "boundary_interpretation": "provisional study polygon; not parcel or road redline",
        "object_status": "new_design_volume",
        "height_hierarchy": "medium",
        "height_status": "relative_design_envelope",
        "frontage": "active public/testing interface"
      },
      "geometry": {
        "type": "Polygon",
        "coordinates": [
          [
            [
              116.34434999999999,
              40.0084
            ],
            [
              116.346,
              40.0084
            ],
            [
              116.346,
              40.01075
            ],
            [
              116.34575000000001,
              40.011
            ],
            [
              116.3441,
              40.011
            ],
            [
              116.3441,
              40.00865
            ],
            [
              116.34434999999999,
              40.0084
            ]
          ]
        ]
      }
    },
    {
      "type": "Feature",
      "id": "ZZY-SECTION-A",
      "properties": {
        "id": "ZZY-SECTION-A",
        "semantic_class": "section_logic",
        "evidence_class": "DESIGN TARGET",
        "design_status": "concept",
        "geometry_role": "design_proposal",
        "host_scope": "KEY-AREA-SCOPE-ZZY",
        "endpoint": "ZZY",
        "confidence": "low",
        "boundary_interpretation": "provisional study polygon; not parcel or road redline",
        "sequence": [
          "ordinary city",
          "public observation",
          "safety buffer",
          "controlled yard",
          "test support"
        ]
      },
      "geometry": {
        "type": "LineString",
        "coordinates": [
          [
            116.3434,
            40.0146
          ],
          [
            116.3535,
            40.0146
          ]
        ]
      }
    }
  ]
}
