{
  "type": "FeatureCollection",
  "name": "open_loop_concept_buildings",
  "features": [
    {
      "type": "Feature",
      "id": "BLDG-002",
      "properties": {
        "id": "BLDG-002",
        "layer": "BUILDING_FOOTPRINT",
        "source_type": "agent_generated_design",
        "confidence": "medium",
        "geometry_role": "design_proposal",
        "building_type": "incubator",
        "update_status": "renovate_concept",
        "name_zh": "incubator 概念更新基底",
        "design_note": "非现状测绘成果；仅表达概念性建筑更新对象和复合功能位置。",
        "area_sqm_declared": 42493.682
      },
      "geometry": {
        "type": "Polygon",
        "coordinates": [
          [
            [
              116.34235199999999,
              40.0055
            ],
            [
              116.34235199999999,
              40.00025
            ],
            [
              116.34132903225806,
              40.00025
            ],
            [
              116.34166774193548,
              40.0055
            ],
            [
              116.34235199999999,
              40.0055
            ]
          ]
        ]
      }
    },
    {
      "type": "Feature",
      "id": "BLDG-003",
      "properties": {
        "id": "BLDG-003",
        "layer": "BUILDING_FOOTPRINT",
        "source_type": "agent_generated_design",
        "confidence": "medium",
        "geometry_role": "design_proposal",
        "building_type": "mixed_use",
        "update_status": "new_concept",
        "name_zh": "mixed_use 概念更新基底",
        "design_note": "非现状测绘成果；仅表达概念性建筑更新对象和复合功能位置。",
        "area_sqm_declared": 54354.856
      },
      "geometry": {
        "type": "Polygon",
        "coordinates": [
          [
            [
              116.347188,
              40.00725
            ],
            [
              116.347188,
              40.012499999999996
            ],
            [
              116.34828,
              40.012499999999996
            ],
            [
              116.34828,
              40.00725
            ],
            [
              116.347188,
              40.00725
            ]
          ]
        ]
      }
    },
    {
      "type": "Feature",
      "id": "BLDG-004",
      "properties": {
        "id": "BLDG-004",
        "layer": "BUILDING_FOOTPRINT",
        "source_type": "agent_generated_design",
        "confidence": "medium",
        "geometry_role": "design_proposal",
        "building_type": "cultural",
        "update_status": "retain_concept",
        "name_zh": "cultural 概念更新基底",
        "design_note": "非现状测绘成果；仅表达概念性建筑更新对象和复合功能位置。",
        "area_sqm_declared": 62132.366
      },
      "geometry": {
        "type": "Polygon",
        "coordinates": [
          [
            [
              116.34781199999999,
              39.993249999999996
            ],
            [
              116.34781199999999,
              39.9985
            ],
            [
              116.34906,
              39.9985
            ],
            [
              116.34906,
              39.993249999999996
            ],
            [
              116.34781199999999,
              39.993249999999996
            ]
          ]
        ]
      }
    },
    {
      "type": "Feature",
      "id": "BLDG-005",
      "properties": {
        "id": "BLDG-005",
        "layer": "BUILDING_FOOTPRINT",
        "source_type": "agent_generated_design",
        "confidence": "medium",
        "geometry_role": "design_proposal",
        "building_type": "education",
        "update_status": "renovate_concept",
        "name_zh": "education 概念更新基底",
        "design_note": "非现状测绘成果；仅表达概念性建筑更新对象和复合功能位置。",
        "area_sqm_declared": 62144.142
      },
      "geometry": {
        "type": "Polygon",
        "coordinates": [
          [
            [
              116.34625199999999,
              39.980125
            ],
            [
              116.34625199999999,
              39.985375
            ],
            [
              116.3475,
              39.985375
            ],
            [
              116.3475,
              39.980125
            ],
            [
              116.34625199999999,
              39.980125
            ]
          ]
        ]
      }
    },
    {
      "type": "Feature",
      "id": "BLDG-006",
      "properties": {
        "id": "BLDG-006",
        "layer": "BUILDING_FOOTPRINT",
        "source_type": "agent_generated_design",
        "confidence": "medium",
        "geometry_role": "design_proposal",
        "building_type": "office",
        "update_status": "new_concept",
        "name_zh": "office 概念更新基底",
        "design_note": "非现状测绘成果；仅表达概念性建筑更新对象和复合功能位置。",
        "area_sqm_declared": 62152.74
      },
      "geometry": {
        "type": "Polygon",
        "coordinates": [
          [
            [
              116.3475,
              39.9705
            ],
            [
              116.3475,
              39.97575
            ],
            [
              116.348748,
              39.97575
            ],
            [
              116.348748,
              39.9705
            ],
            [
              116.3475,
              39.9705
            ]
          ]
        ]
      }
    },
    {
      "type": "Feature",
      "id": "BLDG-007",
      "properties": {
        "id": "BLDG-007",
        "layer": "BUILDING_FOOTPRINT",
        "source_type": "agent_generated_design",
        "confidence": "medium",
        "geometry_role": "design_proposal",
        "building_type": "retail",
        "update_status": "renovate_concept",
        "name_zh": "retail 概念更新基底",
        "design_note": "非现状测绘成果；仅表达概念性建筑更新对象和复合功能位置。",
        "area_sqm_declared": 62166.798
      },
      "geometry": {
        "type": "Polygon",
        "coordinates": [
          [
            [
              116.350152,
              39.95475
            ],
            [
              116.350152,
              39.96
            ],
            [
              116.3514,
              39.96
            ],
            [
              116.3514,
              39.95475
            ],
            [
              116.350152,
              39.95475
            ]
          ]
        ]
      }
    },
    {
      "type": "Feature",
      "id": "BLDG-008",
      "properties": {
        "id": "BLDG-008",
        "layer": "BUILDING_FOOTPRINT",
        "source_type": "agent_generated_design",
        "confidence": "medium",
        "geometry_role": "design_proposal",
        "building_type": "mobility_hub",
        "update_status": "new_concept",
        "name_zh": "mobility_hub 概念更新基底",
        "design_note": "非现状测绘成果；仅表达概念性建筑更新对象和复合功能位置。",
        "area_sqm_declared": 69946.442
      },
      "geometry": {
        "type": "Polygon",
        "coordinates": [
          [
            [
              116.350932,
              39.946
            ],
            [
              116.350932,
              39.95125
            ],
            [
              116.352336,
              39.95125
            ],
            [
              116.352336,
              39.946
            ],
            [
              116.350932,
              39.946
            ]
          ]
        ]
      }
    },
    {
      "type": "Feature",
      "id": "BLDG-009",
      "properties": {
        "id": "BLDG-009",
        "layer": "BUILDING_FOOTPRINT",
        "source_type": "agent_generated_design",
        "confidence": "medium",
        "geometry_role": "design_proposal",
        "building_type": "talent_apartment",
        "update_status": "retain_concept",
        "name_zh": "talent_apartment 概念更新基底",
        "design_note": "非现状测绘成果；仅表达概念性建筑更新对象和复合功能位置。",
        "area_sqm_declared": 37801.579
      },
      "geometry": {
        "type": "Polygon",
        "coordinates": [
          [
            [
              116.35280399999999,
              39.98975
            ],
            [
              116.35280399999999,
              39.995875
            ],
            [
              116.35362191780823,
              39.995875
            ],
            [
              116.3533,
              39.99
            ],
            [
              116.35332000000001,
              39.98975
            ],
            [
              116.35280399999999,
              39.98975
            ]
          ]
        ]
      }
    },
    {
      "type": "Feature",
      "id": "BLDG-010",
      "properties": {
        "id": "BLDG-010",
        "layer": "BUILDING_FOOTPRINT",
        "source_type": "agent_generated_design",
        "confidence": "medium",
        "geometry_role": "design_proposal",
        "building_type": "community_service",
        "update_status": "renovate_concept",
        "name_zh": "community_service 概念更新基底",
        "design_note": "非现状测绘成果；仅表达概念性建筑更新对象和复合功能位置。",
        "area_sqm_declared": 72511.903
      },
      "geometry": {
        "type": "Polygon",
        "coordinates": [
          [
            [
              116.352492,
              39.969625
            ],
            [
              116.352492,
              39.97575
            ],
            [
              116.35374,
              39.97575
            ],
            [
              116.35374,
              39.969625
            ],
            [
              116.352492,
              39.969625
            ]
          ]
        ]
      }
    }
  ]
}
