{
  "type": "FeatureCollection",
  "name": "open_loop_known_data_gaps",
  "features": [
    {
      "type": "Feature",
      "id": "CONSTRAINT-001",
      "properties": {
        "id": "CONSTRAINT-001",
        "layer": "REGULATORY_CONTROL",
        "source_type": "agent_generated_design",
        "confidence": "high",
        "geometry_role": "analysis_helper",
        "constraint_type": "data_gap",
        "name_zh": "待补官方红线与控规条件",
        "design_note": "该要素仅作为数据缺口图例，不表示法定控制线。",
        "area_sqm_declared": 46634.606
      },
      "geometry": {
        "type": "Polygon",
        "coordinates": [
          [
            [
              116.340948,
              39.94075
            ],
            [
              116.340948,
              39.946
            ],
            [
              116.34001199999999,
              39.946
            ],
            [
              116.34001199999999,
              39.94075
            ],
            [
              116.340948,
              39.94075
            ]
          ]
        ]
      }
    }
  ]
}
