{
  "type": "FeatureCollection",
  "name": "open_loop_blue_green_system",
  "features": [
    {
      "type": "Feature",
      "id": "GREEN-001",
      "properties": {
        "id": "GREEN-001",
        "layer": "GREEN_SPACE",
        "source_type": "agent_generated_design",
        "confidence": "medium",
        "geometry_role": "design_proposal",
        "land_use_code": "1401",
        "name_zh": "京张开放城市环主绿廊",
        "spatial_role": "north_south_green_spine",
        "design_note": "连续慢行、生态修复、公共展示和低碳服务复合界面。",
        "area_sqm_declared": 545026.498
      },
      "geometry": {
        "type": "Polygon",
        "coordinates": [
          [
            [
              116.34325711374514,
              39.96263967161301
            ],
            [
              116.3441925819009,
              39.98450224202684
            ],
            [
              116.34356895141202,
              40.00548980655624
            ],
            [
              116.34356908139128,
              40.00551389488388
            ],
            [
              116.34434908139129,
              40.02476389488388
            ],
            [
              116.3443520945749,
              40.02479743987761
            ],
            [
              116.34435838123356,
              40.024830527999384
            ],
            [
              116.34436788082333,
              40.024862840592505
            ],
            [
              116.34438050185794,
              40.02489406646903
            ],
            [
              116.34439612278995,
              40.02492390490671
            ],
            [
              116.34441459318124,
              40.02495206854506
            ],
            [
              116.34443573515183,
              40.02497828615287
            ],
            [
              116.344459345093,
              40.025002305240236
            ],
            [
              116.34448519562811,
              40.025023894490204
            ],
            [
              116.34451303780236,
              40.02504284598651
            ],
            [
              116.34454260348042,
              40.025058977215885
            ],
            [
              116.34457360792862,
              40.02507213282576
            ],
            [
              116.34460575255719,
              40.025082186120436
            ],
            [
              116.34463872779578,
              40.02508904028117
            ],
            [
              116.34467221607483,
              40.02509262929866
            ],
            [
              116.34470589488389,
              40.02509291860871
            ],
            [
              116.34473943987761,
              40.0250899054251
            ],
            [
              116.34477252799938,
              40.02508361876643
            ],
            [
              116.3448048405925,
              40.025074119176665
            ],
            [
              116.34483606646903,
              40.025061498142044
            ],
            [
              116.3448659049067,
              40.02504587721004
            ],
            [
              116.34489406854506,
              40.02502740681876
            ],
            [
              116.34492028615287,
              40.025006264848166
            ],
            [
              116.34494430524023,
              40.02498265490699
            ],
            [
              116.3449658944902,
              40.02495680437189
            ],
            [
              116.34498484598652,
              40.02492896219763
            ],
            [
              116.34500097721589,
              40.02489939651958
            ],
            [
              116.34501413282575,
              40.024868392071376
            ],
            [
              116.34502418612043,
              40.0248362474428
            ],
            [
              116.34503104028117,
              40.02480327220421
            ],
            [
              116.34503462929867,
              40.024769783925166
            ],
            [
              116.3450349186087,
              40.02473610511611
            ],
            [
              116.34425540653949,
              40.00549814699783
            ],
            [
              116.34487904858796,
              39.984510193443754
            ],
            [
              116.34487888625485,
              39.98448532838699
            ],
            [
              116.34394341809909,
              39.96262275797316
            ],
            [
              116.34456704858796,
              39.94163519344376
            ],
            [
              116.34456639584745,
              39.941601519717956
            ],
            [
              116.34456244564777,
              39.9415680721201
            ],
            [
              116.34455523603147,
              39.94153517276885
            ],
            [
              116.34454483643111,
              39.941503138502945
            ],
            [
              116.34453134700055,
              39.94147227782987
            ],
            [
              116.34451489765036,
              39.94144288795478
            ],
            [
              116.34449564679677,
              39.94141525191824
            ],
            [
              116.34447377983602,
              39.94138963587038
            ],
            [
              116.34444950735892,
              39.94136628650776
            ],
            [
              116.34442306312268,
              39.94134542869749
            ],
            [
              116.34439470179974,
              39.94132726331169
            ],
            [
              116.34436469652516,
              39.94131196529297
            ],
            [
              116.34433333626613,
              39.941299681969596
            ],
            [
              116.34430092303909,
              39.94129053163669
            ],
            [
              116.34426776900112,
              39.94128460241696
            ],
            [
              116.34423419344375,
              39.94128195141204
            ],
            [
              116.34420051971794,
              39.94128260415255
            ],
            [
              116.3441670721201,
              39.94128655435224
            ],
            [
              116.34413417276885,
              39.94129376396853
            ],
            [
              116.34410213850293,
              39.94130416356888
            ],
            [
              116.34407127782987,
              39.941317652999444
            ],
            [
              116.34404188795477,
              39.94133410234964
            ],
            [
              116.34401425191822,
              39.94135335320323
            ],
            [
              116.34398863587037,
              39.94137522016397
            ],
            [
              116.34396528650775,
              39.941399492641075
            ],
            [
              116.34394442869748,
              39.94142593687732
            ],
            [
              116.34392626331169,
              39.941454298200256
            ],
            [
              116.34391096529296,
              39.94148430347484
            ],
            [
              116.34389868196959,
              39.941515663733874
            ],
            [
              116.34388953163668,
              39.94154807696091
            ],
            [
              116.34388360241695,
              39.94158123099888
            ],
            [
              116.34388095141203,
              39.941614806556245
            ],
            [
              116.34325695141203,
              39.962614806556246
            ],
            [
              116.34325711374514,
              39.96263967161301
            ]
          ]
        ]
      }
    },
    {
      "type": "Feature",
      "id": "GREEN-002",
      "properties": {
        "id": "GREEN-002",
        "layer": "GREEN_SPACE",
        "source_type": "agent_generated_design",
        "confidence": "medium",
        "geometry_role": "design_proposal",
        "land_use_code": "1401",
        "name_zh": "众智园清河创新口袋公园",
        "spatial_role": "pocket_green",
        "design_note": "概念性公共绿地节点，待文保、蓝线、排水和权属条件确认。",
        "area_sqm_declared": 144929.834
      },
      "geometry": {
        "type": "Polygon",
        "coordinates": [
          [
            [
              116.34625199999999,
              40.01425
            ],
            [
              116.34625199999999,
              40.02125
            ],
            [
              116.34843599999999,
              40.02125
            ],
            [
              116.34843599999999,
              40.01425
            ],
            [
              116.34625199999999,
              40.01425
            ]
          ]
        ]
      }
    },
    {
      "type": "Feature",
      "id": "GREEN-003",
      "properties": {
        "id": "GREEN-003",
        "layer": "GREEN_SPACE",
        "source_type": "agent_generated_design",
        "confidence": "medium",
        "geometry_role": "design_proposal",
        "land_use_code": "1401",
        "name_zh": "原点社区成果转化花园",
        "spatial_role": "pocket_green",
        "design_note": "概念性公共绿地节点，待文保、蓝线、排水和权属条件确认。",
        "area_sqm_declared": 168313.548
      },
      "geometry": {
        "type": "Polygon",
        "coordinates": [
          [
            [
              116.342508,
              39.97575
            ],
            [
              116.342508,
              39.9845
            ],
            [
              116.34453599999999,
              39.9845
            ],
            [
              116.34453599999999,
              39.97575
            ],
            [
              116.342508,
              39.97575
            ]
          ]
        ]
      }
    },
    {
      "type": "Feature",
      "id": "GREEN-004",
      "properties": {
        "id": "GREEN-004",
        "layer": "GREEN_SPACE",
        "source_type": "agent_generated_design",
        "confidence": "medium",
        "geometry_role": "design_proposal",
        "land_use_code": "1401",
        "name_zh": "大钟寺站前复合绿地",
        "spatial_role": "pocket_green",
        "design_note": "概念性公共绿地节点，待文保、蓝线、排水和权属条件确认。",
        "area_sqm_declared": 165803.284
      },
      "geometry": {
        "type": "Polygon",
        "coordinates": [
          [
            [
              116.346876,
              39.943375
            ],
            [
              116.346876,
              39.950375
            ],
            [
              116.349372,
              39.950375
            ],
            [
              116.349372,
              39.943375
            ],
            [
              116.346876,
              39.943375
            ]
          ]
        ]
      }
    }
  ]
}
