{
  "type": "FeatureCollection",
  "name": "open_loop_land_use_partition",
  "features": [
    {
      "type": "Feature",
      "id": "LU-001",
      "properties": {
        "id": "LU-001",
        "layer": "LAND_USE",
        "source_type": "agent_generated_design",
        "confidence": "medium",
        "geometry_role": "design_proposal",
        "land_use_code": "0802",
        "name_zh": "AI研发与自主创新服务带",
        "spatial_role": "ai_core",
        "design_note": "概念分区，待官方用地边界和控规条件发布后复核。",
        "area_sqm_declared": 1145598.504
      },
      "geometry": {
        "type": "Polygon",
        "coordinates": [
          [
            [
              116.342196,
              39.939
            ],
            [
              116.3407,
              39.939
            ],
            [
              116.3397,
              39.975
            ],
            [
              116.3417,
              40.006
            ],
            [
              116.342196,
              40.01616800000006
            ],
            [
              116.342196,
              39.939
            ]
          ]
        ]
      }
    },
    {
      "type": "Feature",
      "id": "LU-002",
      "properties": {
        "id": "LU-002",
        "layer": "LAND_USE",
        "source_type": "agent_generated_design",
        "confidence": "medium",
        "geometry_role": "design_proposal",
        "land_use_code": "1401",
        "name_zh": "京张遗址公园与蓝绿开放空间",
        "spatial_role": "park_spine",
        "design_note": "概念分区，待官方用地边界和控规条件发布后复核。",
        "area_sqm_declared": 2564693.75
      },
      "geometry": {
        "type": "Polygon",
        "coordinates": [
          [
            [
              116.345316,
              39.939
            ],
            [
              116.342196,
              39.939
            ],
            [
              116.342196,
              40.01616800000006
            ],
            [
              116.3427,
              40.0265
            ],
            [
              116.345316,
              40.0265
            ],
            [
              116.345316,
              39.939
            ]
          ]
        ]
      }
    },
    {
      "type": "Feature",
      "id": "LU-003",
      "properties": {
        "id": "LU-003",
        "layer": "LAND_USE",
        "source_type": "agent_generated_design",
        "confidence": "medium",
        "geometry_role": "design_proposal",
        "land_use_code": "05",
        "name_zh": "产业服务与复合商业带",
        "spatial_role": "service_front",
        "design_note": "概念分区，待官方用地边界和控规条件发布后复核。",
        "area_sqm_declared": 2848272.225
      },
      "geometry": {
        "type": "Polygon",
        "coordinates": [
          [
            [
              116.348748,
              39.939
            ],
            [
              116.345316,
              39.939
            ],
            [
              116.345316,
              40.0265
            ],
            [
              116.348748,
              40.0265
            ],
            [
              116.348748,
              39.939
            ]
          ]
        ]
      }
    },
    {
      "type": "Feature",
      "id": "LU-004",
      "properties": {
        "id": "LU-004",
        "layer": "LAND_USE",
        "source_type": "agent_generated_design",
        "confidence": "medium",
        "geometry_role": "design_proposal",
        "land_use_code": "0803",
        "name_zh": "文化展示与公共创新空间",
        "spatial_role": "culture_front",
        "design_note": "概念分区，待官方用地边界和控规条件发布后复核。",
        "area_sqm_declared": 2589336.402
      },
      "geometry": {
        "type": "Polygon",
        "coordinates": [
          [
            [
              116.351868,
              39.939
            ],
            [
              116.348748,
              39.939
            ],
            [
              116.348748,
              40.0265
            ],
            [
              116.351868,
              40.0265
            ],
            [
              116.351868,
              39.939
            ]
          ]
        ]
      }
    },
    {
      "type": "Feature",
      "id": "LU-005",
      "properties": {
        "id": "LU-005",
        "layer": "LAND_USE",
        "source_type": "agent_generated_design",
        "confidence": "medium",
        "geometry_role": "design_proposal",
        "land_use_code": "0702",
        "name_zh": "社区服务与人才生活配套",
        "spatial_role": "living_front",
        "design_note": "概念分区，待官方用地边界和控规条件发布后复核。",
        "area_sqm_declared": 2264925.694
      },
      "geometry": {
        "type": "Polygon",
        "coordinates": [
          [
            [
              116.3553,
              39.939
            ],
            [
              116.351868,
              39.939
            ],
            [
              116.351868,
              40.0265
            ],
            [
              116.3553,
              40.0265
            ],
            [
              116.3533,
              39.99
            ],
            [
              116.3553,
              39.965
            ],
            [
              116.3553,
              39.939
            ]
          ]
        ]
      }
    }
  ]
}
