{
  "type": "FeatureCollection",
  "name": "open_loop_concept_phasing",
  "features": [
    {
      "type": "Feature",
      "id": "PHASE-001",
      "properties": {
        "id": "PHASE-001",
        "layer": "PHASE",
        "source_type": "agent_generated_design",
        "confidence": "medium",
        "geometry_role": "design_proposal",
        "phase": "phase_1",
        "name_zh": "先行开放：公园慢行环、开源发布厅、公共空间组件",
        "design_note": "概念分期，不代表确定开发时序、审批判断或资金安排。",
        "area_sqm_declared": 4106946.996
      },
      "geometry": {
        "type": "Polygon",
        "coordinates": [
          [
            [
              116.3553,
              39.939
            ],
            [
              116.3407,
              39.939
            ],
            [
              116.33989791666666,
              39.967875
            ],
            [
              116.35507,
              39.967875
            ],
            [
              116.3553,
              39.965
            ],
            [
              116.3553,
              39.939
            ]
          ]
        ]
      }
    },
    {
      "type": "Feature",
      "id": "PHASE-002",
      "properties": {
        "id": "PHASE-002",
        "layer": "PHASE",
        "source_type": "agent_generated_design",
        "confidence": "medium",
        "geometry_role": "design_proposal",
        "phase": "phase_2",
        "name_zh": "协同扩展：三片区场景开放、服务前台和更新试点",
        "design_note": "概念分期，不代表确定开发时序、审批判断或资金安排。",
        "area_sqm_declared": 3875112.386
      },
      "geometry": {
        "type": "Polygon",
        "coordinates": [
          [
            [
              116.35371780821919,
              39.997625
            ],
            [
              116.3533,
              39.99
            ],
            [
              116.35507,
              39.967875
            ],
            [
              116.33989791666666,
              39.967875
            ],
            [
              116.3397,
              39.975
            ],
            [
              116.34115967741936,
              39.997625
            ],
            [
              116.35371780821919,
              39.997625
            ]
          ]
        ]
      }
    },
    {
      "type": "Feature",
      "id": "PHASE-003",
      "properties": {
        "id": "PHASE-003",
        "layer": "PHASE",
        "source_type": "agent_generated_design",
        "confidence": "medium",
        "geometry_role": "design_proposal",
        "phase": "phase_3",
        "name_zh": "长期沉淀：全球活动品牌、开发者社区和数据治理复盘",
        "design_note": "概念分期，不代表确定开发时序、审批判断或资金安排。",
        "area_sqm_declared": 3430777.548
      },
      "geometry": {
        "type": "Polygon",
        "coordinates": [
          [
            [
              116.3553,
              40.0265
            ],
            [
              116.35371780821919,
              39.997625
            ],
            [
              116.34115967741936,
              39.997625
            ],
            [
              116.3417,
              40.006
            ],
            [
              116.3427,
              40.0265
            ],
            [
              116.3553,
              40.0265
            ]
          ]
        ]
      }
    }
  ]
}
