{
  "type": "FeatureCollection",
  "name": "open_loop_public_space_nodes",
  "features": [
    {
      "type": "Feature",
      "id": "PUBLIC-001",
      "properties": {
        "id": "PUBLIC-001",
        "layer": "PUBLIC_SPACE",
        "source_type": "agent_generated_design",
        "confidence": "medium",
        "geometry_role": "design_proposal",
        "land_use_code": "1403",
        "name_zh": "众智园安全治理广场",
        "spatial_role": "governance_square",
        "design_note": "概念性公共空间组件，服务可见、可参与、可人工复核的AI场景。",
        "area_sqm_declared": 77649.847
      },
      "geometry": {
        "type": "Polygon",
        "coordinates": [
          [
            [
              116.344068,
              40.00725
            ],
            [
              116.344068,
              40.012499999999996
            ],
            [
              116.34562799999999,
              40.012499999999996
            ],
            [
              116.34562799999999,
              40.00725
            ],
            [
              116.344068,
              40.00725
            ]
          ]
        ]
      }
    },
    {
      "type": "Feature",
      "id": "PUBLIC-002",
      "properties": {
        "id": "PUBLIC-002",
        "layer": "PUBLIC_SPACE",
        "source_type": "agent_generated_design",
        "confidence": "medium",
        "geometry_role": "design_proposal",
        "land_use_code": "1403",
        "name_zh": "AI原点开源发布厅前场",
        "spatial_role": "open_source_forecourt",
        "design_note": "概念性公共空间组件，服务可见、可参与、可人工复核的AI场景。",
        "area_sqm_declared": 90625.183
      },
      "geometry": {
        "type": "Polygon",
        "coordinates": [
          [
            [
              116.34500399999999,
              39.981
            ],
            [
              116.34500399999999,
              39.987125
            ],
            [
              116.346564,
              39.987125
            ],
            [
              116.346564,
              39.981
            ],
            [
              116.34500399999999,
              39.981
            ]
          ]
        ]
      }
    },
    {
      "type": "Feature",
      "id": "PUBLIC-003",
      "properties": {
        "id": "PUBLIC-003",
        "layer": "PUBLIC_SPACE",
        "source_type": "agent_generated_design",
        "confidence": "medium",
        "geometry_role": "design_proposal",
        "land_use_code": "1403",
        "name_zh": "京张记忆与AI文化门厅",
        "spatial_role": "heritage_culture_gate",
        "design_note": "概念性公共空间组件，服务可见、可参与、可人工复核的AI场景。",
        "area_sqm_declared": 81590.357
      },
      "geometry": {
        "type": "Polygon",
        "coordinates": [
          [
            [
              116.34843599999999,
              39.957375
            ],
            [
              116.34843599999999,
              39.963499999999996
            ],
            [
              116.34984,
              39.963499999999996
            ],
            [
              116.34984,
              39.957375
            ],
            [
              116.34843599999999,
              39.957375
            ]
          ]
        ]
      }
    },
    {
      "type": "Feature",
      "id": "PUBLIC-004",
      "properties": {
        "id": "PUBLIC-004",
        "layer": "PUBLIC_SPACE",
        "source_type": "agent_generated_design",
        "confidence": "medium",
        "geometry_role": "design_proposal",
        "land_use_code": "1403",
        "name_zh": "大钟寺四象限步行客厅",
        "spatial_role": "station_four_quadrant",
        "design_note": "概念性公共空间组件，服务可见、可参与、可人工复核的AI场景。",
        "area_sqm_declared": 101036.323
      },
      "geometry": {
        "type": "Polygon",
        "coordinates": [
          [
            [
              116.349372,
              39.94425
            ],
            [
              116.349372,
              39.9495
            ],
            [
              116.3514,
              39.9495
            ],
            [
              116.3514,
              39.94425
            ],
            [
              116.349372,
              39.94425
            ]
          ]
        ]
      }
    },
    {
      "type": "Feature",
      "id": "PUBLIC-005",
      "properties": {
        "id": "PUBLIC-005",
        "layer": "PUBLIC_SPACE",
        "source_type": "agent_generated_design",
        "confidence": "medium",
        "geometry_role": "design_proposal",
        "land_use_code": "1403",
        "name_zh": "国际路演与人才会客厅",
        "spatial_role": "international_lounge",
        "design_note": "概念性公共空间组件，服务可见、可参与、可人工复核的AI场景。",
        "area_sqm_declared": 90606.761
      },
      "geometry": {
        "type": "Polygon",
        "coordinates": [
          [
            [
              116.351556,
              39.995
            ],
            [
              116.351556,
              40.001125
            ],
            [
              116.353116,
              40.001125
            ],
            [
              116.353116,
              39.995
            ],
            [
              116.351556,
              39.995
            ]
          ]
        ]
      }
    }
  ]
}
