{
  "type": "FeatureCollection",
  "name": "osm_background_context",
  "crs": {
    "type": "name",
    "properties": {
      "name": "urn:ogc:def:crs:OGC:1.3:CRS84"
    }
  },
  "features": [
    {
      "type": "Feature",
      "id": "OSM-NODE-1085309402",
      "properties": {
        "id": "OSM-NODE-1085309402",
        "layer": "EXISTING_STATION",
        "source_type": "osm",
        "confidence": "low",
        "geometry_role": "existing_condition",
        "usage_role": "background_only",
        "official_boundary": false,
        "source_snapshot": "source/osm-context.json",
        "osm_element_type": "node",
        "osm_element_id": 1085309402,
        "license": "ODbL-1.0",
        "attribution": "© OpenStreetMap contributors",
        "source_query_sha256": "57db441985315ffa84d210ee9db67a0c61dd4ccfe153e34e07ecce401549bebb",
        "background_disclosure": "OSM context only; not a legal boundary, control line, or engineering survey."
      },
      "geometry": {
        "type": "Point",
        "coordinates": [
          116.3493268,
          39.9390927
        ]
      }
    },
    {
      "type": "Feature",
      "id": "OSM-NODE-1305750649",
      "properties": {
        "id": "OSM-NODE-1305750649",
        "layer": "EXISTING_STATION",
        "source_type": "osm",
        "confidence": "low",
        "geometry_role": "existing_condition",
        "usage_role": "background_only",
        "official_boundary": false,
        "source_snapshot": "source/osm-context.json",
        "osm_element_type": "node",
        "osm_element_id": 1305750649,
        "license": "ODbL-1.0",
        "attribution": "© OpenStreetMap contributors",
        "source_query_sha256": "57db441985315ffa84d210ee9db67a0c61dd4ccfe153e34e07ecce401549bebb",
        "background_disclosure": "OSM context only; not a legal boundary, control line, or engineering survey."
      },
      "geometry": {
        "type": "Point",
        "coordinates": [
          116.3470711,
          39.9403046
        ]
      }
    },
    {
      "type": "Feature",
      "id": "OSM-NODE-1305750652",
      "properties": {
        "id": "OSM-NODE-1305750652",
        "layer": "EXISTING_STATION",
        "source_type": "osm",
        "confidence": "low",
        "geometry_role": "existing_condition",
        "usage_role": "background_only",
        "official_boundary": false,
        "source_snapshot": "source/osm-context.json",
        "osm_element_type": "node",
        "osm_element_id": 1305750652,
        "license": "ODbL-1.0",
        "attribution": "© OpenStreetMap contributors",
        "source_query_sha256": "57db441985315ffa84d210ee9db67a0c61dd4ccfe153e34e07ecce401549bebb",
        "background_disclosure": "OSM context only; not a legal boundary, control line, or engineering survey."
      },
      "geometry": {
        "type": "Point",
        "coordinates": [
          116.3471505,
          39.9404291
        ]
      }
    },
    {
      "type": "Feature",
      "id": "OSM-NODE-1305750663",
      "properties": {
        "id": "OSM-NODE-1305750663",
        "layer": "EXISTING_STATION",
        "source_type": "osm",
        "confidence": "low",
        "geometry_role": "existing_condition",
        "usage_role": "background_only",
        "official_boundary": false,
        "source_snapshot": "source/osm-context.json",
        "osm_element_type": "node",
        "osm_element_id": 1305750663,
        "license": "ODbL-1.0",
        "attribution": "© OpenStreetMap contributors",
        "source_query_sha256": "57db441985315ffa84d210ee9db67a0c61dd4ccfe153e34e07ecce401549bebb",
        "background_disclosure": "OSM context only; not a legal boundary, control line, or engineering survey."
      },
      "geometry": {
        "type": "Point",
        "coordinates": [
          116.3469724,
          39.9402806
        ]
      }
    },
    {
      "type": "Feature",
      "id": "OSM-NODE-1349005765",
      "properties": {
        "id": "OSM-NODE-1349005765",
        "layer": "EXISTING_STATION",
        "source_type": "osm",
        "confidence": "low",
        "geometry_role": "existing_condition",
        "usage_role": "background_only",
        "official_boundary": false,
        "source_snapshot": "source/osm-context.json",
        "osm_element_type": "node",
        "osm_element_id": 1349005765,
        "license": "ODbL-1.0",
        "attribution": "© OpenStreetMap contributors",
        "source_query_sha256": "57db441985315ffa84d210ee9db67a0c61dd4ccfe153e34e07ecce401549bebb",
        "background_disclosure": "OSM context only; not a legal boundary, control line, or engineering survey."
      },
      "geometry": {
        "type": "Point",
        "coordinates": [
          116.3493977,
          39.9391361
        ]
      }
    },
    {
      "type": "Feature",
      "id": "OSM-NODE-1350216520",
      "properties": {
        "id": "OSM-NODE-1350216520",
        "layer": "EXISTING_STATION",
        "source_type": "osm",
        "confidence": "low",
        "geometry_role": "existing_condition",
        "usage_role": "background_only",
        "official_boundary": false,
        "source_snapshot": "source/osm-context.json",
        "osm_element_type": "node",
        "osm_element_id": 1350216520,
        "license": "ODbL-1.0",
        "attribution": "© OpenStreetMap contributors",
        "source_query_sha256": "57db441985315ffa84d210ee9db67a0c61dd4ccfe153e34e07ecce401549bebb",
        "background_disclosure": "OSM context only; not a legal boundary, control line, or engineering survey."
      },
      "geometry": {
        "type": "Point",
        "coordinates": [
          116.3477606,
          39.9749496
        ]
      }
    },
    {
      "type": "Feature",
      "id": "OSM-NODE-339087731",
      "properties": {
        "id": "OSM-NODE-339087731",
        "layer": "EXISTING_STATION",
        "source_type": "osm",
        "confidence": "low",
        "geometry_role": "existing_condition",
        "usage_role": "background_only",
        "official_boundary": false,
        "source_snapshot": "source/osm-context.json",
        "osm_element_type": "node",
        "osm_element_id": 339087731,
        "license": "ODbL-1.0",
        "attribution": "© OpenStreetMap contributors",
        "source_query_sha256": "57db441985315ffa84d210ee9db67a0c61dd4ccfe153e34e07ecce401549bebb",
        "background_disclosure": "OSM context only; not a legal boundary, control line, or engineering survey."
      },
      "geometry": {
        "type": "Point",
        "coordinates": [
          116.3492602,
          39.9391324
        ]
      }
    },
    {
      "type": "Feature",
      "id": "OSM-NODE-340410659",
      "properties": {
        "id": "OSM-NODE-340410659",
        "layer": "EXISTING_STATION",
        "source_type": "osm",
        "confidence": "low",
        "geometry_role": "existing_condition",
        "usage_role": "background_only",
        "official_boundary": false,
        "source_snapshot": "source/osm-context.json",
        "osm_element_type": "node",
        "osm_element_id": 340410659,
        "license": "ODbL-1.0",
        "attribution": "© OpenStreetMap contributors",
        "source_query_sha256": "57db441985315ffa84d210ee9db67a0c61dd4ccfe153e34e07ecce401549bebb",
        "background_disclosure": "OSM context only; not a legal boundary, control line, or engineering survey."
      },
      "geometry": {
        "type": "Point",
        "coordinates": [
          116.3477566,
          39.9748033
        ]
      }
    },
    {
      "type": "Feature",
      "id": "OSM-WAY-25057123",
      "properties": {
        "id": "OSM-WAY-25057123",
        "layer": "EXISTING_RAIL",
        "source_type": "osm",
        "confidence": "low",
        "geometry_role": "existing_condition",
        "usage_role": "background_only",
        "official_boundary": false,
        "source_snapshot": "source/osm-context.json",
        "osm_element_type": "way",
        "osm_element_id": 25057123,
        "license": "ODbL-1.0",
        "attribution": "© OpenStreetMap contributors",
        "source_query_sha256": "57db441985315ffa84d210ee9db67a0c61dd4ccfe153e34e07ecce401549bebb",
        "background_disclosure": "OSM context only; not a legal boundary, control line, or engineering survey."
      },
      "geometry": {
        "type": "LineString",
        "coordinates": [
          [
            116.3479606,
            39.9416045
          ],
          [
            116.34739,
            39.9431964
          ],
          [
            116.3468605,
            39.9446738
          ],
          [
            116.3467243,
            39.9450787
          ],
          [
            116.3466428,
            39.9453538
          ],
          [
            116.3465753,
            39.9456348
          ],
          [
            116.3465215,
            39.9459415
          ],
          [
            116.3464507,
            39.9463913
          ],
          [
            116.3464173,
            39.9467667
          ],
          [
            116.346389,
            39.9470841
          ],
          [
            116.3463582,
            39.9473598
          ],
          [
            116.3463266,
            39.9476077
          ],
          [
            116.3462209,
            39.9482065
          ]
        ]
      }
    },
    {
      "type": "Feature",
      "id": "OSM-WAY-26307143",
      "properties": {
        "id": "OSM-WAY-26307143",
        "layer": "EXISTING_RAIL",
        "source_type": "osm",
        "confidence": "low",
        "geometry_role": "existing_condition",
        "usage_role": "background_only",
        "official_boundary": false,
        "source_snapshot": "source/osm-context.json",
        "osm_element_type": "way",
        "osm_element_id": 26307143,
        "license": "ODbL-1.0",
        "attribution": "© OpenStreetMap contributors",
        "source_query_sha256": "57db441985315ffa84d210ee9db67a0c61dd4ccfe153e34e07ecce401549bebb",
        "background_disclosure": "OSM context only; not a legal boundary, control line, or engineering survey."
      },
      "geometry": {
        "type": "LineString",
        "coordinates": [
          [
            116.347295,
            39.9397398
          ],
          [
            116.3470711,
            39.9403046
          ]
        ]
      }
    },
    {
      "type": "Feature",
      "id": "OSM-WAY-93716293",
      "properties": {
        "id": "OSM-WAY-93716293",
        "layer": "EXISTING_RAIL",
        "source_type": "osm",
        "confidence": "low",
        "geometry_role": "existing_condition",
        "usage_role": "background_only",
        "official_boundary": false,
        "source_snapshot": "source/osm-context.json",
        "osm_element_type": "way",
        "osm_element_id": 93716293,
        "license": "ODbL-1.0",
        "attribution": "© OpenStreetMap contributors",
        "source_query_sha256": "57db441985315ffa84d210ee9db67a0c61dd4ccfe153e34e07ecce401549bebb",
        "background_disclosure": "OSM context only; not a legal boundary, control line, or engineering survey."
      },
      "geometry": {
        "type": "LineString",
        "coordinates": [
          [
            116.3462506,
            39.9424387
          ],
          [
            116.346271,
            39.942337
          ],
          [
            116.3462911,
            39.9422366
          ]
        ]
      }
    },
    {
      "type": "Feature",
      "id": "OSM-WAY-93716300",
      "properties": {
        "id": "OSM-WAY-93716300",
        "layer": "EXISTING_RAIL",
        "source_type": "osm",
        "confidence": "low",
        "geometry_role": "existing_condition",
        "usage_role": "background_only",
        "official_boundary": false,
        "source_snapshot": "source/osm-context.json",
        "osm_element_type": "way",
        "osm_element_id": 93716300,
        "license": "ODbL-1.0",
        "attribution": "© OpenStreetMap contributors",
        "source_query_sha256": "57db441985315ffa84d210ee9db67a0c61dd4ccfe153e34e07ecce401549bebb",
        "background_disclosure": "OSM context only; not a legal boundary, control line, or engineering survey."
      },
      "geometry": {
        "type": "LineString",
        "coordinates": [
          [
            116.3462093,
            39.9424207
          ],
          [
            116.346271,
            39.942337
          ],
          [
            116.3463313,
            39.9422551
          ]
        ]
      }
    }
  ]
}
