{
  "type": "FeatureCollection",
  "name": "blue_green_public_space_network",
  "crs": {
    "type": "name",
    "properties": {
      "name": "urn:ogc:def:crs:OGC:1.3:CRS84"
    }
  },
  "features": [
    {
      "type": "Feature",
      "id": "GREEN-001",
      "properties": {
        "id": "GREEN-001",
        "layer": "GREEN_SPACE",
        "source_type": "agent_generated_design",
        "confidence": "medium",
        "geometry_role": "design_proposal",
        "design_precision": "conceptual_not_surveyed",
        "disclosure": "Conceptual design geometry derived from the repository provisional rough boundary; not a survey, statutory control, road redline, property boundary, or engineering commitment.",
        "land_use_code": "1401",
        "green_type": "ecological_wing",
        "area_sqm_declared": 2589339.999,
        "area_measurement_basis": "EPSG:4548 recomputation from provisional rough geometry"
      },
      "geometry": {
        "type": "Polygon",
        "coordinates": [
          [
            [
              116.34281999999999,
              39.939
            ],
            [
              116.34281999999999,
              40.0265
            ],
            [
              116.34594,
              40.0265
            ],
            [
              116.34594,
              39.939
            ],
            [
              116.34281999999999,
              39.939
            ]
          ]
        ]
      }
    },
    {
      "type": "Feature",
      "id": "GREEN-002",
      "properties": {
        "id": "GREEN-002",
        "layer": "GREEN_SPACE",
        "source_type": "agent_generated_design",
        "confidence": "medium",
        "geometry_role": "design_proposal",
        "design_precision": "conceptual_not_surveyed",
        "disclosure": "Conceptual design geometry derived from the repository provisional rough boundary; not a survey, statutory control, road redline, property boundary, or engineering commitment.",
        "land_use_code": "1401",
        "green_type": "innovation_belt_green_spine",
        "area_sqm_declared": 776801.43,
        "area_measurement_basis": "EPSG:4548 recomputation from provisional rough geometry"
      },
      "geometry": {
        "type": "Polygon",
        "coordinates": [
          [
            [
              116.347032,
              39.939
            ],
            [
              116.347032,
              40.0265
            ],
            [
              116.347968,
              40.0265
            ],
            [
              116.347968,
              39.939
            ],
            [
              116.347032,
              39.939
            ]
          ]
        ]
      }
    }
  ]
}
