{
  "type": "FeatureCollection",
  "name": "land_use_topology_partition",
  "crs": {
    "type": "name",
    "properties": {
      "name": "urn:ogc:def:crs:OGC:1.3:CRS84"
    }
  },
  "features": [
    {
      "type": "Feature",
      "id": "LU-001",
      "properties": {
        "id": "LU-001",
        "layer": "LAND_USE",
        "source_type": "agent_generated_design",
        "confidence": "medium",
        "geometry_role": "design_proposal",
        "design_precision": "conceptual_not_surveyed",
        "disclosure": "Conceptual design geometry derived from the repository provisional rough boundary; not a survey, statutory control, road redline, property boundary, or engineering commitment.",
        "land_use_code": "0802",
        "name_en": "AI research and innovation",
        "area_sqm_declared": 1638826.442,
        "area_measurement_basis": "EPSG:4548 recomputation from provisional rough geometry"
      },
      "geometry": {
        "type": "Polygon",
        "coordinates": [
          [
            [
              116.3407,
              39.939
            ],
            [
              116.3397,
              39.975
            ],
            [
              116.3417,
              40.006
            ],
            [
              116.3427,
              40.0265
            ],
            [
              116.34281999999999,
              40.0265
            ],
            [
              116.34281999999999,
              39.939
            ],
            [
              116.3407,
              39.939
            ]
          ]
        ]
      }
    },
    {
      "type": "Feature",
      "id": "LU-002",
      "properties": {
        "id": "LU-002",
        "layer": "LAND_USE",
        "source_type": "agent_generated_design",
        "confidence": "medium",
        "geometry_role": "design_proposal",
        "design_precision": "conceptual_not_surveyed",
        "disclosure": "Conceptual design geometry derived from the repository provisional rough boundary; not a survey, statutory control, road redline, property boundary, or engineering commitment.",
        "land_use_code": "1401",
        "name_en": "continuous green and ecological open space",
        "area_sqm_declared": 2589339.999,
        "area_measurement_basis": "EPSG:4548 recomputation from provisional rough geometry"
      },
      "geometry": {
        "type": "Polygon",
        "coordinates": [
          [
            [
              116.34281999999999,
              39.939
            ],
            [
              116.34281999999999,
              40.0265
            ],
            [
              116.34594,
              40.0265
            ],
            [
              116.34594,
              39.939
            ],
            [
              116.34281999999999,
              39.939
            ]
          ]
        ]
      }
    },
    {
      "type": "Feature",
      "id": "LU-003",
      "properties": {
        "id": "LU-003",
        "layer": "LAND_USE",
        "source_type": "agent_generated_design",
        "confidence": "medium",
        "geometry_role": "design_proposal",
        "design_precision": "conceptual_not_surveyed",
        "disclosure": "Conceptual design geometry derived from the repository provisional rough boundary; not a survey, statutory control, road redline, property boundary, or engineering commitment.",
        "land_use_code": "05",
        "name_en": "AI industry and production services",
        "area_sqm_declared": 2718804.957,
        "area_measurement_basis": "EPSG:4548 recomputation from provisional rough geometry"
      },
      "geometry": {
        "type": "Polygon",
        "coordinates": [
          [
            [
              116.34594,
              39.939
            ],
            [
              116.34594,
              40.0265
            ],
            [
              116.349216,
              40.0265
            ],
            [
              116.349216,
              39.939
            ],
            [
              116.34594,
              39.939
            ]
          ]
        ]
      }
    },
    {
      "type": "Feature",
      "id": "LU-004",
      "properties": {
        "id": "LU-004",
        "layer": "LAND_USE",
        "source_type": "agent_generated_design",
        "confidence": "medium",
        "geometry_role": "design_proposal",
        "design_precision": "conceptual_not_surveyed",
        "disclosure": "Conceptual design geometry derived from the repository provisional rough boundary; not a survey, statutory control, road redline, property boundary, or engineering commitment.",
        "land_use_code": "0702",
        "name_en": "talent community and supporting services",
        "area_sqm_declared": 2589336.119,
        "area_measurement_basis": "EPSG:4548 recomputation from provisional rough geometry"
      },
      "geometry": {
        "type": "Polygon",
        "coordinates": [
          [
            [
              116.349216,
              39.939
            ],
            [
              116.349216,
              40.0265
            ],
            [
              116.352336,
              40.0265
            ],
            [
              116.352336,
              39.939
            ],
            [
              116.349216,
              39.939
            ]
          ]
        ]
      }
    },
    {
      "type": "Feature",
      "id": "LU-005",
      "properties": {
        "id": "LU-005",
        "layer": "LAND_USE",
        "source_type": "agent_generated_design",
        "confidence": "medium",
        "geometry_role": "design_proposal",
        "design_precision": "conceptual_not_surveyed",
        "disclosure": "Conceptual design geometry derived from the repository provisional rough boundary; not a survey, statutory control, road redline, property boundary, or engineering commitment.",
        "land_use_code": "0801",
        "name_en": "public culture and shared intelligence services",
        "area_sqm_declared": 1876525.396,
        "area_measurement_basis": "EPSG:4548 recomputation from provisional rough geometry"
      },
      "geometry": {
        "type": "Polygon",
        "coordinates": [
          [
            [
              116.352336,
              39.939
            ],
            [
              116.352336,
              40.0265
            ],
            [
              116.3553,
              40.0265
            ],
            [
              116.3533,
              39.99
            ],
            [
              116.3553,
              39.965
            ],
            [
              116.3553,
              39.939
            ],
            [
              116.352336,
              39.939
            ]
          ]
        ]
      }
    }
  ]
}
