{
  "type": "FeatureCollection",
  "name": "four_phase_partition",
  "crs": {
    "type": "name",
    "properties": {
      "name": "urn:ogc:def:crs:OGC:1.3:CRS84"
    }
  },
  "features": [
    {
      "type": "Feature",
      "id": "PHASE-001",
      "properties": {
        "id": "PHASE-001",
        "layer": "PHASE",
        "source_type": "agent_generated_design",
        "confidence": "medium",
        "geometry_role": "design_proposal",
        "design_precision": "conceptual_not_surveyed",
        "disclosure": "Conceptual design geometry derived from the repository provisional rough boundary; not a survey, statutory control, road redline, property boundary, or engineering commitment.",
        "phase": "phase_1",
        "phase_theme": "evidence_base",
        "area_sqm_declared": 2967534.695,
        "area_measurement_basis": "EPSG:4548 recomputation from provisional rough geometry"
      },
      "geometry": {
        "type": "Polygon",
        "coordinates": [
          [
            [
              116.3401166667667,
              39.96
            ],
            [
              116.3552999999,
              39.96
            ],
            [
              116.3552999999,
              39.9390000001
            ],
            [
              116.34070000009726,
              39.9390000001
            ],
            [
              116.3401166667667,
              39.96
            ]
          ]
        ]
      }
    },
    {
      "type": "Feature",
      "id": "PHASE-002",
      "properties": {
        "id": "PHASE-002",
        "layer": "PHASE",
        "source_type": "agent_generated_design",
        "confidence": "medium",
        "geometry_role": "design_proposal",
        "design_precision": "conceptual_not_surveyed",
        "disclosure": "Conceptual design geometry derived from the repository provisional rough boundary; not a survey, statutory control, road redline, property boundary, or engineering commitment.",
        "phase": "phase_2",
        "phase_theme": "lightweight_pilots",
        "area_sqm_declared": 3199128.259,
        "area_measurement_basis": "EPSG:4548 recomputation from provisional rough geometry"
      },
      "geometry": {
        "type": "Polygon",
        "coordinates": [
          [
            [
              116.33970000010008,
              39.97499999999818
            ],
            [
              116.3402000001002,
              39.982749999999996
            ],
            [
              116.35387999989969,
              39.982749999999996
            ],
            [
              116.3552999999,
              39.96499999999612
            ],
            [
              116.3552999999,
              39.96
            ],
            [
              116.3401166667667,
              39.96
            ],
            [
              116.33970000010008,
              39.97499999999818
            ]
          ]
        ]
      }
    },
    {
      "type": "Feature",
      "id": "PHASE-003",
      "properties": {
        "id": "PHASE-003",
        "layer": "PHASE",
        "source_type": "agent_generated_design",
        "confidence": "medium",
        "geometry_role": "design_proposal",
        "design_precision": "conceptual_not_surveyed",
        "disclosure": "Conceptual design geometry derived from the repository provisional rough boundary; not a survey, statutory control, road redline, property boundary, or engineering commitment.",
        "phase": "phase_3",
        "phase_theme": "networked_nodes",
        "area_sqm_declared": 2750276.768,
        "area_measurement_basis": "EPSG:4548 recomputation from provisional rough geometry"
      },
      "geometry": {
        "type": "Polygon",
        "coordinates": [
          [
            [
              116.3416677420357,
              40.0055
            ],
            [
              116.35414931496835,
              40.0055
            ],
            [
              116.35329999990016,
              39.99000000000547
            ],
            [
              116.35329999990033,
              39.98999999999203
            ],
            [
              116.35387999989969,
              39.982749999999996
            ],
            [
              116.3402000001002,
              39.982749999999996
            ],
            [
              116.3416677420357,
              40.0055
            ]
          ]
        ]
      }
    },
    {
      "type": "Feature",
      "id": "PHASE-004",
      "properties": {
        "id": "PHASE-004",
        "layer": "PHASE",
        "source_type": "agent_generated_design",
        "confidence": "medium",
        "geometry_role": "design_proposal",
        "design_precision": "conceptual_not_surveyed",
        "disclosure": "Conceptual design geometry derived from the repository provisional rough boundary; not a survey, statutory control, road redline, property boundary, or engineering commitment.",
        "phase": "phase_4",
        "phase_theme": "corridor_iteration",
        "area_sqm_declared": 2495908.37,
        "area_measurement_basis": "EPSG:4548 recomputation from provisional rough geometry"
      },
      "geometry": {
        "type": "Polygon",
        "coordinates": [
          [
            [
              116.34170000009979,
              40.00599999999356
            ],
            [
              116.34170000009989,
              40.005999999995126
            ],
            [
              116.34270000009523,
              40.0264999999
            ],
            [
              116.35529999989437,
              40.0264999999
            ],
            [
              116.35414931496835,
              40.0055
            ],
            [
              116.3416677420357,
              40.0055
            ],
            [
              116.34170000009979,
              40.00599999999356
            ]
          ]
        ]
      }
    }
  ]
}
