{
  "type": "FeatureCollection",
  "name": "one_belt_three_cores_two_wings_multi_station",
  "crs": {
    "type": "name",
    "properties": {
      "name": "urn:ogc:def:crs:OGC:1.3:CRS84"
    }
  },
  "features": [
    {
      "type": "Feature",
      "id": "NODE-STATION-001",
      "properties": {
        "id": "NODE-STATION-001",
        "layer": "SCENARIO_NODE",
        "source_type": "agent_generated_design",
        "confidence": "medium",
        "geometry_role": "design_proposal",
        "design_precision": "conceptual_not_surveyed",
        "disclosure": "Conceptual design geometry derived from the repository provisional rough boundary; not a survey, statutory control, road redline, property boundary, or engineering commitment.",
        "structure_role": "service_station",
        "node_type": "AI_commons_service_station"
      },
      "geometry": {
        "type": "Point",
        "coordinates": [
          116.3475,
          39.946
        ]
      }
    },
    {
      "type": "Feature",
      "id": "NODE-STATION-002",
      "properties": {
        "id": "NODE-STATION-002",
        "layer": "SCENARIO_NODE",
        "source_type": "agent_generated_design",
        "confidence": "medium",
        "geometry_role": "design_proposal",
        "design_precision": "conceptual_not_surveyed",
        "disclosure": "Conceptual design geometry derived from the repository provisional rough boundary; not a survey, statutory control, road redline, property boundary, or engineering commitment.",
        "structure_role": "service_station",
        "node_type": "AI_commons_service_station"
      },
      "geometry": {
        "type": "Point",
        "coordinates": [
          116.3475,
          39.96
        ]
      }
    },
    {
      "type": "Feature",
      "id": "NODE-STATION-003",
      "properties": {
        "id": "NODE-STATION-003",
        "layer": "SCENARIO_NODE",
        "source_type": "agent_generated_design",
        "confidence": "medium",
        "geometry_role": "design_proposal",
        "design_precision": "conceptual_not_surveyed",
        "disclosure": "Conceptual design geometry derived from the repository provisional rough boundary; not a survey, statutory control, road redline, property boundary, or engineering commitment.",
        "structure_role": "service_station",
        "node_type": "AI_commons_service_station"
      },
      "geometry": {
        "type": "Point",
        "coordinates": [
          116.3475,
          39.974
        ]
      }
    },
    {
      "type": "Feature",
      "id": "NODE-STATION-004",
      "properties": {
        "id": "NODE-STATION-004",
        "layer": "SCENARIO_NODE",
        "source_type": "agent_generated_design",
        "confidence": "medium",
        "geometry_role": "design_proposal",
        "design_precision": "conceptual_not_surveyed",
        "disclosure": "Conceptual design geometry derived from the repository provisional rough boundary; not a survey, statutory control, road redline, property boundary, or engineering commitment.",
        "structure_role": "service_station",
        "node_type": "AI_commons_service_station"
      },
      "geometry": {
        "type": "Point",
        "coordinates": [
          116.3475,
          39.988
        ]
      }
    },
    {
      "type": "Feature",
      "id": "NODE-STATION-005",
      "properties": {
        "id": "NODE-STATION-005",
        "layer": "SCENARIO_NODE",
        "source_type": "agent_generated_design",
        "confidence": "medium",
        "geometry_role": "design_proposal",
        "design_precision": "conceptual_not_surveyed",
        "disclosure": "Conceptual design geometry derived from the repository provisional rough boundary; not a survey, statutory control, road redline, property boundary, or engineering commitment.",
        "structure_role": "service_station",
        "node_type": "AI_commons_service_station"
      },
      "geometry": {
        "type": "Point",
        "coordinates": [
          116.3475,
          40.002
        ]
      }
    },
    {
      "type": "Feature",
      "id": "NODE-STATION-006",
      "properties": {
        "id": "NODE-STATION-006",
        "layer": "SCENARIO_NODE",
        "source_type": "agent_generated_design",
        "confidence": "medium",
        "geometry_role": "design_proposal",
        "design_precision": "conceptual_not_surveyed",
        "disclosure": "Conceptual design geometry derived from the repository provisional rough boundary; not a survey, statutory control, road redline, property boundary, or engineering commitment.",
        "structure_role": "service_station",
        "node_type": "AI_commons_service_station"
      },
      "geometry": {
        "type": "Point",
        "coordinates": [
          116.3475,
          40.016
        ]
      }
    },
    {
      "type": "Feature",
      "id": "ROAD-BELT-001",
      "properties": {
        "id": "ROAD-BELT-001",
        "layer": "ROAD_CENTERLINE",
        "source_type": "agent_generated_design",
        "confidence": "medium",
        "geometry_role": "design_proposal",
        "design_precision": "conceptual_not_surveyed",
        "disclosure": "Conceptual design geometry derived from the repository provisional rough boundary; not a survey, statutory control, road redline, property boundary, or engineering commitment.",
        "structure_role": "innovation_belt",
        "mode": "walking_cycling_ai_shuttle"
      },
      "geometry": {
        "type": "LineString",
        "coordinates": [
          [
            116.3475,
            39.9390000001
          ],
          [
            116.3475,
            40.0264999999
          ]
        ]
      }
    },
    {
      "type": "Feature",
      "id": "ROAD-CORE-001",
      "properties": {
        "id": "ROAD-CORE-001",
        "layer": "ROAD_CENTERLINE",
        "source_type": "agent_generated_design",
        "confidence": "medium",
        "geometry_role": "design_proposal",
        "design_precision": "conceptual_not_surveyed",
        "disclosure": "Conceptual design geometry derived from the repository provisional rough boundary; not a survey, statutory control, road redline, property boundary, or engineering commitment.",
        "structure_role": "core_connector",
        "core_index": 1,
        "mode": "slow_mobility_link"
      },
      "geometry": {
        "type": "LineString",
        "coordinates": [
          [
            116.3485,
            40.01675
          ],
          [
            116.3475,
            40.01675
          ]
        ]
      }
    },
    {
      "type": "Feature",
      "id": "ROAD-CORE-002",
      "properties": {
        "id": "ROAD-CORE-002",
        "layer": "ROAD_CENTERLINE",
        "source_type": "agent_generated_design",
        "confidence": "medium",
        "geometry_role": "design_proposal",
        "design_precision": "conceptual_not_surveyed",
        "disclosure": "Conceptual design geometry derived from the repository provisional rough boundary; not a survey, statutory control, road redline, property boundary, or engineering commitment.",
        "structure_role": "core_connector",
        "core_index": 2,
        "mode": "slow_mobility_link"
      },
      "geometry": {
        "type": "LineString",
        "coordinates": [
          [
            116.3475,
            39.9885
          ],
          [
            116.34438,
            39.9885
          ]
        ]
      }
    },
    {
      "type": "Feature",
      "id": "ROAD-CORE-003",
      "properties": {
        "id": "ROAD-CORE-003",
        "layer": "ROAD_CENTERLINE",
        "source_type": "agent_generated_design",
        "confidence": "medium",
        "geometry_role": "design_proposal",
        "design_precision": "conceptual_not_surveyed",
        "disclosure": "Conceptual design geometry derived from the repository provisional rough boundary; not a survey, statutory control, road redline, property boundary, or engineering commitment.",
        "structure_role": "core_connector",
        "core_index": 3,
        "mode": "slow_mobility_link"
      },
      "geometry": {
        "type": "LineString",
        "coordinates": [
          [
            116.3485,
            39.946920000000006
          ],
          [
            116.3475,
            39.946920000000006
          ]
        ]
      }
    },
    {
      "type": "Feature",
      "id": "ROAD-WING-E-001",
      "properties": {
        "id": "ROAD-WING-E-001",
        "layer": "ROAD_CENTERLINE",
        "source_type": "agent_generated_design",
        "confidence": "medium",
        "geometry_role": "design_proposal",
        "design_precision": "conceptual_not_surveyed",
        "disclosure": "Conceptual design geometry derived from the repository provisional rough boundary; not a survey, statutory control, road redline, property boundary, or engineering commitment.",
        "structure_role": "east_wing",
        "mode": "cross_belt_green_connector"
      },
      "geometry": {
        "type": "LineString",
        "coordinates": [
          [
            116.34093387106795,
            39.994125
          ],
          [
            116.35352602729712,
            39.994125
          ]
        ]
      }
    },
    {
      "type": "Feature",
      "id": "ROAD-WING-W-001",
      "properties": {
        "id": "ROAD-WING-W-001",
        "layer": "ROAD_CENTERLINE",
        "source_type": "agent_generated_design",
        "confidence": "medium",
        "geometry_role": "design_proposal",
        "design_precision": "conceptual_not_surveyed",
        "disclosure": "Conceptual design geometry derived from the repository provisional rough boundary; not a survey, statutory control, road redline, property boundary, or engineering commitment.",
        "structure_role": "west_wing",
        "mode": "cross_belt_public_service_connector"
      },
      "geometry": {
        "type": "LineString",
        "coordinates": [
          [
            116.33982500010003,
            39.9705
          ],
          [
            116.35485999989969,
            39.9705
          ]
        ]
      }
    }
  ]
}
