{
  "type": "FeatureCollection",
  "name": "roads_scaffold",
  "features": [
    {
      "type": "Feature",
      "id": "ROAD-001",
      "properties": {
        "id": "ROAD-001",
        "layer": "ROAD_CENTERLINE",
        "source_type": "agent_generated_design",
        "confidence": "medium",
        "geometry_role": "design_proposal",
        "road_class": "greenway",
        "name_zh": "京张开源脉冲慢行与创新服务廊道（概念建议）",
        "design_intent_zh": "串联三处重点区的低侵入慢行、无障碍导视与公共服务节点；道路红线、工程条件和实施安排待正式资料与专业复核（v1.1，设计展板以数据约束想象力）。"
      },
      "geometry": {
        "type": "LineString",
        "coordinates": [
          [
            116.340948,
            39.9845
          ],
          [
            116.35374,
            39.9845
          ]
        ]
      }
    }
  ]
}
