{
  "type": "FeatureCollection",
  "name": "open_prototype_buildings",
  "features": [
    {
      "type": "Feature",
      "id": "BLD-01",
      "properties": {
        "id": "BLD-01",
        "layer": "BUILDING_FOOTPRINT",
        "source_type": "agent_generated_design",
        "confidence": "medium",
        "geometry_role": "design_proposal",
        "name_zh": "概念性转化服务界面",
        "concept_system": "three_cores_nine_modules",
        "concept_status": "provisional_design_suggestion"
      },
      "geometry": {
        "type": "Polygon",
        "coordinates": [
          [
            [
              116.346,
              39.985
            ],
            [
              116.347,
              39.985
            ],
            [
              116.347,
              39.987
            ],
            [
              116.346,
              39.987
            ],
            [
              116.346,
              39.985
            ]
          ]
        ]
      }
    }
  ]
}
