{
  "type": "FeatureCollection",
  "name": "open_prototype_green",
  "features": [
    {
      "type": "Feature",
      "id": "GR-01",
      "properties": {
        "id": "GR-01",
        "layer": "GREEN_SPACE",
        "source_type": "agent_generated_design",
        "confidence": "medium",
        "geometry_role": "design_proposal",
        "name_zh": "试制绿荫停留带",
        "concept_system": "three_cores_nine_modules",
        "concept_status": "provisional_design_suggestion"
      },
      "geometry": {
        "type": "Polygon",
        "coordinates": [
          [
            [
              116.35,
              39.945
            ],
            [
              116.354,
              39.945
            ],
            [
              116.354,
              39.953
            ],
            [
              116.35,
              39.953
            ],
            [
              116.35,
              39.945
            ]
          ]
        ]
      }
    }
  ]
}
