{
  "type": "FeatureCollection",
  "name": "open_prototype_public_space",
  "features": [
    {
      "type": "Feature",
      "id": "PS-TEST",
      "properties": {
        "id": "PS-TEST",
        "layer": "PUBLIC_SPACE",
        "source_type": "agent_generated_design",
        "confidence": "medium",
        "geometry_role": "design_proposal",
        "name_zh": "可信试验站",
        "concept_system": "three_cores_nine_modules",
        "concept_status": "provisional_design_suggestion"
      },
      "geometry": {
        "type": "Point",
        "coordinates": [
          116.342,
          40.015
        ]
      }
    },
    {
      "type": "Feature",
      "id": "PS-ORIGIN",
      "properties": {
        "id": "PS-ORIGIN",
        "layer": "PUBLIC_SPACE",
        "source_type": "agent_generated_design",
        "confidence": "medium",
        "geometry_role": "design_proposal",
        "name_zh": "人机交接庭",
        "concept_system": "three_cores_nine_modules",
        "concept_status": "provisional_design_suggestion"
      },
      "geometry": {
        "type": "Point",
        "coordinates": [
          116.347,
          39.99
        ]
      }
    },
    {
      "type": "Feature",
      "id": "PS-EXHIBIT",
      "properties": {
        "id": "PS-EXHIBIT",
        "layer": "PUBLIC_SPACE",
        "source_type": "agent_generated_design",
        "confidence": "medium",
        "geometry_role": "design_proposal",
        "name_zh": "开源成果廊",
        "concept_system": "three_cores_nine_modules",
        "concept_status": "provisional_design_suggestion"
      },
      "geometry": {
        "type": "Point",
        "coordinates": [
          116.352,
          39.96
        ]
      }
    }
  ]
}
