{
  "type": "FeatureCollection",
  "name": "open_prototype_corridors",
  "features": [
    {
      "type": "Feature",
      "id": "RD-PROTOTYPE-01",
      "properties": {
        "id": "RD-PROTOTYPE-01",
        "layer": "ROAD_CENTERLINE",
        "source_type": "agent_generated_design",
        "confidence": "medium",
        "geometry_role": "design_proposal",
        "road_class": "greenway",
        "name_zh": "开源试制慢行廊道",
        "concept_system": "three_cores_nine_modules",
        "concept_status": "provisional_design_suggestion"
      },
      "geometry": {
        "type": "LineString",
        "coordinates": [
          [
            116.342,
            39.945
          ],
          [
            116.346,
            39.972
          ],
          [
            116.349,
            39.995
          ],
          [
            116.353,
            40.018
          ]
        ]
      }
    },
    {
      "type": "Feature",
      "id": "RD-PROTOTYPE-02",
      "properties": {
        "id": "RD-PROTOTYPE-02",
        "layer": "ROAD_CENTERLINE",
        "source_type": "agent_generated_design",
        "confidence": "medium",
        "geometry_role": "design_proposal",
        "road_class": "transit_connection",
        "name_zh": "服务交接横向连接",
        "concept_system": "three_cores_nine_modules",
        "concept_status": "provisional_design_suggestion"
      },
      "geometry": {
        "type": "LineString",
        "coordinates": [
          [
            116.341,
            39.99
          ],
          [
            116.354,
            39.99
          ]
        ]
      }
    }
  ]
}
