{
  "type": "FeatureCollection",
  "features": [
    {
      "type": "Feature",
      "id": "LU-001",
      "properties": {
        "id": "LU-001",
        "layer": "LAND_USE",
        "source_type": "agent_generated_design",
        "confidence": "medium",
        "geometry_role": "design_proposal",
        "crs_note": "EPSG:4326 storage",
        "equal_area_projection": "EPSG:4548",
        "official_boundary": false,
        "boundary_precision": "provisional_concept",
        "land_use_code": "05",
        "name_zh": "产业服务单元",
        "block_id": "B001",
        "area_sqm_declared": 353039.993
      },
      "geometry": {
        "type": "Polygon",
        "coordinates": [
          [
            [
              116.34036000890158,
              39.95123967954287
            ],
            [
              116.34178697802426,
              39.95123967954287
            ],
            [
              116.34356943921988,
              39.95123967954287
            ],
            [
              116.34356943921988,
              39.945450245013696
            ],
            [
              116.34356943921988,
              39.939
            ],
            [
              116.34178697802426,
              39.939
            ],
            [
              116.3407,
              39.939
            ],
            [
              116.3405208265274,
              39.945450245013696
            ],
            [
              116.34036000890158,
              39.95123967954287
            ]
          ]
        ]
      }
    },
    {
      "type": "Feature",
      "id": "LU-002",
      "properties": {
        "id": "LU-002",
        "layer": "LAND_USE",
        "source_type": "agent_generated_design",
        "confidence": "medium",
        "geometry_role": "design_proposal",
        "crs_note": "EPSG:4326 storage",
        "equal_area_projection": "EPSG:4548",
        "official_boundary": false,
        "boundary_precision": "provisional_concept",
        "land_use_code": "05",
        "name_zh": "产业服务单元",
        "block_id": "B002",
        "area_sqm_declared": 202727.83
      },
      "geometry": {
        "type": "Polygon",
        "coordinates": [
          [
            [
              116.34018013138454,
              39.95771527015653
            ],
            [
              116.34178697802426,
              39.95771527015653
            ],
            [
              116.34356943921988,
              39.95771527015653
            ],
            [
              116.34356943921988,
              39.95123967954287
            ],
            [
              116.34178697802426,
              39.95123967954287
            ],
            [
              116.34036000890158,
              39.95123967954287
            ],
            [
              116.34018013138454,
              39.95771527015653
            ]
          ]
        ]
      }
    },
    {
      "type": "Feature",
      "id": "LU-003",
      "properties": {
        "id": "LU-003",
        "layer": "LAND_USE",
        "source_type": "agent_generated_design",
        "confidence": "medium",
        "geometry_role": "design_proposal",
        "crs_note": "EPSG:4326 storage",
        "equal_area_projection": "EPSG:4548",
        "official_boundary": false,
        "boundary_precision": "provisional_concept",
        "land_use_code": "0802",
        "name_zh": "科研创新单元",
        "block_id": "B003",
        "area_sqm_declared": 434366.683
      },
      "geometry": {
        "type": "Polygon",
        "coordinates": [
          [
            [
              116.33982364623633,
              39.970548735492194
            ],
            [
              116.34178697802426,
              39.970548735492194
            ],
            [
              116.34356943921988,
              39.970548735492194
            ],
            [
              116.34356943921988,
              39.96390955861696
            ],
            [
              116.34356943921988,
              39.95771527015653
            ],
            [
              116.34178697802426,
              39.95771527015653
            ],
            [
              116.34018013138454,
              39.95771527015653
            ],
            [
              116.34008598163926,
              39.96110466098655
            ],
            [
              116.33990447321565,
              39.967638964236414
            ],
            [
              116.33982364623633,
              39.970548735492194
            ]
          ]
        ]
      }
    },
    {
      "type": "Feature",
      "id": "LU-004",
      "properties": {
        "id": "LU-004",
        "layer": "LAND_USE",
        "source_type": "agent_generated_design",
        "confidence": "medium",
        "geometry_role": "design_proposal",
        "crs_note": "EPSG:4326 storage",
        "equal_area_projection": "EPSG:4548",
        "official_boundary": false,
        "boundary_precision": "provisional_concept",
        "land_use_code": "0802",
        "name_zh": "科研创新单元",
        "block_id": "B004",
        "area_sqm_declared": 434051.852
      },
      "geometry": {
        "type": "Polygon",
        "coordinates": [
          [
            [
              116.34021457633092,
              39.98297593312928
            ],
            [
              116.34178697802426,
              39.98297593312928
            ],
            [
              116.34356943921988,
              39.98297593312928
            ],
            [
              116.34356943921988,
              39.976600705584055
            ],
            [
              116.34356943921988,
              39.970548735492194
            ],
            [
              116.34178697802426,
              39.970548735492194
            ],
            [
              116.33982364623633,
              39.970548735492194
            ],
            [
              116.3397,
              39.975
            ],
            [
              116.3399532910231,
              39.97892601085806
            ],
            [
              116.34021457633092,
              39.98297593312928
            ]
          ]
        ]
      }
    },
    {
      "type": "Feature",
      "id": "LU-005",
      "properties": {
        "id": "LU-005",
        "layer": "LAND_USE",
        "source_type": "agent_generated_design",
        "confidence": "medium",
        "geometry_role": "design_proposal",
        "crs_note": "EPSG:4326 storage",
        "equal_area_projection": "EPSG:4548",
        "official_boundary": false,
        "boundary_precision": "provisional_concept",
        "land_use_code": "0804",
        "name_zh": "教育转化单元",
        "block_id": "B005",
        "area_sqm_declared": 135524.829
      },
      "geometry": {
        "type": "Polygon",
        "coordinates": [
          [
            [
              116.34021457633092,
              39.98297593312928
            ],
            [
              116.34044119763863,
              39.986488563398645
            ],
            [
              116.34076487248063,
              39.99150552344977
            ],
            [
              116.34099413336163,
              39.995059067105245
            ],
            [
              116.34178697802426,
              39.995059067105245
            ],
            [
              116.34178697802426,
              39.98896038993917
            ],
            [
              116.34178697802426,
              39.98297593312928
            ],
            [
              116.34021457633092,
              39.98297593312928
            ]
          ]
        ]
      }
    },
    {
      "type": "Feature",
      "id": "LU-006",
      "properties": {
        "id": "LU-006",
        "layer": "LAND_USE",
        "source_type": "agent_generated_design",
        "confidence": "medium",
        "geometry_role": "design_proposal",
        "crs_note": "EPSG:4326 storage",
        "equal_area_projection": "EPSG:4548",
        "official_boundary": false,
        "boundary_precision": "provisional_concept",
        "land_use_code": "0804",
        "name_zh": "教育转化单元",
        "block_id": "B006",
        "area_sqm_declared": 35871.395
      },
      "geometry": {
        "type": "Polygon",
        "coordinates": [
          [
            [
              116.34178697802426,
              39.995059067105245
            ],
            [
              116.34099413336163,
              39.995059067105245
            ],
            [
              116.34141214253877,
              40.00153820935091
            ],
            [
              116.34178697802426,
              40.00153820935091
            ],
            [
              116.34178697802426,
              39.995059067105245
            ]
          ]
        ]
      }
    },
    {
      "type": "Feature",
      "id": "LU-007",
      "properties": {
        "id": "LU-007",
        "layer": "LAND_USE",
        "source_type": "agent_generated_design",
        "confidence": "medium",
        "geometry_role": "design_proposal",
        "crs_note": "EPSG:4326 storage",
        "equal_area_projection": "EPSG:4548",
        "official_boundary": false,
        "boundary_precision": "provisional_concept",
        "land_use_code": "0802",
        "name_zh": "科研创新单元",
        "block_id": "B007",
        "area_sqm_declared": 10504.242
      },
      "geometry": {
        "type": "Polygon",
        "coordinates": [
          [
            [
              116.34141214253877,
              40.00153820935091
            ],
            [
              116.3417,
              40.006
            ],
            [
              116.34177047180874,
              40.007444672079274
            ],
            [
              116.3417864755743,
              40.00777274927311
            ],
            [
              116.34178697802426,
              40.00778304949728
            ],
            [
              116.34178697802426,
              40.007444672079274
            ],
            [
              116.34178697802426,
              40.00153820935091
            ],
            [
              116.34141214253877,
              40.00153820935091
            ]
          ]
        ]
      }
    },
    {
      "type": "Feature",
      "id": "LU-008",
      "properties": {
        "id": "LU-008",
        "layer": "LAND_USE",
        "source_type": "agent_generated_design",
        "confidence": "medium",
        "geometry_role": "design_proposal",
        "crs_note": "EPSG:4326 storage",
        "equal_area_projection": "EPSG:4548",
        "official_boundary": false,
        "boundary_precision": "provisional_concept",
        "land_use_code": "0802",
        "name_zh": "科研创新单元",
        "block_id": "B008",
        "area_sqm_declared": 204261.815
      },
      "geometry": {
        "type": "Polygon",
        "coordinates": [
          [
            [
              116.34178697802426,
              39.995059067105245
            ],
            [
              116.34356943921988,
              39.995059067105245
            ],
            [
              116.34356943921988,
              39.98896038993917
            ],
            [
              116.34356943921988,
              39.98297593312928
            ],
            [
              116.34178697802426,
              39.98297593312928
            ],
            [
              116.34178697802426,
              39.98896038993917
            ],
            [
              116.34178697802426,
              39.995059067105245
            ]
          ]
        ]
      }
    },
    {
      "type": "Feature",
      "id": "LU-009",
      "properties": {
        "id": "LU-009",
        "layer": "LAND_USE",
        "source_type": "agent_generated_design",
        "confidence": "medium",
        "geometry_role": "design_proposal",
        "crs_note": "EPSG:4326 storage",
        "equal_area_projection": "EPSG:4548",
        "official_boundary": false,
        "boundary_precision": "provisional_concept",
        "land_use_code": "0804",
        "name_zh": "教育转化单元",
        "block_id": "B009",
        "area_sqm_declared": 242213.752
      },
      "geometry": {
        "type": "Polygon",
        "coordinates": [
          [
            [
              116.34356943921988,
              40.00153820935091
            ],
            [
              116.34572929895995,
              40.00153820935091
            ],
            [
              116.34572929895995,
              39.995059067105245
            ],
            [
              116.34356943921988,
              39.995059067105245
            ],
            [
              116.34178697802426,
              39.995059067105245
            ],
            [
              116.34178697802426,
              40.00153820935091
            ],
            [
              116.34356943921988,
              40.00153820935091
            ]
          ]
        ]
      }
    },
    {
      "type": "Feature",
      "id": "LU-010",
      "properties": {
        "id": "LU-010",
        "layer": "LAND_USE",
        "source_type": "agent_generated_design",
        "confidence": "medium",
        "geometry_role": "design_proposal",
        "crs_note": "EPSG:4326 storage",
        "equal_area_projection": "EPSG:4548",
        "official_boundary": false,
        "boundary_precision": "provisional_concept",
        "land_use_code": "0802",
        "name_zh": "科研创新单元",
        "block_id": "B010",
        "area_sqm_declared": 325833.217
      },
      "geometry": {
        "type": "Polygon",
        "coordinates": [
          [
            [
              116.34179849856753,
              40.00801922063418
            ],
            [
              116.34210143130831,
              40.01422934182039
            ],
            [
              116.34356943921988,
              40.01422934182039
            ],
            [
              116.34356943921988,
              40.007444672079274
            ],
            [
              116.34572929895995,
              40.007444672079274
            ],
            [
              116.34572929895995,
              40.00153820935091
            ],
            [
              116.34356943921988,
              40.00153820935091
            ],
            [
              116.34178697802426,
              40.00153820935091
            ],
            [
              116.34178697802426,
              40.007444672079274
            ],
            [
              116.34178697802426,
              40.00778304949728
            ],
            [
              116.34179849856753,
              40.00801922063418
            ]
          ]
        ]
      }
    },
    {
      "type": "Feature",
      "id": "LU-011",
      "properties": {
        "id": "LU-011",
        "layer": "LAND_USE",
        "source_type": "agent_generated_design",
        "confidence": "medium",
        "geometry_role": "design_proposal",
        "crs_note": "EPSG:4326 storage",
        "equal_area_projection": "EPSG:4548",
        "official_boundary": false,
        "boundary_precision": "provisional_concept",
        "land_use_code": "0802",
        "name_zh": "科研创新单元",
        "block_id": "B011",
        "area_sqm_declared": 135948.756
      },
      "geometry": {
        "type": "Polygon",
        "coordinates": [
          [
            [
              116.34210143130831,
              40.01422934182039
            ],
            [
              116.34221501445481,
              40.01655779632362
            ],
            [
              116.34239961780875,
              40.020342165079384
            ],
            [
              116.3427,
              40.0265
            ],
            [
              116.34356943921988,
              40.0265
            ],
            [
              116.34356943921988,
              40.020342165079384
            ],
            [
              116.34356943921988,
              40.01422934182039
            ],
            [
              116.34210143130831,
              40.01422934182039
            ]
          ]
        ]
      }
    },
    {
      "type": "Feature",
      "id": "LU-012",
      "properties": {
        "id": "LU-012",
        "layer": "LAND_USE",
        "source_type": "agent_generated_design",
        "confidence": "medium",
        "geometry_role": "design_proposal",
        "crs_note": "EPSG:4326 storage",
        "equal_area_projection": "EPSG:4548",
        "official_boundary": false,
        "boundary_precision": "provisional_concept",
        "land_use_code": "05",
        "name_zh": "产业服务单元",
        "block_id": "B012",
        "area_sqm_declared": 132215.289
      },
      "geometry": {
        "type": "Polygon",
        "coordinates": [
          [
            [
              116.34572929895995,
              39.945450245013696
            ],
            [
              116.34572929895995,
              39.939
            ],
            [
              116.34356943921988,
              39.939
            ],
            [
              116.34356943921988,
              39.945450245013696
            ],
            [
              116.34572929895995,
              39.945450245013696
            ]
          ]
        ]
      }
    },
    {
      "type": "Feature",
      "id": "LU-013",
      "properties": {
        "id": "LU-013",
        "layer": "LAND_USE",
        "source_type": "agent_generated_design",
        "confidence": "medium",
        "geometry_role": "design_proposal",
        "crs_note": "EPSG:4326 storage",
        "equal_area_projection": "EPSG:4548",
        "official_boundary": false,
        "boundary_precision": "provisional_concept",
        "land_use_code": "0803",
        "name_zh": "文化展示单元",
        "block_id": "B013",
        "area_sqm_declared": 118659.735
      },
      "geometry": {
        "type": "Polygon",
        "coordinates": [
          [
            [
              116.34356943921988,
              39.95123967954287
            ],
            [
              116.34572929895995,
              39.95123967954287
            ],
            [
              116.34572929895995,
              39.945450245013696
            ],
            [
              116.34356943921988,
              39.945450245013696
            ],
            [
              116.34356943921988,
              39.95123967954287
            ]
          ]
        ]
      }
    },
    {
      "type": "Feature",
      "id": "LU-014",
      "properties": {
        "id": "LU-014",
        "layer": "LAND_USE",
        "source_type": "agent_generated_design",
        "confidence": "medium",
        "geometry_role": "design_proposal",
        "crs_note": "EPSG:4326 storage",
        "equal_area_projection": "EPSG:4548",
        "official_boundary": false,
        "boundary_precision": "provisional_concept",
        "land_use_code": "05",
        "name_zh": "产业服务单元",
        "block_id": "B014",
        "area_sqm_declared": 132711.416
      },
      "geometry": {
        "type": "Polygon",
        "coordinates": [
          [
            [
              116.34356943921988,
              39.95771527015653
            ],
            [
              116.34572929895995,
              39.95771527015653
            ],
            [
              116.34572929895995,
              39.95123967954287
            ],
            [
              116.34356943921988,
              39.95123967954287
            ],
            [
              116.34356943921988,
              39.95771527015653
            ]
          ]
        ]
      }
    },
    {
      "type": "Feature",
      "id": "LU-015",
      "properties": {
        "id": "LU-015",
        "layer": "LAND_USE",
        "source_type": "agent_generated_design",
        "confidence": "medium",
        "geometry_role": "design_proposal",
        "crs_note": "EPSG:4326 storage",
        "equal_area_projection": "EPSG:4548",
        "official_boundary": false,
        "boundary_precision": "provisional_concept",
        "land_use_code": "0802",
        "name_zh": "科研创新单元",
        "block_id": "B015",
        "area_sqm_declared": 262973.798
      },
      "geometry": {
        "type": "Polygon",
        "coordinates": [
          [
            [
              116.34356943921988,
              39.970548735492194
            ],
            [
              116.34572929895995,
              39.970548735492194
            ],
            [
              116.34572929895995,
              39.96390955861696
            ],
            [
              116.34572929895995,
              39.95771527015653
            ],
            [
              116.34356943921988,
              39.95771527015653
            ],
            [
              116.34356943921988,
              39.96390955861696
            ],
            [
              116.34356943921988,
              39.970548735492194
            ]
          ]
        ]
      }
    },
    {
      "type": "Feature",
      "id": "LU-016",
      "properties": {
        "id": "LU-016",
        "layer": "LAND_USE",
        "source_type": "agent_generated_design",
        "confidence": "medium",
        "geometry_role": "design_proposal",
        "crs_note": "EPSG:4326 storage",
        "equal_area_projection": "EPSG:4548",
        "official_boundary": false,
        "boundary_precision": "provisional_concept",
        "land_use_code": "0802",
        "name_zh": "科研创新单元",
        "block_id": "B016",
        "area_sqm_declared": 254602.549
      },
      "geometry": {
        "type": "Polygon",
        "coordinates": [
          [
            [
              116.34356943921988,
              39.98297593312928
            ],
            [
              116.34572929895995,
              39.98297593312928
            ],
            [
              116.34572929895995,
              39.976600705584055
            ],
            [
              116.34572929895995,
              39.970548735492194
            ],
            [
              116.34356943921988,
              39.970548735492194
            ],
            [
              116.34356943921988,
              39.976600705584055
            ],
            [
              116.34356943921988,
              39.98297593312928
            ]
          ]
        ]
      }
    },
    {
      "type": "Feature",
      "id": "LU-017",
      "properties": {
        "id": "LU-017",
        "layer": "LAND_USE",
        "source_type": "agent_generated_design",
        "confidence": "medium",
        "geometry_role": "design_proposal",
        "crs_note": "EPSG:4326 storage",
        "equal_area_projection": "EPSG:4548",
        "official_boundary": false,
        "boundary_precision": "provisional_concept",
        "land_use_code": "0804",
        "name_zh": "教育转化单元",
        "block_id": "B017",
        "area_sqm_declared": 247509.829
      },
      "geometry": {
        "type": "Polygon",
        "coordinates": [
          [
            [
              116.34356943921988,
              39.995059067105245
            ],
            [
              116.34572929895995,
              39.995059067105245
            ],
            [
              116.34572929895995,
              39.98896038993917
            ],
            [
              116.34572929895995,
              39.98297593312928
            ],
            [
              116.34356943921988,
              39.98297593312928
            ],
            [
              116.34356943921988,
              39.98896038993917
            ],
            [
              116.34356943921988,
              39.995059067105245
            ]
          ]
        ]
      }
    },
    {
      "type": "Feature",
      "id": "LU-018",
      "properties": {
        "id": "LU-018",
        "layer": "LAND_USE",
        "source_type": "agent_generated_design",
        "confidence": "medium",
        "geometry_role": "design_proposal",
        "crs_note": "EPSG:4326 storage",
        "equal_area_projection": "EPSG:4548",
        "official_boundary": false,
        "boundary_precision": "provisional_concept",
        "land_use_code": "1403",
        "name_zh": "广场节点",
        "block_id": "B018",
        "area_sqm_declared": 138932.855
      },
      "geometry": {
        "type": "Polygon",
        "coordinates": [
          [
            [
              116.34356943921988,
              40.01422934182039
            ],
            [
              116.34572929895995,
              40.01422934182039
            ],
            [
              116.34572929895995,
              40.007444672079274
            ],
            [
              116.34356943921988,
              40.007444672079274
            ],
            [
              116.34356943921988,
              40.01422934182039
            ]
          ]
        ]
      }
    },
    {
      "type": "Feature",
      "id": "LU-019",
      "properties": {
        "id": "LU-019",
        "layer": "LAND_USE",
        "source_type": "agent_generated_design",
        "confidence": "medium",
        "geometry_role": "design_proposal",
        "crs_note": "EPSG:4326 storage",
        "equal_area_projection": "EPSG:4548",
        "official_boundary": false,
        "boundary_precision": "provisional_concept",
        "land_use_code": "05",
        "name_zh": "产业服务单元",
        "block_id": "B019",
        "area_sqm_declared": 125163.498
      },
      "geometry": {
        "type": "Polygon",
        "coordinates": [
          [
            [
              116.34356943921988,
              40.020342165079384
            ],
            [
              116.34572929895995,
              40.020342165079384
            ],
            [
              116.34572929895995,
              40.01422934182039
            ],
            [
              116.34356943921988,
              40.01422934182039
            ],
            [
              116.34356943921988,
              40.020342165079384
            ]
          ]
        ]
      }
    },
    {
      "type": "Feature",
      "id": "LU-020",
      "properties": {
        "id": "LU-020",
        "layer": "LAND_USE",
        "source_type": "agent_generated_design",
        "confidence": "medium",
        "geometry_role": "design_proposal",
        "crs_note": "EPSG:4326 storage",
        "equal_area_projection": "EPSG:4548",
        "official_boundary": false,
        "boundary_precision": "provisional_concept",
        "land_use_code": "1403",
        "name_zh": "广场节点",
        "block_id": "B020",
        "area_sqm_declared": 126073.977
      },
      "geometry": {
        "type": "Polygon",
        "coordinates": [
          [
            [
              116.34356943921988,
              40.020342165079384
            ],
            [
              116.34356943921988,
              40.0265
            ],
            [
              116.34572929895995,
              40.0265
            ],
            [
              116.34572929895995,
              40.020342165079384
            ],
            [
              116.34356943921988,
              40.020342165079384
            ]
          ]
        ]
      }
    },
    {
      "type": "Feature",
      "id": "LU-021",
      "properties": {
        "id": "LU-021",
        "layer": "LAND_USE",
        "source_type": "agent_generated_design",
        "confidence": "medium",
        "geometry_role": "design_proposal",
        "crs_note": "EPSG:4326 storage",
        "equal_area_projection": "EPSG:4548",
        "official_boundary": false,
        "boundary_precision": "provisional_concept",
        "land_use_code": "1401",
        "name_zh": "开源绿脊公园",
        "block_id": "B021",
        "area_sqm_declared": 215340.499
      },
      "geometry": {
        "type": "Polygon",
        "coordinates": [
          [
            [
              116.34924708867393,
              39.945450245013696
            ],
            [
              116.34924708867393,
              39.939
            ],
            [
              116.34759868401453,
              39.939
            ],
            [
              116.34572929895995,
              39.939
            ],
            [
              116.34572929895995,
              39.945450245013696
            ],
            [
              116.34759868401453,
              39.945450245013696
            ],
            [
              116.34924708867393,
              39.945450245013696
            ]
          ]
        ]
      }
    },
    {
      "type": "Feature",
      "id": "LU-022",
      "properties": {
        "id": "LU-022",
        "layer": "LAND_USE",
        "source_type": "agent_generated_design",
        "confidence": "medium",
        "geometry_role": "design_proposal",
        "crs_note": "EPSG:4326 storage",
        "equal_area_projection": "EPSG:4548",
        "official_boundary": false,
        "boundary_precision": "provisional_concept",
        "land_use_code": "1403",
        "name_zh": "广场节点",
        "block_id": "B022",
        "area_sqm_declared": 193262.418
      },
      "geometry": {
        "type": "Polygon",
        "coordinates": [
          [
            [
              116.34759868401453,
              39.95123967954287
            ],
            [
              116.34924708867393,
              39.95123967954287
            ],
            [
              116.34924708867393,
              39.945450245013696
            ],
            [
              116.34759868401453,
              39.945450245013696
            ],
            [
              116.34572929895995,
              39.945450245013696
            ],
            [
              116.34572929895995,
              39.95123967954287
            ],
            [
              116.34759868401453,
              39.95123967954287
            ]
          ]
        ]
      }
    },
    {
      "type": "Feature",
      "id": "LU-023",
      "properties": {
        "id": "LU-023",
        "layer": "LAND_USE",
        "source_type": "agent_generated_design",
        "confidence": "medium",
        "geometry_role": "design_proposal",
        "crs_note": "EPSG:4326 storage",
        "equal_area_projection": "EPSG:4548",
        "official_boundary": false,
        "boundary_precision": "provisional_concept",
        "land_use_code": "1401",
        "name_zh": "开源绿脊公园",
        "block_id": "B023",
        "area_sqm_declared": 422888.662
      },
      "geometry": {
        "type": "Polygon",
        "coordinates": [
          [
            [
              116.34924708867393,
              39.96390955861696
            ],
            [
              116.34924708867393,
              39.95771527015653
            ],
            [
              116.34924708867393,
              39.95123967954287
            ],
            [
              116.34759868401453,
              39.95123967954287
            ],
            [
              116.34572929895995,
              39.95123967954287
            ],
            [
              116.34572929895995,
              39.95771527015653
            ],
            [
              116.34572929895995,
              39.96390955861696
            ],
            [
              116.34759868401453,
              39.96390955861696
            ],
            [
              116.34924708867393,
              39.96390955861696
            ]
          ]
        ]
      }
    },
    {
      "type": "Feature",
      "id": "LU-024",
      "properties": {
        "id": "LU-024",
        "layer": "LAND_USE",
        "source_type": "agent_generated_design",
        "confidence": "medium",
        "geometry_role": "design_proposal",
        "crs_note": "EPSG:4326 storage",
        "equal_area_projection": "EPSG:4548",
        "official_boundary": false,
        "boundary_precision": "provisional_concept",
        "land_use_code": "1401",
        "name_zh": "开源绿脊公园",
        "block_id": "B024",
        "area_sqm_declared": 423521.2
      },
      "geometry": {
        "type": "Polygon",
        "coordinates": [
          [
            [
              116.34924708867393,
              39.976600705584055
            ],
            [
              116.34924708867393,
              39.970548735492194
            ],
            [
              116.34924708867393,
              39.96390955861696
            ],
            [
              116.34759868401453,
              39.96390955861696
            ],
            [
              116.34572929895995,
              39.96390955861696
            ],
            [
              116.34572929895995,
              39.970548735492194
            ],
            [
              116.34572929895995,
              39.976600705584055
            ],
            [
              116.34759868401453,
              39.976600705584055
            ],
            [
              116.34924708867393,
              39.976600705584055
            ]
          ]
        ]
      }
    },
    {
      "type": "Feature",
      "id": "LU-025",
      "properties": {
        "id": "LU-025",
        "layer": "LAND_USE",
        "source_type": "agent_generated_design",
        "confidence": "medium",
        "geometry_role": "design_proposal",
        "crs_note": "EPSG:4326 storage",
        "equal_area_projection": "EPSG:4548",
        "official_boundary": false,
        "boundary_precision": "provisional_concept",
        "land_use_code": "1401",
        "name_zh": "开源绿脊公园",
        "block_id": "B025",
        "area_sqm_declared": 412385.423
      },
      "geometry": {
        "type": "Polygon",
        "coordinates": [
          [
            [
              116.34924708867393,
              39.98896038993917
            ],
            [
              116.34924708867393,
              39.98297593312928
            ],
            [
              116.34924708867393,
              39.976600705584055
            ],
            [
              116.34759868401453,
              39.976600705584055
            ],
            [
              116.34572929895995,
              39.976600705584055
            ],
            [
              116.34572929895995,
              39.98297593312928
            ],
            [
              116.34572929895995,
              39.98896038993917
            ],
            [
              116.34759868401453,
              39.98896038993917
            ],
            [
              116.34924708867393,
              39.98896038993917
            ]
          ]
        ]
      }
    },
    {
      "type": "Feature",
      "id": "LU-026",
      "properties": {
        "id": "LU-026",
        "layer": "LAND_USE",
        "source_type": "agent_generated_design",
        "confidence": "medium",
        "geometry_role": "design_proposal",
        "crs_note": "EPSG:4326 storage",
        "equal_area_projection": "EPSG:4548",
        "official_boundary": false,
        "boundary_precision": "provisional_concept",
        "land_use_code": "1401",
        "name_zh": "开源绿脊公园",
        "block_id": "B026",
        "area_sqm_declared": 419588.179
      },
      "geometry": {
        "type": "Polygon",
        "coordinates": [
          [
            [
              116.34924708867393,
              40.00153820935091
            ],
            [
              116.34924708867393,
              39.995059067105245
            ],
            [
              116.34924708867393,
              39.98896038993917
            ],
            [
              116.34759868401453,
              39.98896038993917
            ],
            [
              116.34572929895995,
              39.98896038993917
            ],
            [
              116.34572929895995,
              39.995059067105245
            ],
            [
              116.34572929895995,
              40.00153820935091
            ],
            [
              116.34759868401453,
              40.00153820935091
            ],
            [
              116.34924708867393,
              40.00153820935091
            ]
          ]
        ]
      }
    },
    {
      "type": "Feature",
      "id": "LU-027",
      "properties": {
        "id": "LU-027",
        "layer": "LAND_USE",
        "source_type": "agent_generated_design",
        "confidence": "medium",
        "geometry_role": "design_proposal",
        "crs_note": "EPSG:4326 storage",
        "equal_area_projection": "EPSG:4548",
        "official_boundary": false,
        "boundary_precision": "provisional_concept",
        "land_use_code": "1401",
        "name_zh": "开源绿脊公园",
        "block_id": "B027",
        "area_sqm_declared": 423291.119
      },
      "geometry": {
        "type": "Polygon",
        "coordinates": [
          [
            [
              116.34924708867393,
              40.01422934182039
            ],
            [
              116.34924708867393,
              40.007444672079274
            ],
            [
              116.34924708867393,
              40.00153820935091
            ],
            [
              116.34759868401453,
              40.00153820935091
            ],
            [
              116.34572929895995,
              40.00153820935091
            ],
            [
              116.34572929895995,
              40.007444672079274
            ],
            [
              116.34572929895995,
              40.01422934182039
            ],
            [
              116.34759868401453,
              40.01422934182039
            ],
            [
              116.34924708867393,
              40.01422934182039
            ]
          ]
        ]
      }
    },
    {
      "type": "Feature",
      "id": "LU-028",
      "properties": {
        "id": "LU-028",
        "layer": "LAND_USE",
        "source_type": "agent_generated_design",
        "confidence": "medium",
        "geometry_role": "design_proposal",
        "crs_note": "EPSG:4326 storage",
        "equal_area_projection": "EPSG:4548",
        "official_boundary": false,
        "boundary_precision": "provisional_concept",
        "land_use_code": "1403",
        "name_zh": "广场节点",
        "block_id": "B028",
        "area_sqm_declared": 203855.169
      },
      "geometry": {
        "type": "Polygon",
        "coordinates": [
          [
            [
              116.34759868401453,
              40.020342165079384
            ],
            [
              116.34924708867393,
              40.020342165079384
            ],
            [
              116.34924708867393,
              40.01422934182039
            ],
            [
              116.34759868401453,
              40.01422934182039
            ],
            [
              116.34572929895995,
              40.01422934182039
            ],
            [
              116.34572929895995,
              40.020342165079384
            ],
            [
              116.34759868401453,
              40.020342165079384
            ]
          ]
        ]
      }
    },
    {
      "type": "Feature",
      "id": "LU-029",
      "properties": {
        "id": "LU-029",
        "layer": "LAND_USE",
        "source_type": "agent_generated_design",
        "confidence": "medium",
        "geometry_role": "design_proposal",
        "crs_note": "EPSG:4326 storage",
        "equal_area_projection": "EPSG:4548",
        "official_boundary": false,
        "boundary_precision": "provisional_concept",
        "land_use_code": "1401",
        "name_zh": "开源绿脊公园",
        "block_id": "B029",
        "area_sqm_declared": 205338.076
      },
      "geometry": {
        "type": "Polygon",
        "coordinates": [
          [
            [
              116.34572929895995,
              40.0265
            ],
            [
              116.34759868401453,
              40.0265
            ],
            [
              116.34924708867393,
              40.0265
            ],
            [
              116.34924708867393,
              40.020342165079384
            ],
            [
              116.34759868401453,
              40.020342165079384
            ],
            [
              116.34572929895995,
              40.020342165079384
            ],
            [
              116.34572929895995,
              40.0265
            ]
          ]
        ]
      }
    },
    {
      "type": "Feature",
      "id": "LU-030",
      "properties": {
        "id": "LU-030",
        "layer": "LAND_USE",
        "source_type": "agent_generated_design",
        "confidence": "medium",
        "geometry_role": "design_proposal",
        "crs_note": "EPSG:4326 storage",
        "equal_area_projection": "EPSG:4548",
        "official_boundary": false,
        "boundary_precision": "provisional_concept",
        "land_use_code": "05",
        "name_zh": "产业服务单元",
        "block_id": "B030",
        "area_sqm_declared": 360389.563
      },
      "geometry": {
        "type": "Polygon",
        "coordinates": [
          [
            [
              116.35163781117582,
              39.939
            ],
            [
              116.34924708867393,
              39.939
            ],
            [
              116.34924708867393,
              39.945450245013696
            ],
            [
              116.35163781117582,
              39.945450245013696
            ],
            [
              116.35163781117582,
              39.95123967954287
            ],
            [
              116.353480569851,
              39.95123967954287
            ],
            [
              116.353480569851,
              39.945450245013696
            ],
            [
              116.353480569851,
              39.939
            ],
            [
              116.35163781117582,
              39.939
            ]
          ]
        ]
      }
    },
    {
      "type": "Feature",
      "id": "LU-031",
      "properties": {
        "id": "LU-031",
        "layer": "LAND_USE",
        "source_type": "agent_generated_design",
        "confidence": "medium",
        "geometry_role": "design_proposal",
        "crs_note": "EPSG:4326 storage",
        "equal_area_projection": "EPSG:4548",
        "official_boundary": false,
        "boundary_precision": "provisional_concept",
        "land_use_code": "0702",
        "name_zh": "社区生活单元",
        "block_id": "B031",
        "area_sqm_declared": 131342.84
      },
      "geometry": {
        "type": "Polygon",
        "coordinates": [
          [
            [
              116.34924708867393,
              39.95123967954287
            ],
            [
              116.35163781117582,
              39.95123967954287
            ],
            [
              116.35163781117582,
              39.945450245013696
            ],
            [
              116.34924708867393,
              39.945450245013696
            ],
            [
              116.34924708867393,
              39.95123967954287
            ]
          ]
        ]
      }
    },
    {
      "type": "Feature",
      "id": "LU-032",
      "properties": {
        "id": "LU-032",
        "layer": "LAND_USE",
        "source_type": "agent_generated_design",
        "confidence": "medium",
        "geometry_role": "design_proposal",
        "crs_note": "EPSG:4326 storage",
        "equal_area_projection": "EPSG:4548",
        "official_boundary": false,
        "boundary_precision": "provisional_concept",
        "land_use_code": "05",
        "name_zh": "产业服务单元",
        "block_id": "B032",
        "area_sqm_declared": 260123.556
      },
      "geometry": {
        "type": "Polygon",
        "coordinates": [
          [
            [
              116.35163781117582,
              39.95771527015653
            ],
            [
              116.353480569851,
              39.95771527015653
            ],
            [
              116.353480569851,
              39.95123967954287
            ],
            [
              116.35163781117582,
              39.95123967954287
            ],
            [
              116.34924708867393,
              39.95123967954287
            ],
            [
              116.34924708867393,
              39.95771527015653
            ],
            [
              116.35163781117582,
              39.95771527015653
            ]
          ]
        ]
      }
    },
    {
      "type": "Feature",
      "id": "LU-033",
      "properties": {
        "id": "LU-033",
        "layer": "LAND_USE",
        "source_type": "agent_generated_design",
        "confidence": "medium",
        "geometry_role": "design_proposal",
        "crs_note": "EPSG:4326 storage",
        "equal_area_projection": "EPSG:4548",
        "official_boundary": false,
        "boundary_precision": "provisional_concept",
        "land_use_code": "0803",
        "name_zh": "文化展示单元",
        "block_id": "B033",
        "area_sqm_declared": 515446.838
      },
      "geometry": {
        "type": "Polygon",
        "coordinates": [
          [
            [
              116.353480569851,
              39.970548735492194
            ],
            [
              116.353480569851,
              39.96390955861696
            ],
            [
              116.353480569851,
              39.95771527015653
            ],
            [
              116.35163781117582,
              39.95771527015653
            ],
            [
              116.34924708867393,
              39.95771527015653
            ],
            [
              116.34924708867393,
              39.96390955861696
            ],
            [
              116.34924708867393,
              39.970548735492194
            ],
            [
              116.35163781117582,
              39.970548735492194
            ],
            [
              116.353480569851,
              39.970548735492194
            ]
          ]
        ]
      }
    },
    {
      "type": "Feature",
      "id": "LU-034",
      "properties": {
        "id": "LU-034",
        "layer": "LAND_USE",
        "source_type": "agent_generated_design",
        "confidence": "medium",
        "geometry_role": "design_proposal",
        "crs_note": "EPSG:4326 storage",
        "equal_area_projection": "EPSG:4548",
        "official_boundary": false,
        "boundary_precision": "provisional_concept",
        "land_use_code": "0803",
        "name_zh": "文化展示单元",
        "block_id": "B034",
        "area_sqm_declared": 499038.611
      },
      "geometry": {
        "type": "Polygon",
        "coordinates": [
          [
            [
              116.353480569851,
              39.98297593312928
            ],
            [
              116.353480569851,
              39.976600705584055
            ],
            [
              116.353480569851,
              39.970548735492194
            ],
            [
              116.35163781117582,
              39.970548735492194
            ],
            [
              116.34924708867393,
              39.970548735492194
            ],
            [
              116.34924708867393,
              39.976600705584055
            ],
            [
              116.34924708867393,
              39.98297593312928
            ],
            [
              116.35163781117582,
              39.98297593312928
            ],
            [
              116.353480569851,
              39.98297593312928
            ]
          ]
        ]
      }
    },
    {
      "type": "Feature",
      "id": "LU-035",
      "properties": {
        "id": "LU-035",
        "layer": "LAND_USE",
        "source_type": "agent_generated_design",
        "confidence": "medium",
        "geometry_role": "design_proposal",
        "crs_note": "EPSG:4326 storage",
        "equal_area_projection": "EPSG:4548",
        "official_boundary": false,
        "boundary_precision": "provisional_concept",
        "land_use_code": "0802",
        "name_zh": "科研创新单元",
        "block_id": "B035",
        "area_sqm_declared": 480382.036
      },
      "geometry": {
        "type": "Polygon",
        "coordinates": [
          [
            [
              116.353480569851,
              39.995059067105245
            ],
            [
              116.353480569851,
              39.993295399780706
            ],
            [
              116.3533,
              39.99
            ],
            [
              116.35338316880487,
              39.98896038993917
            ],
            [
              116.353480569851,
              39.987742876862534
            ],
            [
              116.353480569851,
              39.98297593312928
            ],
            [
              116.35163781117582,
              39.98297593312928
            ],
            [
              116.34924708867393,
              39.98297593312928
            ],
            [
              116.34924708867393,
              39.98896038993917
            ],
            [
              116.34924708867393,
              39.995059067105245
            ],
            [
              116.35163781117582,
              39.995059067105245
            ],
            [
              116.353480569851,
              39.995059067105245
            ]
          ]
        ]
      }
    },
    {
      "type": "Feature",
      "id": "LU-036",
      "properties": {
        "id": "LU-036",
        "layer": "LAND_USE",
        "source_type": "agent_generated_design",
        "confidence": "medium",
        "geometry_role": "design_proposal",
        "crs_note": "EPSG:4326 storage",
        "equal_area_projection": "EPSG:4548",
        "official_boundary": false,
        "boundary_precision": "provisional_concept",
        "land_use_code": "0702",
        "name_zh": "社区生活单元",
        "block_id": "B036",
        "area_sqm_declared": 497192.878
      },
      "geometry": {
        "type": "Polygon",
        "coordinates": [
          [
            [
              116.353480569851,
              40.007444672079274
            ],
            [
              116.353480569851,
              40.00153820935091
            ],
            [
              116.353480569851,
              39.995059067105245
            ],
            [
              116.35163781117582,
              39.995059067105245
            ],
            [
              116.34924708867393,
              39.995059067105245
            ],
            [
              116.34924708867393,
              40.00153820935091
            ],
            [
              116.34924708867393,
              40.007444672079274
            ],
            [
              116.35163781117582,
              40.007444672079274
            ],
            [
              116.353480569851,
              40.007444672079274
            ]
          ]
        ]
      }
    },
    {
      "type": "Feature",
      "id": "LU-037",
      "properties": {
        "id": "LU-037",
        "layer": "LAND_USE",
        "source_type": "agent_generated_design",
        "confidence": "medium",
        "geometry_role": "design_proposal",
        "crs_note": "EPSG:4326 storage",
        "equal_area_projection": "EPSG:4548",
        "official_boundary": false,
        "boundary_precision": "provisional_concept",
        "land_use_code": "0802",
        "name_zh": "科研创新单元",
        "block_id": "B037",
        "area_sqm_declared": 272318.008
      },
      "geometry": {
        "type": "Polygon",
        "coordinates": [
          [
            [
              116.35163781117582,
              40.01422934182039
            ],
            [
              116.353480569851,
              40.01422934182039
            ],
            [
              116.353480569851,
              40.007444672079274
            ],
            [
              116.35163781117582,
              40.007444672079274
            ],
            [
              116.34924708867393,
              40.007444672079274
            ],
            [
              116.34924708867393,
              40.01422934182039
            ],
            [
              116.35163781117582,
              40.01422934182039
            ]
          ]
        ]
      }
    },
    {
      "type": "Feature",
      "id": "LU-038",
      "properties": {
        "id": "LU-038",
        "layer": "LAND_USE",
        "source_type": "agent_generated_design",
        "confidence": "medium",
        "geometry_role": "design_proposal",
        "crs_note": "EPSG:4326 storage",
        "equal_area_projection": "EPSG:4548",
        "official_boundary": false,
        "boundary_precision": "provisional_concept",
        "land_use_code": "1403",
        "name_zh": "广场节点",
        "block_id": "B038",
        "area_sqm_declared": 245329.115
      },
      "geometry": {
        "type": "Polygon",
        "coordinates": [
          [
            [
              116.35163781117582,
              40.020342165079384
            ],
            [
              116.353480569851,
              40.020342165079384
            ],
            [
              116.353480569851,
              40.01422934182039
            ],
            [
              116.35163781117582,
              40.01422934182039
            ],
            [
              116.34924708867393,
              40.01422934182039
            ],
            [
              116.34924708867393,
              40.020342165079384
            ],
            [
              116.35163781117582,
              40.020342165079384
            ]
          ]
        ]
      }
    },
    {
      "type": "Feature",
      "id": "LU-039",
      "properties": {
        "id": "LU-039",
        "layer": "LAND_USE",
        "source_type": "agent_generated_design",
        "confidence": "medium",
        "geometry_role": "design_proposal",
        "crs_note": "EPSG:4326 storage",
        "equal_area_projection": "EPSG:4548",
        "official_boundary": false,
        "boundary_precision": "provisional_concept",
        "land_use_code": "0802",
        "name_zh": "科研创新单元",
        "block_id": "B039",
        "area_sqm_declared": 247113.718
      },
      "geometry": {
        "type": "Polygon",
        "coordinates": [
          [
            [
              116.34924708867393,
              40.0265
            ],
            [
              116.35163781117582,
              40.0265
            ],
            [
              116.353480569851,
              40.0265
            ],
            [
              116.353480569851,
              40.020342165079384
            ],
            [
              116.35163781117582,
              40.020342165079384
            ],
            [
              116.34924708867393,
              40.020342165079384
            ],
            [
              116.34924708867393,
              40.0265
            ]
          ]
        ]
      }
    },
    {
      "type": "Feature",
      "id": "LU-040",
      "properties": {
        "id": "LU-040",
        "layer": "LAND_USE",
        "source_type": "agent_generated_design",
        "confidence": "medium",
        "geometry_role": "design_proposal",
        "crs_note": "EPSG:4326 storage",
        "equal_area_projection": "EPSG:4548",
        "official_boundary": false,
        "boundary_precision": "provisional_concept",
        "land_use_code": "05",
        "name_zh": "产业服务单元",
        "block_id": "B040",
        "area_sqm_declared": 211332.492
      },
      "geometry": {
        "type": "Polygon",
        "coordinates": [
          [
            [
              116.353480569851,
              39.945450245013696
            ],
            [
              116.353480569851,
              39.95123967954287
            ],
            [
              116.3553,
              39.95123967954287
            ],
            [
              116.3553,
              39.945450245013696
            ],
            [
              116.3553,
              39.939
            ],
            [
              116.353480569851,
              39.939
            ],
            [
              116.353480569851,
              39.945450245013696
            ]
          ]
        ]
      }
    },
    {
      "type": "Feature",
      "id": "LU-041",
      "properties": {
        "id": "LU-041",
        "layer": "LAND_USE",
        "source_type": "agent_generated_design",
        "confidence": "medium",
        "geometry_role": "design_proposal",
        "crs_note": "EPSG:4326 storage",
        "equal_area_projection": "EPSG:4548",
        "official_boundary": false,
        "boundary_precision": "provisional_concept",
        "land_use_code": "05",
        "name_zh": "产业服务单元",
        "block_id": "B041",
        "area_sqm_declared": 111793.649
      },
      "geometry": {
        "type": "Polygon",
        "coordinates": [
          [
            [
              116.353480569851,
              39.95123967954287
            ],
            [
              116.353480569851,
              39.95771527015653
            ],
            [
              116.3553,
              39.95771527015653
            ],
            [
              116.3553,
              39.95123967954287
            ],
            [
              116.353480569851,
              39.95123967954287
            ]
          ]
        ]
      }
    },
    {
      "type": "Feature",
      "id": "LU-042",
      "properties": {
        "id": "LU-042",
        "layer": "LAND_USE",
        "source_type": "agent_generated_design",
        "confidence": "medium",
        "geometry_role": "design_proposal",
        "crs_note": "EPSG:4326 storage",
        "equal_area_projection": "EPSG:4548",
        "official_boundary": false,
        "boundary_precision": "provisional_concept",
        "land_use_code": "0803",
        "name_zh": "文化展示单元",
        "block_id": "B042",
        "area_sqm_declared": 209841.364
      },
      "geometry": {
        "type": "Polygon",
        "coordinates": [
          [
            [
              116.353480569851,
              39.96390955861696
            ],
            [
              116.353480569851,
              39.970548735492194
            ],
            [
              116.35485610116062,
              39.970548735492194
            ],
            [
              116.3553,
              39.965
            ],
            [
              116.3553,
              39.96390955861696
            ],
            [
              116.3553,
              39.95771527015653
            ],
            [
              116.353480569851,
              39.95771527015653
            ],
            [
              116.353480569851,
              39.96390955861696
            ]
          ]
        ]
      }
    },
    {
      "type": "Feature",
      "id": "LU-043",
      "properties": {
        "id": "LU-043",
        "layer": "LAND_USE",
        "source_type": "agent_generated_design",
        "confidence": "medium",
        "geometry_role": "design_proposal",
        "crs_note": "EPSG:4326 storage",
        "equal_area_projection": "EPSG:4548",
        "official_boundary": false,
        "boundary_precision": "provisional_concept",
        "land_use_code": "0803",
        "name_zh": "文化展示单元",
        "block_id": "B043",
        "area_sqm_declared": 103552.267
      },
      "geometry": {
        "type": "Polygon",
        "coordinates": [
          [
            [
              116.353480569851,
              39.98297593312928
            ],
            [
              116.35386192534966,
              39.98297593312928
            ],
            [
              116.35402663520927,
              39.9809170598842
            ],
            [
              116.35437194355328,
              39.976600705584055
            ],
            [
              116.35485610116062,
              39.970548735492194
            ],
            [
              116.353480569851,
              39.970548735492194
            ],
            [
              116.353480569851,
              39.976600705584055
            ],
            [
              116.353480569851,
              39.98297593312928
            ]
          ]
        ]
      }
    },
    {
      "type": "Feature",
      "id": "LU-044",
      "properties": {
        "id": "LU-044",
        "layer": "LAND_USE",
        "source_type": "agent_generated_design",
        "confidence": "medium",
        "geometry_role": "design_proposal",
        "crs_note": "EPSG:4326 storage",
        "equal_area_projection": "EPSG:4548",
        "official_boundary": false,
        "boundary_precision": "provisional_concept",
        "land_use_code": "0702",
        "name_zh": "社区生活单元",
        "block_id": "B044",
        "area_sqm_declared": 8621.071
      },
      "geometry": {
        "type": "Polygon",
        "coordinates": [
          [
            [
              116.353480569851,
              39.987742876862534
            ],
            [
              116.35352250750601,
              39.98721865617484
            ],
            [
              116.35386192534966,
              39.98297593312928
            ],
            [
              116.353480569851,
              39.98297593312928
            ],
            [
              116.353480569851,
              39.987742876862534
            ]
          ]
        ]
      }
    },
    {
      "type": "Feature",
      "id": "LU-045",
      "properties": {
        "id": "LU-045",
        "layer": "LAND_USE",
        "source_type": "agent_generated_design",
        "confidence": "medium",
        "geometry_role": "design_proposal",
        "crs_note": "EPSG:4326 storage",
        "equal_area_projection": "EPSG:4548",
        "official_boundary": false,
        "boundary_precision": "provisional_concept",
        "land_use_code": "0702",
        "name_zh": "社区生活单元",
        "block_id": "B045",
        "area_sqm_declared": 808.144
      },
      "geometry": {
        "type": "Polygon",
        "coordinates": [
          [
            [
              116.35357720915646,
              39.995059067105245
            ],
            [
              116.353480569851,
              39.993295399780706
            ],
            [
              116.353480569851,
              39.995059067105245
            ],
            [
              116.35357720915646,
              39.995059067105245
            ]
          ]
        ]
      }
    },
    {
      "type": "Feature",
      "id": "LU-046",
      "properties": {
        "id": "LU-046",
        "layer": "LAND_USE",
        "source_type": "agent_generated_design",
        "confidence": "medium",
        "geometry_role": "design_proposal",
        "crs_note": "EPSG:4326 storage",
        "equal_area_projection": "EPSG:4548",
        "official_boundary": false,
        "boundary_precision": "provisional_concept",
        "land_use_code": "0702",
        "name_zh": "社区生活单元",
        "block_id": "B046",
        "area_sqm_declared": 16843.055
      },
      "geometry": {
        "type": "Polygon",
        "coordinates": [
          [
            [
              116.353480569851,
              40.00153820935091
            ],
            [
              116.35393223064936,
              40.00153820935091
            ],
            [
              116.35357720915646,
              39.995059067105245
            ],
            [
              116.353480569851,
              39.995059067105245
            ],
            [
              116.353480569851,
              40.00153820935091
            ]
          ]
        ]
      }
    },
    {
      "type": "Feature",
      "id": "LU-047",
      "properties": {
        "id": "LU-047",
        "layer": "LAND_USE",
        "source_type": "agent_generated_design",
        "confidence": "medium",
        "geometry_role": "design_proposal",
        "crs_note": "EPSG:4326 storage",
        "equal_area_projection": "EPSG:4548",
        "official_boundary": false,
        "boundary_precision": "provisional_concept",
        "land_use_code": "0702",
        "name_zh": "社区生活单元",
        "block_id": "B047",
        "area_sqm_declared": 34357.05
      },
      "geometry": {
        "type": "Polygon",
        "coordinates": [
          [
            [
              116.353480569851,
              40.007444672079274
            ],
            [
              116.3542558724427,
              40.007444672079274
            ],
            [
              116.35409649874167,
              40.00453610203542
            ],
            [
              116.35393223064936,
              40.00153820935091
            ],
            [
              116.353480569851,
              40.00153820935091
            ],
            [
              116.353480569851,
              40.007444672079274
            ]
          ]
        ]
      }
    },
    {
      "type": "Feature",
      "id": "LU-048",
      "properties": {
        "id": "LU-048",
        "layer": "LAND_USE",
        "source_type": "agent_generated_design",
        "confidence": "medium",
        "geometry_role": "design_proposal",
        "crs_note": "EPSG:4326 storage",
        "equal_area_projection": "EPSG:4548",
        "official_boundary": false,
        "boundary_precision": "provisional_concept",
        "land_use_code": "1403",
        "name_zh": "广场节点",
        "block_id": "B048",
        "area_sqm_declared": 61827.384
      },
      "geometry": {
        "type": "Polygon",
        "coordinates": [
          [
            [
              116.353480569851,
              40.01422934182039
            ],
            [
              116.35462763516824,
              40.01422934182039
            ],
            [
              116.3542558724427,
              40.007444672079274
            ],
            [
              116.353480569851,
              40.007444672079274
            ],
            [
              116.353480569851,
              40.01422934182039
            ]
          ]
        ]
      }
    },
    {
      "type": "Feature",
      "id": "LU-049",
      "properties": {
        "id": "LU-049",
        "layer": "LAND_USE",
        "source_type": "agent_generated_design",
        "confidence": "medium",
        "geometry_role": "design_proposal",
        "crs_note": "EPSG:4326 storage",
        "equal_area_projection": "EPSG:4548",
        "official_boundary": false,
        "boundary_precision": "provisional_concept",
        "land_use_code": "05",
        "name_zh": "产业服务单元",
        "block_id": "B049",
        "area_sqm_declared": 76176.817
      },
      "geometry": {
        "type": "Polygon",
        "coordinates": [
          [
            [
              116.353480569851,
              40.020342165079384
            ],
            [
              116.3549625843879,
              40.020342165079384
            ],
            [
              116.35464924656893,
              40.014623749882745
            ],
            [
              116.35462763516824,
              40.01422934182039
            ],
            [
              116.353480569851,
              40.01422934182039
            ],
            [
              116.353480569851,
              40.020342165079384
            ]
          ]
        ]
      }
    },
    {
      "type": "Feature",
      "id": "LU-050",
      "properties": {
        "id": "LU-050",
        "layer": "LAND_USE",
        "source_type": "agent_generated_design",
        "confidence": "medium",
        "geometry_role": "design_proposal",
        "crs_note": "EPSG:4326 storage",
        "equal_area_projection": "EPSG:4548",
        "official_boundary": false,
        "boundary_precision": "provisional_concept",
        "land_use_code": "0702",
        "name_zh": "社区生活单元",
        "block_id": "B050",
        "area_sqm_declared": 96354.287
      },
      "geometry": {
        "type": "Polygon",
        "coordinates": [
          [
            [
              116.3549625843879,
              40.020342165079384
            ],
            [
              116.353480569851,
              40.020342165079384
            ],
            [
              116.353480569851,
              40.0265
            ],
            [
              116.3553,
              40.0265
            ],
            [
              116.3549625843879,
              40.020342165079384
            ]
          ]
        ]
      }
    }
  ]
}
