{
  "type": "FeatureCollection",
  "name": "phasing_v2",
  "features": [
    {
      "type": "Feature",
      "id": "PHASE-001",
      "properties": {
        "id": "PHASE-001",
        "layer": "PHASE",
        "source_type": "agent_generated_design",
        "confidence": "medium",
        "geometry_role": "design_proposal",
        "crs_note": "coordinates_EPSG_4326_area_via_EPSG_4548",
        "equal_area_projection": "EPSG:4548",
        "phase": "near_term",
        "name_zh": "近期：接口缝合与试点沙盒",
        "area_sqm_declared": 4731888.396
      },
      "geometry": {
        "type": "Polygon",
        "coordinates": [
          [
            [
              116.3407,
              39.939
            ],
            [
              116.3397764,
              39.97225
            ],
            [
              116.35472,
              39.97225
            ],
            [
              116.3553,
              39.965
            ],
            [
              116.3553,
              39.939
            ],
            [
              116.3407,
              39.939
            ]
          ]
        ]
      }
    },
    {
      "type": "Feature",
      "id": "PHASE-002",
      "properties": {
        "id": "PHASE-002",
        "layer": "PHASE",
        "source_type": "agent_generated_design",
        "confidence": "medium",
        "geometry_role": "design_proposal",
        "crs_note": "coordinates_EPSG_4326_area_via_EPSG_4548",
        "equal_area_projection": "EPSG:4548",
        "phase": "mid_term",
        "name_zh": "中期：转化街与站城连通",
        "area_sqm_declared": 4521356.555
      },
      "geometry": {
        "type": "Polygon",
        "coordinates": [
          [
            [
              116.3533,
              39.99
            ],
            [
              116.35514,
              39.967
            ],
            [
              116.3399222,
              39.967
            ],
            [
              116.3397,
              39.975
            ],
            [
              116.3414419,
              40.002
            ],
            [
              116.3539575,
              40.002
            ],
            [
              116.3533,
              39.99
            ]
          ]
        ]
      }
    },
    {
      "type": "Feature",
      "id": "PHASE-003",
      "properties": {
        "id": "PHASE-003",
        "layer": "PHASE",
        "source_type": "agent_generated_design",
        "confidence": "medium",
        "geometry_role": "design_proposal",
        "crs_note": "coordinates_EPSG_4326_area_via_EPSG_4548",
        "equal_area_projection": "EPSG:4548",
        "phase": "long_term",
        "name_zh": "长期：深层更新单元",
        "area_sqm_declared": 3326616.036
      },
      "geometry": {
        "type": "Polygon",
        "coordinates": [
          [
            [
              116.3537658,
              39.9985
            ],
            [
              116.3412161,
              39.9985
            ],
            [
              116.3417,
              40.006
            ],
            [
              116.3427,
              40.0265
            ],
            [
              116.3553,
              40.0265
            ],
            [
              116.3537658,
              39.9985
            ]
          ]
        ]
      }
    }
  ]
}
