{
  "type": "FeatureCollection",
  "name": "public_space",
  "crs_note": "Coordinates stored as EPSG:4326 lon/lat. Areas recomputed via EPSG:4548.",
  "equal_area_projection": "EPSG:4548",
  "features": [
    {
      "type": "Feature",
      "id": "PUBLIC-001",
      "properties": {
        "id": "PUBLIC-001",
        "layer": "PUBLIC_SPACE",
        "source_type": "agent_generated_design",
        "confidence": "medium",
        "geometry_role": "design_proposal",
        "crs_note": "EPSG:4326 storage",
        "equal_area_projection": "EPSG:4548",
        "official_boundary": false,
        "boundary_precision": "provisional_concept",
        "name_zh": "南门户广场",
        "public_space_type": "gateway_plaza",
        "area_sqm_declared": 99533.614
      },
      "geometry": {
        "type": "Polygon",
        "coordinates": [
          [
            [
              116.34985388467297,
              39.94272687354918
            ],
            [
              116.34971731087802,
              39.942464243194685
            ],
            [
              116.34949552706952,
              39.94222220167377
            ],
            [
              116.34919705627485,
              39.94201005050633
            ],
            [
              116.34883336855924,
              39.941835942542774
            ],
            [
              116.34841844023768,
              39.94170656865448
            ],
            [
              116.34796821677284,
              39.94162690060743
            ],
            [
              116.3475,
              39.9416
            ],
            [
              116.34703178322715,
              39.94162690060743
            ],
            [
              116.34658155976231,
              39.94170656865448
            ],
            [
              116.34616663144075,
              39.941835942542774
            ],
            [
              116.34580294372515,
              39.94201005050633
            ],
            [
              116.34550447293047,
              39.94222220167377
            ],
            [
              116.34528268912197,
              39.942464243194685
            ],
            [
              116.34514611532703,
              39.94272687354918
            ],
            [
              116.3451,
              39.943
            ],
            [
              116.34514611532703,
              39.94327312645082
            ],
            [
              116.34528268912197,
              39.94353575680531
            ],
            [
              116.34550447293047,
              39.943777798326224
            ],
            [
              116.34580294372515,
              39.94398994949366
            ],
            [
              116.34616663144075,
              39.94416405745722
            ],
            [
              116.34658155976231,
              39.944293431345514
            ],
            [
              116.34703178322715,
              39.944373099392564
            ],
            [
              116.3475,
              39.944399999999995
            ],
            [
              116.34796821677284,
              39.944373099392564
            ],
            [
              116.34841844023768,
              39.944293431345514
            ],
            [
              116.34883336855924,
              39.94416405745722
            ],
            [
              116.34919705627485,
              39.94398994949366
            ],
            [
              116.34949552706952,
              39.943777798326224
            ],
            [
              116.34971731087802,
              39.94353575680531
            ],
            [
              116.34985388467297,
              39.94327312645082
            ],
            [
              116.34989999999999,
              39.943
            ],
            [
              116.34985388467297,
              39.94272687354918
            ]
          ]
        ]
      }
    },
    {
      "type": "Feature",
      "id": "PUBLIC-002",
      "properties": {
        "id": "PUBLIC-002",
        "layer": "PUBLIC_SPACE",
        "source_type": "agent_generated_design",
        "confidence": "medium",
        "geometry_role": "design_proposal",
        "crs_note": "EPSG:4326 storage",
        "equal_area_projection": "EPSG:4548",
        "official_boundary": false,
        "boundary_precision": "provisional_concept",
        "name_zh": "协议接口庭-中南",
        "public_space_type": "protocol_court",
        "area_sqm_declared": 71077.023
      },
      "geometry": {
        "type": "Polygon",
        "coordinates": [
          [
            [
              116.3494615705608,
              39.960765891613576
            ],
            [
              116.34934775906503,
              39.96054077988116
            ],
            [
              116.3491629392246,
              39.960333315720376
            ],
            [
              116.34891421356237,
              39.960151471862574
            ],
            [
              116.34861114046603,
              39.960002236465236
            ],
            [
              116.34826536686472,
              39.95989134456099
            ],
            [
              116.34789018064403,
              39.95982305766351
            ],
            [
              116.3475,
              39.9598
            ],
            [
              116.34710981935596,
              39.95982305766351
            ],
            [
              116.34673463313527,
              39.95989134456099
            ],
            [
              116.34638885953396,
              39.960002236465236
            ],
            [
              116.34608578643763,
              39.960151471862574
            ],
            [
              116.3458370607754,
              39.960333315720376
            ],
            [
              116.34565224093497,
              39.96054077988116
            ],
            [
              116.34553842943919,
              39.960765891613576
            ],
            [
              116.3455,
              39.961
            ],
            [
              116.34553842943919,
              39.96123410838642
            ],
            [
              116.34565224093497,
              39.96145922011884
            ],
            [
              116.3458370607754,
              39.96166668427962
            ],
            [
              116.34608578643763,
              39.96184852813742
            ],
            [
              116.34638885953396,
              39.96199776353476
            ],
            [
              116.34673463313527,
              39.96210865543901
            ],
            [
              116.34710981935596,
              39.962176942336484
            ],
            [
              116.3475,
              39.962199999999996
            ],
            [
              116.34789018064403,
              39.962176942336484
            ],
            [
              116.34826536686472,
              39.96210865543901
            ],
            [
              116.34861114046603,
              39.96199776353476
            ],
            [
              116.34891421356237,
              39.96184852813742
            ],
            [
              116.3491629392246,
              39.96166668427962
            ],
            [
              116.34934775906503,
              39.96145922011884
            ],
            [
              116.3494615705608,
              39.96123410838642
            ],
            [
              116.34949999999999,
              39.961
            ],
            [
              116.3494615705608,
              39.960765891613576
            ]
          ]
        ]
      }
    },
    {
      "type": "Feature",
      "id": "PUBLIC-003",
      "properties": {
        "id": "PUBLIC-003",
        "layer": "PUBLIC_SPACE",
        "source_type": "agent_generated_design",
        "confidence": "medium",
        "geometry_role": "design_proposal",
        "crs_note": "EPSG:4326 storage",
        "equal_area_projection": "EPSG:4548",
        "official_boundary": false,
        "boundary_precision": "provisional_concept",
        "name_zh": "开源发布外延",
        "public_space_type": "release_forecourt",
        "area_sqm_declared": 67507.616
      },
      "geometry": {
        "type": "Polygon",
        "coordinates": [
          [
            [
              116.34936349203277,
              39.976765891613574
            ],
            [
              116.34925537111177,
              39.976540779881155
            ],
            [
              116.34907979226337,
              39.976333315720375
            ],
            [
              116.34884350288425,
              39.97615147186257
            ],
            [
              116.34855558344273,
              39.976002236465234
            ],
            [
              116.34822709852149,
              39.975891344560985
            ],
            [
              116.34787067161183,
              39.97582305766351
            ],
            [
              116.3475,
              39.9758
            ],
            [
              116.34712932838816,
              39.97582305766351
            ],
            [
              116.3467729014785,
              39.975891344560985
            ],
            [
              116.34644441655726,
              39.976002236465234
            ],
            [
              116.34615649711574,
              39.97615147186257
            ],
            [
              116.34592020773663,
              39.976333315720375
            ],
            [
              116.34574462888823,
              39.976540779881155
            ],
            [
              116.34563650796723,
              39.976765891613574
            ],
            [
              116.34559999999999,
              39.977
            ],
            [
              116.34563650796723,
              39.97723410838642
            ],
            [
              116.34574462888823,
              39.97745922011884
            ],
            [
              116.34592020773663,
              39.97766668427962
            ],
            [
              116.34615649711574,
              39.97784852813742
            ],
            [
              116.34644441655726,
              39.97799776353476
            ],
            [
              116.3467729014785,
              39.97810865543901
            ],
            [
              116.34712932838816,
              39.97817694233648
            ],
            [
              116.3475,
              39.978199999999994
            ],
            [
              116.34787067161183,
              39.97817694233648
            ],
            [
              116.34822709852149,
              39.97810865543901
            ],
            [
              116.34855558344273,
              39.97799776353476
            ],
            [
              116.34884350288425,
              39.97784852813742
            ],
            [
              116.34907979226337,
              39.97766668427962
            ],
            [
              116.34925537111177,
              39.97745922011884
            ],
            [
              116.34936349203277,
              39.97723410838642
            ],
            [
              116.3494,
              39.977
            ],
            [
              116.34936349203277,
              39.976765891613574
            ]
          ]
        ]
      }
    },
    {
      "type": "Feature",
      "id": "PUBLIC-004",
      "properties": {
        "id": "PUBLIC-004",
        "layer": "PUBLIC_SPACE",
        "source_type": "agent_generated_design",
        "confidence": "medium",
        "geometry_role": "design_proposal",
        "crs_note": "EPSG:4326 storage",
        "equal_area_projection": "EPSG:4548",
        "official_boundary": false,
        "boundary_precision": "provisional_concept",
        "name_zh": "验证庭外延",
        "public_space_type": "verify_forecourt",
        "area_sqm_declared": 67494.0
      },
      "geometry": {
        "type": "Polygon",
        "coordinates": [
          [
            [
              116.34936349203277,
              39.99076589161358
            ],
            [
              116.34925537111177,
              39.99054077988116
            ],
            [
              116.34907979226337,
              39.99033331572038
            ],
            [
              116.34884350288425,
              39.990151471862575
            ],
            [
              116.34855558344273,
              39.99000223646524
            ],
            [
              116.34822709852149,
              39.98989134456099
            ],
            [
              116.34787067161183,
              39.989823057663514
            ],
            [
              116.3475,
              39.9898
            ],
            [
              116.34712932838816,
              39.989823057663514
            ],
            [
              116.3467729014785,
              39.98989134456099
            ],
            [
              116.34644441655726,
              39.99000223646524
            ],
            [
              116.34615649711574,
              39.990151471862575
            ],
            [
              116.34592020773663,
              39.99033331572038
            ],
            [
              116.34574462888823,
              39.99054077988116
            ],
            [
              116.34563650796723,
              39.99076589161358
            ],
            [
              116.34559999999999,
              39.991
            ],
            [
              116.34563650796723,
              39.99123410838642
            ],
            [
              116.34574462888823,
              39.99145922011884
            ],
            [
              116.34592020773663,
              39.99166668427962
            ],
            [
              116.34615649711574,
              39.991848528137425
            ],
            [
              116.34644441655726,
              39.99199776353476
            ],
            [
              116.3467729014785,
              39.99210865543901
            ],
            [
              116.34712932838816,
              39.992176942336485
            ],
            [
              116.3475,
              39.9922
            ],
            [
              116.34787067161183,
              39.992176942336485
            ],
            [
              116.34822709852149,
              39.99210865543901
            ],
            [
              116.34855558344273,
              39.99199776353476
            ],
            [
              116.34884350288425,
              39.991848528137425
            ],
            [
              116.34907979226337,
              39.99166668427962
            ],
            [
              116.34925537111177,
              39.99145922011884
            ],
            [
              116.34936349203277,
              39.99123410838642
            ],
            [
              116.3494,
              39.991
            ],
            [
              116.34936349203277,
              39.99076589161358
            ]
          ]
        ]
      }
    },
    {
      "type": "Feature",
      "id": "PUBLIC-005",
      "properties": {
        "id": "PUBLIC-005",
        "layer": "PUBLIC_SPACE",
        "source_type": "agent_generated_design",
        "confidence": "medium",
        "geometry_role": "design_proposal",
        "crs_note": "EPSG:4326 storage",
        "equal_area_projection": "EPSG:4548",
        "official_boundary": false,
        "boundary_precision": "provisional_concept",
        "name_zh": "科研庭",
        "public_space_type": "research_court",
        "area_sqm_declared": 52117.19
      },
      "geometry": {
        "type": "Polygon",
        "coordinates": [
          [
            [
              116.34556925644864,
              39.968785400645785
            ],
            [
              116.34547820725201,
              39.9685790482244
            ],
            [
              116.34533035137967,
              39.96838887274368
            ],
            [
              116.3451313708499,
              39.96822218254069
            ],
            [
              116.34488891237282,
              39.96808538342647
            ],
            [
              116.34461229349178,
              39.96798373251424
            ],
            [
              116.34431214451521,
              39.967921136191556
            ],
            [
              116.344,
              39.9679
            ],
            [
              116.34368785548477,
              39.967921136191556
            ],
            [
              116.34338770650821,
              39.96798373251424
            ],
            [
              116.34311108762716,
              39.96808538342647
            ],
            [
              116.34286862915009,
              39.96822218254069
            ],
            [
              116.34266964862032,
              39.96838887274368
            ],
            [
              116.34252179274797,
              39.9685790482244
            ],
            [
              116.34243074355135,
              39.968785400645785
            ],
            [
              116.3424,
              39.969
            ],
            [
              116.34243074355135,
              39.96921459935422
            ],
            [
              116.34252179274797,
              39.969420951775604
            ],
            [
              116.34266964862032,
              39.96961112725632
            ],
            [
              116.34286862915009,
              39.96977781745931
            ],
            [
              116.34311108762716,
              39.96991461657353
            ],
            [
              116.34338770650821,
              39.97001626748576
            ],
            [
              116.34368785548477,
              39.970078863808446
            ],
            [
              116.344,
              39.9701
            ],
            [
              116.34431214451521,
              39.970078863808446
            ],
            [
              116.34461229349178,
              39.97001626748576
            ],
            [
              116.34488891237282,
              39.96991461657353
            ],
            [
              116.3451313708499,
              39.96977781745931
            ],
            [
              116.34533035137967,
              39.96961112725632
            ],
            [
              116.34547820725201,
              39.969420951775604
            ],
            [
              116.34556925644864,
              39.96921459935422
            ],
            [
              116.34559999999999,
              39.969
            ],
            [
              116.34556925644864,
              39.968785400645785
            ]
          ]
        ]
      }
    },
    {
      "type": "Feature",
      "id": "PUBLIC-006",
      "properties": {
        "id": "PUBLIC-006",
        "layer": "PUBLIC_SPACE",
        "source_type": "agent_generated_design",
        "confidence": "medium",
        "geometry_role": "design_proposal",
        "crs_note": "EPSG:4326 storage",
        "equal_area_projection": "EPSG:4548",
        "official_boundary": false,
        "boundary_precision": "provisional_concept",
        "name_zh": "产业服务广场",
        "public_space_type": "service_plaza",
        "area_sqm_declared": 52118.605
      },
      "geometry": {
        "type": "Polygon",
        "coordinates": [
          [
            [
              116.35256925644865,
              39.96678540064578
            ],
            [
              116.35247820725202,
              39.966579048224396
            ],
            [
              116.35233035137968,
              39.96638887274368
            ],
            [
              116.3521313708499,
              39.96622218254069
            ],
            [
              116.35188891237283,
              39.96608538342647
            ],
            [
              116.35161229349178,
              39.96598373251424
            ],
            [
              116.35131214451522,
              39.965921136191554
            ],
            [
              116.351,
              39.9659
            ],
            [
              116.35068785548478,
              39.965921136191554
            ],
            [
              116.35038770650822,
              39.96598373251424
            ],
            [
              116.35011108762717,
              39.96608538342647
            ],
            [
              116.3498686291501,
              39.96622218254069
            ],
            [
              116.34966964862032,
              39.96638887274368
            ],
            [
              116.34952179274798,
              39.966579048224396
            ],
            [
              116.34943074355135,
              39.96678540064578
            ],
            [
              116.3494,
              39.967
            ],
            [
              116.34943074355135,
              39.967214599354214
            ],
            [
              116.34952179274798,
              39.9674209517756
            ],
            [
              116.34966964862032,
              39.96761112725632
            ],
            [
              116.3498686291501,
              39.96777781745931
            ],
            [
              116.35011108762717,
              39.96791461657353
            ],
            [
              116.35038770650822,
              39.96801626748576
            ],
            [
              116.35068785548478,
              39.968078863808444
            ],
            [
              116.351,
              39.9681
            ],
            [
              116.35131214451522,
              39.968078863808444
            ],
            [
              116.35161229349178,
              39.96801626748576
            ],
            [
              116.35188891237283,
              39.96791461657353
            ],
            [
              116.3521313708499,
              39.96777781745931
            ],
            [
              116.35233035137968,
              39.96761112725632
            ],
            [
              116.35247820725202,
              39.9674209517756
            ],
            [
              116.35256925644865,
              39.967214599354214
            ],
            [
              116.3526,
              39.967
            ],
            [
              116.35256925644865,
              39.96678540064578
            ]
          ]
        ]
      }
    },
    {
      "type": "Feature",
      "id": "PUBLIC-007",
      "properties": {
        "id": "PUBLIC-007",
        "layer": "PUBLIC_SPACE",
        "source_type": "agent_generated_design",
        "confidence": "medium",
        "geometry_role": "design_proposal",
        "crs_note": "EPSG:4326 storage",
        "equal_area_projection": "EPSG:4548",
        "official_boundary": false,
        "boundary_precision": "provisional_concept",
        "name_zh": "路演前场",
        "public_space_type": "pitch_forecourt",
        "area_sqm_declared": 63978.484
      },
      "geometry": {
        "type": "Polygon",
        "coordinates": [
          [
            [
              116.35226541350472,
              39.95076589161358
            ],
            [
              116.35216298315852,
              39.95054077988116
            ],
            [
              116.35199664530214,
              39.95033331572038
            ],
            [
              116.35177279220613,
              39.950151471862576
            ],
            [
              116.35150002641943,
              39.95000223646524
            ],
            [
              116.35118883017826,
              39.94989134456099
            ],
            [
              116.35085116257963,
              39.949823057663515
            ],
            [
              116.3505,
              39.9498
            ],
            [
              116.35014883742036,
              39.949823057663515
            ],
            [
              116.34981116982173,
              39.94989134456099
            ],
            [
              116.34949997358056,
              39.95000223646524
            ],
            [
              116.34922720779386,
              39.950151471862576
            ],
            [
              116.34900335469786,
              39.95033331572038
            ],
            [
              116.34883701684147,
              39.95054077988116
            ],
            [
              116.34873458649527,
              39.95076589161358
            ],
            [
              116.3487,
              39.951
            ],
            [
              116.34873458649527,
              39.95123410838642
            ],
            [
              116.34883701684147,
              39.95145922011884
            ],
            [
              116.34900335469786,
              39.95166668427962
            ],
            [
              116.34922720779386,
              39.951848528137425
            ],
            [
              116.34949997358056,
              39.95199776353476
            ],
            [
              116.34981116982173,
              39.95210865543901
            ],
            [
              116.35014883742036,
              39.952176942336486
            ],
            [
              116.3505,
              39.9522
            ],
            [
              116.35085116257963,
              39.952176942336486
            ],
            [
              116.35118883017826,
              39.95210865543901
            ],
            [
              116.35150002641943,
              39.95199776353476
            ],
            [
              116.35177279220613,
              39.951848528137425
            ],
            [
              116.35199664530214,
              39.95166668427962
            ],
            [
              116.35216298315852,
              39.95145922011884
            ],
            [
              116.35226541350472,
              39.95123410838642
            ],
            [
              116.3523,
              39.951
            ],
            [
              116.35226541350472,
              39.95076589161358
            ]
          ]
        ]
      }
    },
    {
      "type": "Feature",
      "id": "PUBLIC-008",
      "properties": {
        "id": "PUBLIC-008",
        "layer": "PUBLIC_SPACE",
        "source_type": "agent_generated_design",
        "confidence": "medium",
        "geometry_role": "design_proposal",
        "crs_note": "EPSG:4326 storage",
        "equal_area_projection": "EPSG:4548",
        "official_boundary": false,
        "boundary_precision": "provisional_concept",
        "name_zh": "数据会客前场",
        "public_space_type": "data_parlor_court",
        "area_sqm_declared": 44425.672
      },
      "geometry": {
        "type": "Polygon",
        "coordinates": [
          [
            [
              116.3514711779206,
              39.956804909677984
            ],
            [
              116.35138581929876,
              39.95661731656764
            ],
            [
              116.35124720441844,
              39.95644442976698
            ],
            [
              116.35106066017177,
              39.956292893218816
            ],
            [
              116.35083335534952,
              39.9561685303877
            ],
            [
              116.35057402514855,
              39.956076120467486
            ],
            [
              116.35029263548302,
              39.956019214719596
            ],
            [
              116.35,
              39.956
            ],
            [
              116.34970736451697,
              39.956019214719596
            ],
            [
              116.34942597485144,
              39.956076120467486
            ],
            [
              116.34916664465047,
              39.9561685303877
            ],
            [
              116.34893933982822,
              39.956292893218816
            ],
            [
              116.34875279558155,
              39.95644442976698
            ],
            [
              116.34861418070123,
              39.95661731656764
            ],
            [
              116.34852882207939,
              39.956804909677984
            ],
            [
              116.3485,
              39.957
            ],
            [
              116.34852882207939,
              39.95719509032202
            ],
            [
              116.34861418070123,
              39.957382683432364
            ],
            [
              116.34875279558155,
              39.95755557023302
            ],
            [
              116.34893933982822,
              39.957707106781186
            ],
            [
              116.34916664465047,
              39.9578314696123
            ],
            [
              116.34942597485144,
              39.957923879532515
            ],
            [
              116.34970736451697,
              39.957980785280405
            ],
            [
              116.35,
              39.958
            ],
            [
              116.35029263548302,
              39.957980785280405
            ],
            [
              116.35057402514855,
              39.957923879532515
            ],
            [
              116.35083335534952,
              39.9578314696123
            ],
            [
              116.35106066017177,
              39.957707106781186
            ],
            [
              116.35124720441844,
              39.95755557023302
            ],
            [
              116.35138581929876,
              39.957382683432364
            ],
            [
              116.3514711779206,
              39.95719509032202
            ],
            [
              116.35149999999999,
              39.957
            ],
            [
              116.3514711779206,
              39.956804909677984
            ]
          ]
        ]
      }
    },
    {
      "type": "Feature",
      "id": "PUBLIC-009",
      "properties": {
        "id": "PUBLIC-009",
        "layer": "PUBLIC_SPACE",
        "source_type": "agent_generated_design",
        "confidence": "medium",
        "geometry_role": "design_proposal",
        "crs_note": "EPSG:4326 storage",
        "equal_area_projection": "EPSG:4548",
        "official_boundary": false,
        "boundary_precision": "provisional_concept",
        "name_zh": "近校转化街口",
        "public_space_type": "transfer_mouth",
        "area_sqm_declared": 52108.091
      },
      "geometry": {
        "type": "Polygon",
        "coordinates": [
          [
            [
              116.35306925644865,
              39.980785400645786
            ],
            [
              116.35297820725202,
              39.9805790482244
            ],
            [
              116.35283035137968,
              39.98038887274368
            ],
            [
              116.3526313708499,
              39.98022218254069
            ],
            [
              116.35238891237283,
              39.98008538342647
            ],
            [
              116.35211229349179,
              39.97998373251424
            ],
            [
              116.35181214451522,
              39.97992113619156
            ],
            [
              116.3515,
              39.9799
            ],
            [
              116.35118785548478,
              39.97992113619156
            ],
            [
              116.35088770650822,
              39.97998373251424
            ],
            [
              116.35061108762717,
              39.98008538342647
            ],
            [
              116.3503686291501,
              39.98022218254069
            ],
            [
              116.35016964862032,
              39.98038887274368
            ],
            [
              116.35002179274798,
              39.9805790482244
            ],
            [
              116.34993074355135,
              39.980785400645786
            ],
            [
              116.3499,
              39.981
            ],
            [
              116.34993074355135,
              39.98121459935422
            ],
            [
              116.35002179274798,
              39.981420951775604
            ],
            [
              116.35016964862032,
              39.98161112725632
            ],
            [
              116.3503686291501,
              39.98177781745931
            ],
            [
              116.35061108762717,
              39.98191461657353
            ],
            [
              116.35088770650822,
              39.98201626748576
            ],
            [
              116.35118785548478,
              39.98207886380845
            ],
            [
              116.3515,
              39.9821
            ],
            [
              116.35181214451522,
              39.98207886380845
            ],
            [
              116.35211229349179,
              39.98201626748576
            ],
            [
              116.35238891237283,
              39.98191461657353
            ],
            [
              116.3526313708499,
              39.98177781745931
            ],
            [
              116.35283035137968,
              39.98161112725632
            ],
            [
              116.35297820725202,
              39.981420951775604
            ],
            [
              116.35306925644865,
              39.98121459935422
            ],
            [
              116.3531,
              39.981
            ],
            [
              116.35306925644865,
              39.980785400645786
            ]
          ]
        ]
      }
    },
    {
      "type": "Feature",
      "id": "PUBLIC-010",
      "properties": {
        "id": "PUBLIC-010",
        "layer": "PUBLIC_SPACE",
        "source_type": "agent_generated_design",
        "confidence": "medium",
        "geometry_role": "design_proposal",
        "crs_note": "EPSG:4326 storage",
        "equal_area_projection": "EPSG:4548",
        "official_boundary": false,
        "boundary_precision": "provisional_concept",
        "name_zh": "人才服务院",
        "public_space_type": "talent_court",
        "area_sqm_declared": 44405.184
      },
      "geometry": {
        "type": "Polygon",
        "coordinates": [
          [
            [
              116.3531711779206,
              39.98880490967798
            ],
            [
              116.35308581929876,
              39.988617316567634
            ],
            [
              116.35294720441844,
              39.98844442976698
            ],
            [
              116.35276066017177,
              39.98829289321881
            ],
            [
              116.35253335534952,
              39.988168530387696
            ],
            [
              116.35227402514855,
              39.98807612046748
            ],
            [
              116.35199263548301,
              39.98801921471959
            ],
            [
              116.3517,
              39.988
            ],
            [
              116.35140736451697,
              39.98801921471959
            ],
            [
              116.35112597485144,
              39.98807612046748
            ],
            [
              116.35086664465047,
              39.988168530387696
            ],
            [
              116.35063933982822,
              39.98829289321881
            ],
            [
              116.35045279558155,
              39.98844442976698
            ],
            [
              116.35031418070123,
              39.988617316567634
            ],
            [
              116.35022882207939,
              39.98880490967798
            ],
            [
              116.3502,
              39.989
            ],
            [
              116.35022882207939,
              39.98919509032201
            ],
            [
              116.35031418070123,
              39.98938268343236
            ],
            [
              116.35045279558155,
              39.989555570233016
            ],
            [
              116.35063933982822,
              39.98970710678118
            ],
            [
              116.35086664465047,
              39.9898314696123
            ],
            [
              116.35112597485144,
              39.98992387953251
            ],
            [
              116.35140736451697,
              39.9899807852804
            ],
            [
              116.3517,
              39.989999999999995
            ],
            [
              116.35199263548301,
              39.9899807852804
            ],
            [
              116.35227402514855,
              39.98992387953251
            ],
            [
              116.35253335534952,
              39.9898314696123
            ],
            [
              116.35276066017177,
              39.98970710678118
            ],
            [
              116.35294720441844,
              39.989555570233016
            ],
            [
              116.35308581929876,
              39.98938268343236
            ],
            [
              116.3531711779206,
              39.98919509032201
            ],
            [
              116.35319999999999,
              39.989
            ],
            [
              116.3531711779206,
              39.98880490967798
            ]
          ]
        ]
      }
    },
    {
      "type": "Feature",
      "id": "PUBLIC-011",
      "properties": {
        "id": "PUBLIC-011",
        "layer": "PUBLIC_SPACE",
        "source_type": "agent_generated_design",
        "confidence": "medium",
        "geometry_role": "design_proposal",
        "crs_note": "EPSG:4326 storage",
        "equal_area_projection": "EPSG:4548",
        "official_boundary": false,
        "boundary_precision": "provisional_concept",
        "name_zh": "站点口袋-南",
        "public_space_type": "station_pocket",
        "area_sqm_declared": 37322.97
      },
      "geometry": {
        "type": "Polygon",
        "coordinates": [
          [
            [
              116.34737309939257,
              39.946824418710186
            ],
            [
              116.34729343134552,
              39.94665558491087
            ],
            [
              116.34716405745722,
              39.946499986790286
            ],
            [
              116.34698994949366,
              39.946363603896934
            ],
            [
              116.34677779832623,
              39.94625167734893
            ],
            [
              116.34653575680531,
              39.94616850842074
            ],
            [
              116.34627312645082,
              39.94611729324764
            ],
            [
              116.346,
              39.9461
            ],
            [
              116.34572687354918,
              39.94611729324764
            ],
            [
              116.3454642431947,
              39.94616850842074
            ],
            [
              116.34522220167378,
              39.94625167734893
            ],
            [
              116.34501005050635,
              39.946363603896934
            ],
            [
              116.34483594254279,
              39.946499986790286
            ],
            [
              116.34470656865449,
              39.94665558491087
            ],
            [
              116.34462690060744,
              39.946824418710186
            ],
            [
              116.3446,
              39.947
            ],
            [
              116.34462690060744,
              39.94717558128982
            ],
            [
              116.34470656865449,
              39.947344415089134
            ],
            [
              116.34483594254279,
              39.94750001320972
            ],
            [
              116.34501005050635,
              39.94763639610307
            ],
            [
              116.34522220167378,
              39.94774832265107
            ],
            [
              116.3454642431947,
              39.947831491579265
            ],
            [
              116.34572687354918,
              39.94788270675237
            ],
            [
              116.346,
              39.947900000000004
            ],
            [
              116.34627312645082,
              39.94788270675237
            ],
            [
              116.34653575680531,
              39.947831491579265
            ],
            [
              116.34677779832623,
              39.94774832265107
            ],
            [
              116.34698994949366,
              39.94763639610307
            ],
            [
              116.34716405745722,
              39.94750001320972
            ],
            [
              116.34729343134552,
              39.947344415089134
            ],
            [
              116.34737309939257,
              39.94717558128982
            ],
            [
              116.34740000000001,
              39.947
            ],
            [
              116.34737309939257,
              39.946824418710186
            ]
          ]
        ]
      }
    },
    {
      "type": "Feature",
      "id": "PUBLIC-012",
      "properties": {
        "id": "PUBLIC-012",
        "layer": "PUBLIC_SPACE",
        "source_type": "agent_generated_design",
        "confidence": "medium",
        "geometry_role": "design_proposal",
        "crs_note": "EPSG:4326 storage",
        "equal_area_projection": "EPSG:4548",
        "official_boundary": false,
        "boundary_precision": "provisional_concept",
        "name_zh": "站点口袋-北",
        "public_space_type": "station_pocket",
        "area_sqm_declared": 37285.594
      },
      "geometry": {
        "type": "Polygon",
        "coordinates": [
          [
            [
              116.35007309939256,
              40.016324418710184
            ],
            [
              116.34999343134551,
              40.01615558491087
            ],
            [
              116.34986405745721,
              40.015999986790284
            ],
            [
              116.34968994949365,
              40.01586360389693
            ],
            [
              116.34947779832622,
              40.01575167734893
            ],
            [
              116.3492357568053,
              40.01566850842074
            ],
            [
              116.34897312645082,
              40.01561729324764
            ],
            [
              116.3487,
              40.0156
            ],
            [
              116.34842687354917,
              40.01561729324764
            ],
            [
              116.34816424319469,
              40.01566850842074
            ],
            [
              116.34792220167377,
              40.01575167734893
            ],
            [
              116.34771005050634,
              40.01586360389693
            ],
            [
              116.34753594254278,
              40.015999986790284
            ],
            [
              116.34740656865448,
              40.01615558491087
            ],
            [
              116.34732690060743,
              40.016324418710184
            ],
            [
              116.34729999999999,
              40.0165
            ],
            [
              116.34732690060743,
              40.01667558128982
            ],
            [
              116.34740656865448,
              40.01684441508913
            ],
            [
              116.34753594254278,
              40.01700001320972
            ],
            [
              116.34771005050634,
              40.01713639610307
            ],
            [
              116.34792220167377,
              40.01724832265107
            ],
            [
              116.34816424319469,
              40.01733149157926
            ],
            [
              116.34842687354917,
              40.017382706752365
            ],
            [
              116.3487,
              40.0174
            ],
            [
              116.34897312645082,
              40.017382706752365
            ],
            [
              116.3492357568053,
              40.01733149157926
            ],
            [
              116.34947779832622,
              40.01724832265107
            ],
            [
              116.34968994949365,
              40.01713639610307
            ],
            [
              116.34986405745721,
              40.01700001320972
            ],
            [
              116.34999343134551,
              40.01684441508913
            ],
            [
              116.35007309939256,
              40.01667558128982
            ],
            [
              116.3501,
              40.0165
            ],
            [
              116.35007309939256,
              40.016324418710184
            ]
          ]
        ]
      }
    },
    {
      "type": "Feature",
      "id": "PUBLIC-013",
      "properties": {
        "id": "PUBLIC-013",
        "layer": "PUBLIC_SPACE",
        "source_type": "agent_generated_design",
        "confidence": "medium",
        "geometry_role": "design_proposal",
        "crs_note": "EPSG:4326 storage",
        "equal_area_projection": "EPSG:4548",
        "official_boundary": false,
        "boundary_precision": "provisional_concept",
        "name_zh": "社区活动场",
        "public_space_type": "community_yard",
        "area_sqm_declared": 44406.549
      },
      "geometry": {
        "type": "Polygon",
        "coordinates": [
          [
            [
              116.3449711779206,
              39.986804909677986
            ],
            [
              116.34488581929875,
              39.98661731656764
            ],
            [
              116.34474720441844,
              39.98644442976698
            ],
            [
              116.34456066017177,
              39.98629289321882
            ],
            [
              116.34433335534952,
              39.9861685303877
            ],
            [
              116.34407402514854,
              39.98607612046749
            ],
            [
              116.34379263548301,
              39.9860192147196
            ],
            [
              116.34349999999999,
              39.986000000000004
            ],
            [
              116.34320736451697,
              39.9860192147196
            ],
            [
              116.34292597485144,
              39.98607612046749
            ],
            [
              116.34266664465046,
              39.9861685303877
            ],
            [
              116.34243933982822,
              39.98629289321882
            ],
            [
              116.34225279558154,
              39.98644442976698
            ],
            [
              116.34211418070123,
              39.98661731656764
            ],
            [
              116.34202882207939,
              39.986804909677986
            ],
            [
              116.342,
              39.987
            ],
            [
              116.34202882207939,
              39.98719509032202
            ],
            [
              116.34211418070123,
              39.987382683432365
            ],
            [
              116.34225279558154,
              39.98755557023302
            ],
            [
              116.34243933982822,
              39.98770710678119
            ],
            [
              116.34266664465046,
              39.9878314696123
            ],
            [
              116.34292597485144,
              39.98792387953252
            ],
            [
              116.34320736451697,
              39.987980785280406
            ],
            [
              116.34349999999999,
              39.988
            ],
            [
              116.34379263548301,
              39.987980785280406
            ],
            [
              116.34407402514854,
              39.98792387953252
            ],
            [
              116.34433335534952,
              39.9878314696123
            ],
            [
              116.34456066017177,
              39.98770710678119
            ],
            [
              116.34474720441844,
              39.98755557023302
            ],
            [
              116.34488581929875,
              39.987382683432365
            ],
            [
              116.3449711779206,
              39.98719509032202
            ],
            [
              116.34499999999998,
              39.987
            ],
            [
              116.3449711779206,
              39.986804909677986
            ]
          ]
        ]
      }
    },
    {
      "type": "Feature",
      "id": "PUBLIC-014",
      "properties": {
        "id": "PUBLIC-014",
        "layer": "PUBLIC_SPACE",
        "source_type": "agent_generated_design",
        "confidence": "medium",
        "geometry_role": "design_proposal",
        "crs_note": "EPSG:4326 storage",
        "equal_area_projection": "EPSG:4548",
        "official_boundary": false,
        "boundary_precision": "provisional_concept",
        "name_zh": "生活服务小广场",
        "public_space_type": "life_plaza",
        "area_sqm_declared": 37294.976
      },
      "geometry": {
        "type": "Polygon",
        "coordinates": [
          [
            [
              116.35337309939256,
              39.998824418710186
            ],
            [
              116.3532934313455,
              39.99865558491087
            ],
            [
              116.3531640574572,
              39.998499986790286
            ],
            [
              116.35298994949365,
              39.998363603896934
            ],
            [
              116.35277779832622,
              39.99825167734893
            ],
            [
              116.3525357568053,
              39.99816850842074
            ],
            [
              116.35227312645081,
              39.99811729324764
            ],
            [
              116.35199999999999,
              39.9981
            ],
            [
              116.35172687354917,
              39.99811729324764
            ],
            [
              116.35146424319468,
              39.99816850842074
            ],
            [
              116.35122220167376,
              39.99825167734893
            ],
            [
              116.35101005050633,
              39.998363603896934
            ],
            [
              116.35083594254277,
              39.998499986790286
            ],
            [
              116.35070656865447,
              39.99865558491087
            ],
            [
              116.35062690060742,
              39.998824418710186
            ],
            [
              116.35059999999999,
              39.999
            ],
            [
              116.35062690060742,
              39.99917558128982
            ],
            [
              116.35070656865447,
              39.99934441508913
            ],
            [
              116.35083594254277,
              39.99950001320972
            ],
            [
              116.35101005050633,
              39.99963639610307
            ],
            [
              116.35122220167376,
              39.99974832265107
            ],
            [
              116.35146424319468,
              39.999831491579265
            ],
            [
              116.35172687354917,
              39.999882706752366
            ],
            [
              116.35199999999999,
              39.999900000000004
            ],
            [
              116.35227312645081,
              39.999882706752366
            ],
            [
              116.3525357568053,
              39.999831491579265
            ],
            [
              116.35277779832622,
              39.99974832265107
            ],
            [
              116.35298994949365,
              39.99963639610307
            ],
            [
              116.3531640574572,
              39.99950001320972
            ],
            [
              116.3532934313455,
              39.99934441508913
            ],
            [
              116.35337309939256,
              39.99917558128982
            ],
            [
              116.3534,
              39.999
            ],
            [
              116.35337309939256,
              39.998824418710186
            ]
          ]
        ]
      }
    },
    {
      "type": "Feature",
      "id": "PUBLIC-015",
      "properties": {
        "id": "PUBLIC-015",
        "layer": "PUBLIC_SPACE",
        "source_type": "agent_generated_design",
        "confidence": "medium",
        "geometry_role": "design_proposal",
        "crs_note": "EPSG:4326 storage",
        "equal_area_projection": "EPSG:4548",
        "official_boundary": false,
        "boundary_precision": "provisional_concept",
        "name_zh": "治理论坛庭",
        "public_space_type": "governance_court",
        "area_sqm_declared": 55346.574
      },
      "geometry": {
        "type": "Polygon",
        "coordinates": [
          [
            [
              116.34716733497669,
              40.00378540064578
            ],
            [
              116.34707059520527,
              40.003579048224395
            ],
            [
              116.34691349834091,
              40.00338887274368
            ],
            [
              116.34670208152802,
              40.00322218254069
            ],
            [
              116.34644446939613,
              40.003085383426466
            ],
            [
              116.34615056183502,
              40.00298373251424
            ],
            [
              116.34583165354744,
              40.00292113619155
            ],
            [
              116.3455,
              40.0029
            ],
            [
              116.34516834645257,
              40.00292113619155
            ],
            [
              116.34484943816499,
              40.00298373251424
            ],
            [
              116.34455553060387,
              40.003085383426466
            ],
            [
              116.34429791847198,
              40.00322218254069
            ],
            [
              116.34408650165909,
              40.00338887274368
            ],
            [
              116.34392940479474,
              40.003579048224395
            ],
            [
              116.34383266502331,
              40.00378540064578
            ],
            [
              116.3438,
              40.004
            ],
            [
              116.34383266502331,
              40.00421459935421
            ],
            [
              116.34392940479474,
              40.0044209517756
            ],
            [
              116.34408650165909,
              40.00461112725632
            ],
            [
              116.34429791847198,
              40.004777817459306
            ],
            [
              116.34455553060387,
              40.00491461657353
            ],
            [
              116.34484943816499,
              40.00501626748576
            ],
            [
              116.34516834645257,
              40.00507886380844
            ],
            [
              116.3455,
              40.0051
            ],
            [
              116.34583165354744,
              40.00507886380844
            ],
            [
              116.34615056183502,
              40.00501626748576
            ],
            [
              116.34644446939613,
              40.00491461657353
            ],
            [
              116.34670208152802,
              40.004777817459306
            ],
            [
              116.34691349834091,
              40.00461112725632
            ],
            [
              116.34707059520527,
              40.0044209517756
            ],
            [
              116.34716733497669,
              40.00421459935421
            ],
            [
              116.3472,
              40.004
            ],
            [
              116.34716733497669,
              40.00378540064578
            ]
          ]
        ]
      }
    },
    {
      "type": "Feature",
      "id": "PUBLIC-016",
      "properties": {
        "id": "PUBLIC-016",
        "layer": "PUBLIC_SPACE",
        "source_type": "agent_generated_design",
        "confidence": "medium",
        "geometry_role": "design_proposal",
        "crs_note": "EPSG:4326 storage",
        "equal_area_projection": "EPSG:4548",
        "official_boundary": false,
        "boundary_precision": "provisional_concept",
        "name_zh": "荣誉墙前场",
        "public_space_type": "honor_forecourt",
        "area_sqm_declared": 34644.553
      },
      "geometry": {
        "type": "Polygon",
        "coordinates": [
          [
            [
              116.34977502086453,
              39.971824418710185
            ],
            [
              116.34970104339227,
              39.97165558491087
            ],
            [
              116.349580910496,
              39.971499986790285
            ],
            [
              116.34941923881554,
              39.97136360389693
            ],
            [
              116.34922224130293,
              39.97125167734893
            ],
            [
              116.34899748846208,
              39.97116850842074
            ],
            [
              116.34875361741862,
              39.97111729324764
            ],
            [
              116.3485,
              39.9711
            ],
            [
              116.34824638258138,
              39.97111729324764
            ],
            [
              116.34800251153793,
              39.97116850842074
            ],
            [
              116.34777775869708,
              39.97125167734893
            ],
            [
              116.34758076118446,
              39.97136360389693
            ],
            [
              116.347419089504,
              39.971499986790285
            ],
            [
              116.34729895660773,
              39.97165558491087
            ],
            [
              116.34722497913548,
              39.971824418710185
            ],
            [
              116.3472,
              39.972
            ],
            [
              116.34722497913548,
              39.97217558128982
            ],
            [
              116.34729895660773,
              39.97234441508913
            ],
            [
              116.347419089504,
              39.97250001320972
            ],
            [
              116.34758076118446,
              39.97263639610307
            ],
            [
              116.34777775869708,
              39.97274832265107
            ],
            [
              116.34800251153793,
              39.972831491579264
            ],
            [
              116.34824638258138,
              39.972882706752365
            ],
            [
              116.3485,
              39.9729
            ],
            [
              116.34875361741862,
              39.972882706752365
            ],
            [
              116.34899748846208,
              39.972831491579264
            ],
            [
              116.34922224130293,
              39.97274832265107
            ],
            [
              116.34941923881554,
              39.97263639610307
            ],
            [
              116.349580910496,
              39.97250001320972
            ],
            [
              116.34970104339227,
              39.97234441508913
            ],
            [
              116.34977502086453,
              39.97217558128982
            ],
            [
              116.3498,
              39.972
            ],
            [
              116.34977502086453,
              39.971824418710185
            ]
          ]
        ]
      }
    },
    {
      "type": "Feature",
      "id": "PUBLIC-017",
      "properties": {
        "id": "PUBLIC-017",
        "layer": "PUBLIC_SPACE",
        "source_type": "agent_generated_design",
        "confidence": "medium",
        "geometry_role": "design_proposal",
        "crs_note": "EPSG:4326 storage",
        "equal_area_projection": "EPSG:4548",
        "official_boundary": false,
        "boundary_precision": "provisional_concept",
        "name_zh": "西翼社区庭",
        "public_space_type": "west_court",
        "area_sqm_declared": 37319.224
      },
      "geometry": {
        "type": "Polygon",
        "coordinates": [
          [
            [
              116.34587309939256,
              39.953824418710184
            ],
            [
              116.34579343134551,
              39.95365558491087
            ],
            [
              116.34566405745721,
              39.953499986790284
            ],
            [
              116.34548994949365,
              39.95336360389693
            ],
            [
              116.34527779832622,
              39.95325167734893
            ],
            [
              116.3450357568053,
              39.95316850842074
            ],
            [
              116.34477312645082,
              39.95311729324764
            ],
            [
              116.3445,
              39.9531
            ],
            [
              116.34422687354918,
              39.95311729324764
            ],
            [
              116.34396424319469,
              39.95316850842074
            ],
            [
              116.34372220167377,
              39.95325167734893
            ],
            [
              116.34351005050634,
              39.95336360389693
            ],
            [
              116.34333594254278,
              39.953499986790284
            ],
            [
              116.34320656865448,
              39.95365558491087
            ],
            [
              116.34312690060743,
              39.953824418710184
            ],
            [
              116.34309999999999,
              39.954
            ],
            [
              116.34312690060743,
              39.95417558128982
            ],
            [
              116.34320656865448,
              39.95434441508913
            ],
            [
              116.34333594254278,
              39.95450001320972
            ],
            [
              116.34351005050634,
              39.95463639610307
            ],
            [
              116.34372220167377,
              39.95474832265107
            ],
            [
              116.34396424319469,
              39.95483149157926
            ],
            [
              116.34422687354918,
              39.954882706752365
            ],
            [
              116.3445,
              39.9549
            ],
            [
              116.34477312645082,
              39.954882706752365
            ],
            [
              116.3450357568053,
              39.95483149157926
            ],
            [
              116.34527779832622,
              39.95474832265107
            ],
            [
              116.34548994949365,
              39.95463639610307
            ],
            [
              116.34566405745721,
              39.95450001320972
            ],
            [
              116.34579343134551,
              39.95434441508913
            ],
            [
              116.34587309939256,
              39.95417558128982
            ],
            [
              116.3459,
              39.954
            ],
            [
              116.34587309939256,
              39.953824418710184
            ]
          ]
        ]
      }
    },
    {
      "type": "Feature",
      "id": "PUBLIC-018",
      "properties": {
        "id": "PUBLIC-018",
        "layer": "PUBLIC_SPACE",
        "source_type": "agent_generated_design",
        "confidence": "medium",
        "geometry_role": "design_proposal",
        "crs_note": "EPSG:4326 storage",
        "equal_area_projection": "EPSG:4548",
        "official_boundary": false,
        "boundary_precision": "provisional_concept",
        "name_zh": "东翼转化前场",
        "public_space_type": "east_forecourt",
        "area_sqm_declared": 44414.785
      },
      "geometry": {
        "type": "Polygon",
        "coordinates": [
          [
            [
              116.3527711779206,
              39.97380490967798
            ],
            [
              116.35268581929876,
              39.97361731656763
            ],
            [
              116.35254720441844,
              39.97344442976698
            ],
            [
              116.35236066017177,
              39.97329289321881
            ],
            [
              116.35213335534952,
              39.973168530387696
            ],
            [
              116.35187402514855,
              39.97307612046748
            ],
            [
              116.35159263548302,
              39.97301921471959
            ],
            [
              116.3513,
              39.973
            ],
            [
              116.35100736451697,
              39.97301921471959
            ],
            [
              116.35072597485144,
              39.97307612046748
            ],
            [
              116.35046664465047,
              39.973168530387696
            ],
            [
              116.35023933982822,
              39.97329289321881
            ],
            [
              116.35005279558155,
              39.97344442976698
            ],
            [
              116.34991418070123,
              39.97361731656763
            ],
            [
              116.34982882207939,
              39.97380490967798
            ],
            [
              116.3498,
              39.974
            ],
            [
              116.34982882207939,
              39.97419509032201
            ],
            [
              116.34991418070123,
              39.97438268343236
            ],
            [
              116.35005279558155,
              39.974555570233015
            ],
            [
              116.35023933982822,
              39.97470710678118
            ],
            [
              116.35046664465047,
              39.9748314696123
            ],
            [
              116.35072597485144,
              39.97492387953251
            ],
            [
              116.35100736451697,
              39.9749807852804
            ],
            [
              116.3513,
              39.974999999999994
            ],
            [
              116.35159263548302,
              39.9749807852804
            ],
            [
              116.35187402514855,
              39.97492387953251
            ],
            [
              116.35213335534952,
              39.9748314696123
            ],
            [
              116.35236066017177,
              39.97470710678118
            ],
            [
              116.35254720441844,
              39.974555570233015
            ],
            [
              116.35268581929876,
              39.97438268343236
            ],
            [
              116.3527711779206,
              39.97419509032201
            ],
            [
              116.35279999999999,
              39.974
            ],
            [
              116.3527711779206,
              39.97380490967798
            ]
          ]
        ]
      }
    },
    {
      "type": "Feature",
      "id": "PUBLIC-019",
      "properties": {
        "id": "PUBLIC-019",
        "layer": "PUBLIC_SPACE",
        "source_type": "agent_generated_design",
        "confidence": "medium",
        "geometry_role": "design_proposal",
        "crs_note": "EPSG:4326 storage",
        "equal_area_projection": "EPSG:4548",
        "official_boundary": false,
        "boundary_precision": "provisional_concept",
        "name_zh": "北段协议庭",
        "public_space_type": "north_protocol_court",
        "area_sqm_declared": 53270.911
      },
      "geometry": {
        "type": "Polygon",
        "coordinates": [
          [
            [
              116.34926541350472,
              40.008804909677984
            ],
            [
              116.34916298315852,
              40.00861731656764
            ],
            [
              116.34899664530214,
              40.00844442976698
            ],
            [
              116.34877279220613,
              40.008292893218815
            ],
            [
              116.34850002641943,
              40.0081685303877
            ],
            [
              116.34818883017826,
              40.008076120467486
            ],
            [
              116.34785116257963,
              40.008019214719596
            ],
            [
              116.3475,
              40.008
            ],
            [
              116.34714883742036,
              40.008019214719596
            ],
            [
              116.34681116982173,
              40.008076120467486
            ],
            [
              116.34649997358056,
              40.0081685303877
            ],
            [
              116.34622720779386,
              40.008292893218815
            ],
            [
              116.34600335469786,
              40.00844442976698
            ],
            [
              116.34583701684147,
              40.00861731656764
            ],
            [
              116.34573458649527,
              40.008804909677984
            ],
            [
              116.3457,
              40.009
            ],
            [
              116.34573458649527,
              40.00919509032202
            ],
            [
              116.34583701684147,
              40.009382683432364
            ],
            [
              116.34600335469786,
              40.00955557023302
            ],
            [
              116.34622720779386,
              40.009707106781185
            ],
            [
              116.34649997358056,
              40.0098314696123
            ],
            [
              116.34681116982173,
              40.009923879532515
            ],
            [
              116.34714883742036,
              40.009980785280405
            ],
            [
              116.3475,
              40.01
            ],
            [
              116.34785116257963,
              40.009980785280405
            ],
            [
              116.34818883017826,
              40.009923879532515
            ],
            [
              116.34850002641943,
              40.0098314696123
            ],
            [
              116.34877279220613,
              40.009707106781185
            ],
            [
              116.34899664530214,
              40.00955557023302
            ],
            [
              116.34916298315852,
              40.009382683432364
            ],
            [
              116.34926541350472,
              40.00919509032202
            ],
            [
              116.3493,
              40.009
            ],
            [
              116.34926541350472,
              40.008804909677984
            ]
          ]
        ]
      }
    },
    {
      "type": "Feature",
      "id": "PUBLIC-020",
      "properties": {
        "id": "PUBLIC-020",
        "layer": "PUBLIC_SPACE",
        "source_type": "agent_generated_design",
        "confidence": "medium",
        "geometry_role": "design_proposal",
        "crs_note": "EPSG:4326 storage",
        "equal_area_projection": "EPSG:4548",
        "official_boundary": false,
        "boundary_precision": "provisional_concept",
        "name_zh": "记忆线路节点庭",
        "public_space_type": "memory_court",
        "area_sqm_declared": 34640.088
      },
      "geometry": {
        "type": "Polygon",
        "coordinates": [
          [
            [
              116.34657502086452,
              39.980824418710185
            ],
            [
              116.34650104339227,
              39.98065558491087
            ],
            [
              116.346380910496,
              39.980499986790285
            ],
            [
              116.34621923881554,
              39.98036360389693
            ],
            [
              116.34602224130292,
              39.98025167734893
            ],
            [
              116.34579748846207,
              39.98016850842074
            ],
            [
              116.34555361741862,
              39.98011729324764
            ],
            [
              116.3453,
              39.9801
            ],
            [
              116.34504638258137,
              39.98011729324764
            ],
            [
              116.34480251153792,
              39.98016850842074
            ],
            [
              116.34457775869707,
              39.98025167734893
            ],
            [
              116.34438076118445,
              39.98036360389693
            ],
            [
              116.344219089504,
              39.980499986790285
            ],
            [
              116.34409895660772,
              39.98065558491087
            ],
            [
              116.34402497913547,
              39.980824418710185
            ],
            [
              116.344,
              39.981
            ],
            [
              116.34402497913547,
              39.98117558128982
            ],
            [
              116.34409895660772,
              39.98134441508913
            ],
            [
              116.344219089504,
              39.98150001320972
            ],
            [
              116.34438076118445,
              39.98163639610307
            ],
            [
              116.34457775869707,
              39.98174832265107
            ],
            [
              116.34480251153792,
              39.981831491579264
            ],
            [
              116.34504638258137,
              39.981882706752366
            ],
            [
              116.3453,
              39.9819
            ],
            [
              116.34555361741862,
              39.981882706752366
            ],
            [
              116.34579748846207,
              39.981831491579264
            ],
            [
              116.34602224130292,
              39.98174832265107
            ],
            [
              116.34621923881554,
              39.98163639610307
            ],
            [
              116.346380910496,
              39.98150001320972
            ],
            [
              116.34650104339227,
              39.98134441508913
            ],
            [
              116.34657502086452,
              39.98117558128982
            ],
            [
              116.3466,
              39.981
            ],
            [
              116.34657502086452,
              39.980824418710185
            ]
          ]
        ]
      }
    },
    {
      "type": "Feature",
      "id": "PUBLIC-021",
      "properties": {
        "id": "PUBLIC-021",
        "layer": "PUBLIC_SPACE",
        "source_type": "agent_generated_design",
        "confidence": "medium",
        "geometry_role": "design_proposal",
        "crs_note": "EPSG:4326 storage",
        "equal_area_projection": "EPSG:4548",
        "official_boundary": false,
        "boundary_precision": "provisional_concept",
        "name_zh": "活动周集散场",
        "public_space_type": "festival_yard",
        "area_sqm_declared": 34632.068
      },
      "geometry": {
        "type": "Polygon",
        "coordinates": [
          [
            [
              116.35077502086452,
              39.99682441871018
            ],
            [
              116.35070104339226,
              39.99665558491087
            ],
            [
              116.35058091049599,
              39.99649998679028
            ],
            [
              116.35041923881553,
              39.99636360389693
            ],
            [
              116.35022224130292,
              39.99625167734893
            ],
            [
              116.34999748846207,
              39.99616850842074
            ],
            [
              116.34975361741861,
              39.996117293247636
            ],
            [
              116.34949999999999,
              39.9961
            ],
            [
              116.34924638258137,
              39.996117293247636
            ],
            [
              116.34900251153792,
              39.99616850842074
            ],
            [
              116.34877775869707,
              39.99625167734893
            ],
            [
              116.34858076118445,
              39.99636360389693
            ],
            [
              116.34841908950399,
              39.99649998679028
            ],
            [
              116.34829895660772,
              39.99665558491087
            ],
            [
              116.34822497913547,
              39.99682441871018
            ],
            [
              116.34819999999999,
              39.997
            ],
            [
              116.34822497913547,
              39.99717558128982
            ],
            [
              116.34829895660772,
              39.99734441508913
            ],
            [
              116.34841908950399,
              39.99750001320972
            ],
            [
              116.34858076118445,
              39.99763639610307
            ],
            [
              116.34877775869707,
              39.99774832265107
            ],
            [
              116.34900251153792,
              39.99783149157926
            ],
            [
              116.34924638258137,
              39.997882706752364
            ],
            [
              116.34949999999999,
              39.9979
            ],
            [
              116.34975361741861,
              39.997882706752364
            ],
            [
              116.34999748846207,
              39.99783149157926
            ],
            [
              116.35022224130292,
              39.99774832265107
            ],
            [
              116.35041923881553,
              39.99763639610307
            ],
            [
              116.35058091049599,
              39.99750001320972
            ],
            [
              116.35070104339226,
              39.99734441508913
            ],
            [
              116.35077502086452,
              39.99717558128982
            ],
            [
              116.35079999999999,
              39.997
            ],
            [
              116.35077502086452,
              39.99682441871018
            ]
          ]
        ]
      }
    }
  ]
}