{
  "type": "FeatureCollection",
  "name": "common_eave_complete_concept_partition",
  "features": [
    {
      "type": "Feature",
      "id": "LU-001",
      "properties": {
        "id": "LU-001",
        "layer": "LAND_USE",
        "source_type": "agent_generated_design",
        "confidence": "medium",
        "geometry_role": "design_proposal",
        "land_use_code": "0802",
        "name_zh": "南端城市门户｜研发转化与开放协作",
        "name_en": "South urban gateway | Research, transfer, and open collaboration",
        "planning_zone": "south_gateway",
        "program_role": "研发转化与开放协作",
        "design_note": "概念规划单元：大钟寺智能原生业态与国际城市界面。完整覆盖临时范围但不对应法定地块、权属或控规指标。",
        "area_sqm_declared": 431626.483
      },
      "geometry": {
        "type": "Polygon",
        "coordinates": [
          [
            [
              116.3403111111111,
              39.953
            ],
            [
              116.3407,
              39.939
            ],
            [
              116.343756,
              39.939
            ],
            [
              116.343756,
              39.953
            ],
            [
              116.3403111111111,
              39.953
            ]
          ]
        ]
      }
    },
    {
      "type": "Feature",
      "id": "LU-002",
      "properties": {
        "id": "LU-002",
        "layer": "LAND_USE",
        "source_type": "agent_generated_design",
        "confidence": "medium",
        "geometry_role": "design_proposal",
        "land_use_code": "1401",
        "name_zh": "南端城市门户｜遗产绿脊与公共气候",
        "name_en": "South urban gateway | Heritage green spine and civic climate",
        "planning_zone": "south_gateway",
        "program_role": "遗产绿脊与公共气候",
        "design_note": "概念规划单元：大钟寺智能原生业态与国际城市界面。完整覆盖临时范围但不对应法定地块、权属或控规指标。",
        "area_sqm_declared": 393589.53
      },
      "geometry": {
        "type": "Polygon",
        "coordinates": [
          [
            [
              116.343756,
              39.953
            ],
            [
              116.343756,
              39.939
            ],
            [
              116.34671999999999,
              39.939
            ],
            [
              116.34671999999999,
              39.953
            ],
            [
              116.343756,
              39.953
            ]
          ]
        ]
      }
    },
    {
      "type": "Feature",
      "id": "LU-003",
      "properties": {
        "id": "LU-003",
        "layer": "LAND_USE",
        "source_type": "agent_generated_design",
        "confidence": "medium",
        "geometry_role": "design_proposal",
        "land_use_code": "05",
        "name_zh": "南端城市门户｜智能原生服务与复合创新",
        "name_en": "South urban gateway | AI-native service and mixed innovation",
        "planning_zone": "south_gateway",
        "program_role": "智能原生服务与复合创新",
        "design_note": "概念规划单元：大钟寺智能原生业态与国际城市界面。完整覆盖临时范围但不对应法定地块、权属或控规指标。",
        "area_sqm_declared": 559311.439
      },
      "geometry": {
        "type": "Polygon",
        "coordinates": [
          [
            [
              116.34671999999999,
              39.953
            ],
            [
              116.34671999999999,
              39.939
            ],
            [
              116.350932,
              39.939
            ],
            [
              116.350932,
              39.953
            ],
            [
              116.34671999999999,
              39.953
            ]
          ]
        ]
      }
    },
    {
      "type": "Feature",
      "id": "LU-004",
      "properties": {
        "id": "LU-004",
        "layer": "LAND_USE",
        "source_type": "agent_generated_design",
        "confidence": "medium",
        "geometry_role": "design_proposal",
        "land_use_code": "0702",
        "name_zh": "南端城市门户｜人才生活与公共服务",
        "name_en": "South urban gateway | Talent life and public services",
        "planning_zone": "south_gateway",
        "program_role": "人才生活与公共服务",
        "design_note": "概念规划单元：大钟寺智能原生业态与国际城市界面。完整覆盖临时范围但不对应法定地块、权属或控规指标。",
        "area_sqm_declared": 580026.675
      },
      "geometry": {
        "type": "Polygon",
        "coordinates": [
          [
            [
              116.350932,
              39.953
            ],
            [
              116.350932,
              39.939
            ],
            [
              116.3553,
              39.939
            ],
            [
              116.3553,
              39.953
            ],
            [
              116.350932,
              39.953
            ]
          ]
        ]
      }
    },
    {
      "type": "Feature",
      "id": "LU-005",
      "properties": {
        "id": "LU-005",
        "layer": "LAND_USE",
        "source_type": "agent_generated_design",
        "confidence": "medium",
        "geometry_role": "design_proposal",
        "land_use_code": "0802",
        "name_zh": "中关村科技服务翼｜研发转化与开放协作",
        "name_en": "Zhongguancun service wing | Research, transfer, and open collaboration",
        "planning_zone": "service_wing",
        "program_role": "研发转化与开放协作",
        "design_note": "概念规划单元：专业服务、知识产权、资本与公共服务。完整覆盖临时范围但不对应法定地块、权属或控规指标。",
        "area_sqm_declared": 547306.395
      },
      "geometry": {
        "type": "Polygon",
        "coordinates": [
          [
            [
              116.3398736111111,
              39.96875
            ],
            [
              116.3403111111111,
              39.953
            ],
            [
              116.343756,
              39.953
            ],
            [
              116.343756,
              39.96875
            ],
            [
              116.3398736111111,
              39.96875
            ]
          ]
        ]
      }
    },
    {
      "type": "Feature",
      "id": "LU-006",
      "properties": {
        "id": "LU-006",
        "layer": "LAND_USE",
        "source_type": "agent_generated_design",
        "confidence": "medium",
        "geometry_role": "design_proposal",
        "land_use_code": "1401",
        "name_zh": "中关村科技服务翼｜遗产绿脊与公共气候",
        "name_en": "Zhongguancun service wing | Heritage green spine and civic climate",
        "planning_zone": "service_wing",
        "program_role": "遗产绿脊与公共气候",
        "design_note": "概念规划单元：专业服务、知识产权、资本与公共服务。完整覆盖临时范围但不对应法定地块、权属或控规指标。",
        "area_sqm_declared": 442788.22
      },
      "geometry": {
        "type": "Polygon",
        "coordinates": [
          [
            [
              116.343756,
              39.96875
            ],
            [
              116.343756,
              39.953
            ],
            [
              116.34671999999999,
              39.953
            ],
            [
              116.34671999999999,
              39.96875
            ],
            [
              116.343756,
              39.96875
            ]
          ]
        ]
      }
    },
    {
      "type": "Feature",
      "id": "LU-007",
      "properties": {
        "id": "LU-007",
        "layer": "LAND_USE",
        "source_type": "agent_generated_design",
        "confidence": "medium",
        "geometry_role": "design_proposal",
        "land_use_code": "05",
        "name_zh": "中关村科技服务翼｜智能原生服务与复合创新",
        "name_en": "Zhongguancun service wing | AI-native service and mixed innovation",
        "planning_zone": "service_wing",
        "program_role": "智能原生服务与复合创新",
        "design_note": "概念规划单元：专业服务、知识产权、资本与公共服务。完整覆盖临时范围但不对应法定地块、权属或控规指标。",
        "area_sqm_declared": 629225.37
      },
      "geometry": {
        "type": "Polygon",
        "coordinates": [
          [
            [
              116.34671999999999,
              39.96875
            ],
            [
              116.34671999999999,
              39.953
            ],
            [
              116.350932,
              39.953
            ],
            [
              116.350932,
              39.96875
            ],
            [
              116.34671999999999,
              39.96875
            ]
          ]
        ]
      }
    },
    {
      "type": "Feature",
      "id": "LU-008",
      "properties": {
        "id": "LU-008",
        "layer": "LAND_USE",
        "source_type": "agent_generated_design",
        "confidence": "medium",
        "geometry_role": "design_proposal",
        "land_use_code": "0702",
        "name_zh": "中关村科技服务翼｜人才生活与公共服务",
        "name_en": "Zhongguancun service wing | Talent life and public services",
        "planning_zone": "service_wing",
        "program_role": "人才生活与公共服务",
        "design_note": "概念规划单元：专业服务、知识产权、资本与公共服务。完整覆盖临时范围但不对应法定地块、权属或控规指标。",
        "area_sqm_declared": 647194.695
      },
      "geometry": {
        "type": "Polygon",
        "coordinates": [
          [
            [
              116.350932,
              39.96875
            ],
            [
              116.350932,
              39.953
            ],
            [
              116.3553,
              39.953
            ],
            [
              116.3553,
              39.965
            ],
            [
              116.355,
              39.96875
            ],
            [
              116.350932,
              39.96875
            ]
          ]
        ]
      }
    },
    {
      "type": "Feature",
      "id": "LU-009",
      "properties": {
        "id": "LU-009",
        "layer": "LAND_USE",
        "source_type": "agent_generated_design",
        "confidence": "medium",
        "geometry_role": "design_proposal",
        "land_use_code": "0802",
        "name_zh": "AI原点社区｜研发转化与开放协作",
        "name_en": "AI Origin Community | Research, transfer, and open collaboration",
        "planning_zone": "origin_core",
        "program_role": "研发转化与开放协作",
        "design_note": "概念规划单元：高校策源、成果转化与近校生活。完整覆盖临时范围但不对应法定地块、权属或控规指标。",
        "area_sqm_declared": 629375.271
      },
      "geometry": {
        "type": "Polygon",
        "coordinates": [
          [
            [
              116.3398736111111,
              39.96875
            ],
            [
              116.343756,
              39.96875
            ],
            [
              116.343756,
              39.98625
            ],
            [
              116.3404258064516,
              39.98625
            ],
            [
              116.3397,
              39.975
            ],
            [
              116.3398736111111,
              39.96875
            ]
          ]
        ]
      }
    },
    {
      "type": "Feature",
      "id": "LU-010",
      "properties": {
        "id": "LU-010",
        "layer": "LAND_USE",
        "source_type": "agent_generated_design",
        "confidence": "medium",
        "geometry_role": "design_proposal",
        "land_use_code": "1401",
        "name_zh": "AI原点社区｜遗产绿脊与公共气候",
        "name_en": "AI Origin Community | Heritage green spine and civic climate",
        "planning_zone": "origin_core",
        "program_role": "遗产绿脊与公共气候",
        "design_note": "概念规划单元：高校策源、成果转化与近校生活。完整覆盖临时范围但不对应法定地块、权属或控规指标。",
        "area_sqm_declared": 491986.915
      },
      "geometry": {
        "type": "Polygon",
        "coordinates": [
          [
            [
              116.343756,
              39.98625
            ],
            [
              116.343756,
              39.96875
            ],
            [
              116.34671999999999,
              39.96875
            ],
            [
              116.34671999999999,
              39.98625
            ],
            [
              116.343756,
              39.98625
            ]
          ]
        ]
      }
    },
    {
      "type": "Feature",
      "id": "LU-011",
      "properties": {
        "id": "LU-011",
        "layer": "LAND_USE",
        "source_type": "agent_generated_design",
        "confidence": "medium",
        "geometry_role": "design_proposal",
        "land_use_code": "05",
        "name_zh": "AI原点社区｜智能原生服务与复合创新",
        "name_en": "AI Origin Community | AI-native service and mixed innovation",
        "planning_zone": "origin_core",
        "program_role": "智能原生服务与复合创新",
        "design_note": "概念规划单元：高校策源、成果转化与近校生活。完整覆盖临时范围但不对应法定地块、权属或控规指标。",
        "area_sqm_declared": 699139.289
      },
      "geometry": {
        "type": "Polygon",
        "coordinates": [
          [
            [
              116.34671999999999,
              39.98625
            ],
            [
              116.34671999999999,
              39.96875
            ],
            [
              116.350932,
              39.96875
            ],
            [
              116.350932,
              39.98625
            ],
            [
              116.34671999999999,
              39.98625
            ]
          ]
        ]
      }
    },
    {
      "type": "Feature",
      "id": "LU-012",
      "properties": {
        "id": "LU-012",
        "layer": "LAND_USE",
        "source_type": "agent_generated_design",
        "confidence": "medium",
        "geometry_role": "design_proposal",
        "land_use_code": "0702",
        "name_zh": "AI原点社区｜人才生活与公共服务",
        "name_en": "AI Origin Community | Talent life and public services",
        "planning_zone": "origin_core",
        "program_role": "人才生活与公共服务",
        "design_note": "概念规划单元：高校策源、成果转化与近校生活。完整覆盖临时范围但不对应法定地块、权属或控规指标。",
        "area_sqm_declared": 559045.861
      },
      "geometry": {
        "type": "Polygon",
        "coordinates": [
          [
            [
              116.350932,
              39.98625
            ],
            [
              116.350932,
              39.96875
            ],
            [
              116.355,
              39.96875
            ],
            [
              116.3536,
              39.98625
            ],
            [
              116.350932,
              39.98625
            ]
          ]
        ]
      }
    },
    {
      "type": "Feature",
      "id": "LU-013",
      "properties": {
        "id": "LU-013",
        "layer": "LAND_USE",
        "source_type": "agent_generated_design",
        "confidence": "medium",
        "geometry_role": "design_proposal",
        "land_use_code": "0802",
        "name_zh": "小月河场景赋能翼｜研发转化与开放协作",
        "name_en": "Xiaoyuehe scenario wing | Research, transfer, and open collaboration",
        "planning_zone": "scenario_wing",
        "program_role": "研发转化与开放协作",
        "design_note": "概念规划单元：真实问题、场景试验与开放评审。完整覆盖临时范围但不对应法定地块、权属或控规指标。",
        "area_sqm_declared": 494667.339
      },
      "geometry": {
        "type": "Polygon",
        "coordinates": [
          [
            [
              116.343756,
              39.98625
            ],
            [
              116.343756,
              40.0055
            ],
            [
              116.34166774193548,
              40.0055
            ],
            [
              116.3404258064516,
              39.98625
            ],
            [
              116.343756,
              39.98625
            ]
          ]
        ]
      }
    },
    {
      "type": "Feature",
      "id": "LU-014",
      "properties": {
        "id": "LU-014",
        "layer": "LAND_USE",
        "source_type": "agent_generated_design",
        "confidence": "medium",
        "geometry_role": "design_proposal",
        "land_use_code": "1401",
        "name_zh": "小月河场景赋能翼｜遗产绿脊与公共气候",
        "name_en": "Xiaoyuehe scenario wing | Heritage green spine and civic climate",
        "planning_zone": "scenario_wing",
        "program_role": "遗产绿脊与公共气候",
        "design_note": "概念规划单元：真实问题、场景试验与开放评审。完整覆盖临时范围但不对应法定地块、权属或控规指标。",
        "area_sqm_declared": 541185.605
      },
      "geometry": {
        "type": "Polygon",
        "coordinates": [
          [
            [
              116.343756,
              40.0055
            ],
            [
              116.343756,
              39.98625
            ],
            [
              116.34671999999999,
              39.98625
            ],
            [
              116.34671999999999,
              40.0055
            ],
            [
              116.343756,
              40.0055
            ]
          ]
        ]
      }
    },
    {
      "type": "Feature",
      "id": "LU-015",
      "properties": {
        "id": "LU-015",
        "layer": "LAND_USE",
        "source_type": "agent_generated_design",
        "confidence": "medium",
        "geometry_role": "design_proposal",
        "land_use_code": "05",
        "name_zh": "小月河场景赋能翼｜智能原生服务与复合创新",
        "name_en": "Xiaoyuehe scenario wing | AI-native service and mixed innovation",
        "planning_zone": "scenario_wing",
        "program_role": "智能原生服务与复合创新",
        "design_note": "概念规划单元：真实问题、场景试验与开放评审。完整覆盖临时范围但不对应法定地块、权属或控规指标。",
        "area_sqm_declared": 769053.231
      },
      "geometry": {
        "type": "Polygon",
        "coordinates": [
          [
            [
              116.34671999999999,
              40.0055
            ],
            [
              116.34671999999999,
              39.98625
            ],
            [
              116.350932,
              39.98625
            ],
            [
              116.350932,
              40.0055
            ],
            [
              116.34671999999999,
              40.0055
            ]
          ]
        ]
      }
    },
    {
      "type": "Feature",
      "id": "LU-016",
      "properties": {
        "id": "LU-016",
        "layer": "LAND_USE",
        "source_type": "agent_generated_design",
        "confidence": "medium",
        "geometry_role": "design_proposal",
        "land_use_code": "0702",
        "name_zh": "小月河场景赋能翼｜人才生活与公共服务",
        "name_en": "Xiaoyuehe scenario wing | Talent life and public services",
        "planning_zone": "scenario_wing",
        "program_role": "人才生活与公共服务",
        "design_note": "概念规划单元：真实问题、场景试验与开放评审。完整覆盖临时范围但不对应法定地块、权属或控规指标。",
        "area_sqm_declared": 500131.601
      },
      "geometry": {
        "type": "Polygon",
        "coordinates": [
          [
            [
              116.350932,
              40.0055
            ],
            [
              116.350932,
              39.98625
            ],
            [
              116.3536,
              39.98625
            ],
            [
              116.3533,
              39.99
            ],
            [
              116.3541493150685,
              40.0055
            ],
            [
              116.350932,
              40.0055
            ]
          ]
        ]
      }
    },
    {
      "type": "Feature",
      "id": "LU-017",
      "properties": {
        "id": "LU-017",
        "layer": "LAND_USE",
        "source_type": "agent_generated_design",
        "confidence": "medium",
        "geometry_role": "design_proposal",
        "land_use_code": "0802",
        "name_zh": "众智园自主创新加速区｜研发转化与开放协作",
        "name_en": "Zhongzhiyuan accelerator | Research, transfer, and open collaboration",
        "planning_zone": "north_accelerator",
        "program_role": "研发转化与开放协作",
        "design_note": "概念规划单元：全栈研发、标准治理与清河生态界面。完整覆盖临时范围但不对应法定地块、权属或控规指标。",
        "area_sqm_declared": 312379.582
      },
      "geometry": {
        "type": "Polygon",
        "coordinates": [
          [
            [
              116.343756,
              40.0055
            ],
            [
              116.343756,
              40.0265
            ],
            [
              116.3427,
              40.0265
            ],
            [
              116.3417,
              40.006
            ],
            [
              116.34166774193548,
              40.0055
            ],
            [
              116.343756,
              40.0055
            ]
          ]
        ]
      }
    },
    {
      "type": "Feature",
      "id": "LU-018",
      "properties": {
        "id": "LU-018",
        "layer": "LAND_USE",
        "source_type": "agent_generated_design",
        "confidence": "medium",
        "geometry_role": "design_proposal",
        "land_use_code": "1401",
        "name_zh": "众智园自主创新加速区｜遗产绿脊与公共气候",
        "name_en": "Zhongzhiyuan accelerator | Heritage green spine and civic climate",
        "planning_zone": "north_accelerator",
        "program_role": "遗产绿脊与公共气候",
        "design_note": "概念规划单元：全栈研发、标准治理与清河生态界面。完整覆盖临时范围但不对应法定地块、权属或控规指标。",
        "area_sqm_declared": 590384.295
      },
      "geometry": {
        "type": "Polygon",
        "coordinates": [
          [
            [
              116.343756,
              40.0055
            ],
            [
              116.34671999999999,
              40.0055
            ],
            [
              116.34671999999999,
              40.0265
            ],
            [
              116.343756,
              40.0265
            ],
            [
              116.343756,
              40.0055
            ]
          ]
        ]
      }
    },
    {
      "type": "Feature",
      "id": "LU-019",
      "properties": {
        "id": "LU-019",
        "layer": "LAND_USE",
        "source_type": "agent_generated_design",
        "confidence": "medium",
        "geometry_role": "design_proposal",
        "land_use_code": "05",
        "name_zh": "众智园自主创新加速区｜智能原生服务与复合创新",
        "name_en": "Zhongzhiyuan accelerator | AI-native service and mixed innovation",
        "planning_zone": "north_accelerator",
        "program_role": "智能原生服务与复合创新",
        "design_note": "概念规划单元：全栈研发、标准治理与清河生态界面。完整覆盖临时范围但不对应法定地块、权属或控规指标。",
        "area_sqm_declared": 838967.156
      },
      "geometry": {
        "type": "Polygon",
        "coordinates": [
          [
            [
              116.34671999999999,
              40.0055
            ],
            [
              116.350932,
              40.0055
            ],
            [
              116.350932,
              40.0265
            ],
            [
              116.34671999999999,
              40.0265
            ],
            [
              116.34671999999999,
              40.0055
            ]
          ]
        ]
      }
    },
    {
      "type": "Feature",
      "id": "LU-020",
      "properties": {
        "id": "LU-020",
        "layer": "LAND_USE",
        "source_type": "agent_generated_design",
        "confidence": "medium",
        "geometry_role": "design_proposal",
        "land_use_code": "0702",
        "name_zh": "众智园自主创新加速区｜人才生活与公共服务",
        "name_en": "Zhongzhiyuan accelerator | Talent life and public services",
        "planning_zone": "north_accelerator",
        "program_role": "人才生活与公共服务",
        "design_note": "概念规划单元：全栈研发、标准治理与清河生态界面。完整覆盖临时范围但不对应法定地块、权属或控规指标。",
        "area_sqm_declared": 755440.431
      },
      "geometry": {
        "type": "Polygon",
        "coordinates": [
          [
            [
              116.350932,
              40.0055
            ],
            [
              116.3541493150685,
              40.0055
            ],
            [
              116.3553,
              40.0265
            ],
            [
              116.350932,
              40.0265
            ],
            [
              116.350932,
              40.0055
            ]
          ]
        ]
      }
    }
  ]
}
