{
  "type": "FeatureCollection",
  "features": [
    {
      "type": "Feature",
      "id": "LU-001",
      "properties": {
        "id": "LU-001",
        "layer": "LAND_USE",
        "source_type": "agent_inferred_from_public_data",
        "confidence": "medium",
        "geometry_role": "design_proposal",
        "land_use_code": "A2",
        "land_use_type_zh": "商业服务业设施用地",
        "land_use_type_en": "Commercial Service Land",
        "label_zh": "大钟寺AI产业服务区",
        "label_en": "Dazhongsi AI Service Zone",
        "area_sqm_declared": 1799146.1
      },
      "geometry": {
        "type": "Polygon",
        "coordinates": [
          [
            [
              116.3407,
              39.939
            ],
            [
              116.3553,
              39.939
            ],
            [
              116.3553,
              39.952
            ],
            [
              116.3407,
              39.952
            ],
            [
              116.3407,
              39.939
            ]
          ]
        ]
      }
    },
    {
      "type": "Feature",
      "id": "LU-002",
      "properties": {
        "id": "LU-002",
        "layer": "LAND_USE",
        "source_type": "agent_inferred_from_public_data",
        "confidence": "medium",
        "geometry_role": "design_proposal",
        "land_use_code": "R2",
        "land_use_type_zh": "二类居住用地",
        "land_use_type_en": "Residential Land (Class II)",
        "label_zh": "南部青年居住配套区",
        "label_en": "Southern Youth Residential Zone",
        "area_sqm_declared": 1675598.4
      },
      "geometry": {
        "type": "Polygon",
        "coordinates": [
          [
            [
              116.3407,
              39.952
            ],
            [
              116.3553,
              39.952
            ],
            [
              116.3553,
              39.965
            ],
            [
              116.3427,
              39.965
            ],
            [
              116.3407,
              39.952
            ]
          ]
        ]
      }
    },
    {
      "type": "Feature",
      "id": "LU-003",
      "properties": {
        "id": "LU-003",
        "layer": "LAND_USE",
        "source_type": "agent_inferred_from_public_data",
        "confidence": "medium",
        "geometry_role": "design_proposal",
        "land_use_code": "B2",
        "land_use_type_zh": "商业用地",
        "land_use_type_en": "Business Land",
        "label_zh": "中部AI创新服务区",
        "label_en": "Central AI Innovation Service Zone",
        "area_sqm_declared": 1994591.7
      },
      "geometry": {
        "type": "Polygon",
        "coordinates": [
          [
            [
              116.3407,
              39.965
            ],
            [
              116.3427,
              39.965
            ],
            [
              116.3427,
              39.975
            ],
            [
              116.3533,
              39.99
            ],
            [
              116.3553,
              39.965
            ],
            [
              116.3407,
              39.965
            ]
          ]
        ]
      }
    },
    {
      "type": "Feature",
      "id": "LU-004",
      "properties": {
        "id": "LU-004",
        "layer": "LAND_USE",
        "source_type": "agent_inferred_from_public_data",
        "confidence": "medium",
        "geometry_role": "design_proposal",
        "land_use_code": "B2",
        "land_use_type_zh": "商业用地（AI研发混合）",
        "land_use_type_en": "Business Land (AI R&D Mixed)",
        "label_zh": "AI原点社区核心区",
        "label_en": "AI Origin Community Core",
        "area_sqm_declared": 1229265.6
      },
      "geometry": {
        "type": "Polygon",
        "coordinates": [
          [
            [
              116.3427,
              39.965
            ],
            [
              116.342,
              39.975
            ],
            [
              116.342,
              39.9935
            ],
            [
              116.353,
              39.9935
            ],
            [
              116.353,
              39.99
            ],
            [
              116.3427,
              39.975
            ],
            [
              116.3427,
              39.965
            ]
          ]
        ]
      }
    },
    {
      "type": "Feature",
      "id": "LU-005",
      "properties": {
        "id": "LU-005",
        "layer": "LAND_USE",
        "source_type": "agent_inferred_from_public_data",
        "confidence": "medium",
        "geometry_role": "design_proposal",
        "land_use_code": "R2",
        "land_use_type_zh": "二类居住用地",
        "land_use_type_en": "Residential Land (Class II)",
        "label_zh": "北部过渡居住区",
        "label_en": "Northern Transition Residential",
        "area_sqm_declared": 1172554.8
      },
      "geometry": {
        "type": "Polygon",
        "coordinates": [
          [
            [
              116.342,
              39.9935
            ],
            [
              116.353,
              39.9935
            ],
            [
              116.3533,
              39.99
            ],
            [
              116.342,
              39.975
            ],
            [
              116.342,
              39.9935
            ]
          ]
        ]
      }
    },
    {
      "type": "Feature",
      "id": "LU-006",
      "properties": {
        "id": "LU-006",
        "layer": "LAND_USE",
        "source_type": "agent_inferred_from_public_data",
        "confidence": "medium",
        "geometry_role": "design_proposal",
        "land_use_code": "M1",
        "land_use_type_zh": "工业用地（研发型）",
        "land_use_type_en": "Industrial Land (R&D)",
        "label_zh": "众智园AI研发加速区",
        "label_en": "Zhongzhiyuan AI R&D Zone",
        "area_sqm_declared": 4043401.4
      },
      "geometry": {
        "type": "Polygon",
        "coordinates": [
          [
            [
              116.342,
              39.9935
            ],
            [
              116.3533,
              39.99
            ],
            [
              116.3553,
              40.0265
            ],
            [
              116.3427,
              40.0265
            ],
            [
              116.3417,
              40.006
            ],
            [
              116.342,
              39.9935
            ]
          ]
        ]
      }
    }
  ],
  "name": "land_use"
}