{
  "type": "FeatureCollection",
  "metadata": {
    "generated_by": "provisional geometry generator (no official polygons supplied)",
    "crs": "EPSG:4326",
    "geometry_role": "provisional_constraint",
    "official_boundary": false,
    "boundary_precision": "provisional_rough",
    "note": "Provisional envelope only. Not an official redline. Recompute against EPSG:4548 when official data arrives."
  },
  "features": [
    {
      "type": "Feature",
      "id": "BLD-1-001",
      "geometry": {
        "type": "Polygon",
        "coordinates": [
          [
            [
              116.3278,
              39.97626666666667
            ],
            [
              116.32852,
              39.976506666666666
            ],
            [
              116.32924,
              39.980106666666664
            ],
            [
              116.32852,
              39.979866666666666
            ],
            [
              116.3278,
              39.97626666666667
            ]
          ]
        ]
      },
      "properties": {
        "id": "BLD-1-001",
        "layer": "buildings",
        "parcel": "大钟寺 AI 产业集聚区",
        "source_type": "provisional_generated",
        "confidence": "low",
        "geometry_role": "provisional_constraint",
        "official_boundary": false,
        "boundary_precision": "provisional_rough",
        "area_sqm_declared": 22970.3
      }
    },
    {
      "type": "Feature",
      "id": "BLD-1-002",
      "geometry": {
        "type": "Polygon",
        "coordinates": [
          [
            [
              116.32939999999999,
              39.98426666666666
            ],
            [
              116.33012,
              39.98450666666666
            ],
            [
              116.33084,
              39.98810666666666
            ],
            [
              116.33012,
              39.98786666666666
            ],
            [
              116.32939999999999,
              39.98426666666666
            ]
          ]
        ]
      },
      "properties": {
        "id": "BLD-1-002",
        "layer": "buildings",
        "parcel": "大钟寺 AI 产业集聚区",
        "source_type": "provisional_generated",
        "confidence": "low",
        "geometry_role": "provisional_constraint",
        "official_boundary": false,
        "boundary_precision": "provisional_rough",
        "area_sqm_declared": 22970.3
      }
    },
    {
      "type": "Feature",
      "id": "BLD-1-003",
      "geometry": {
        "type": "Polygon",
        "coordinates": [
          [
            [
              116.3294,
              39.9768
            ],
            [
              116.33012000000001,
              39.97704
            ],
            [
              116.33084000000001,
              39.98064
            ],
            [
              116.33012000000001,
              39.980399999999996
            ],
            [
              116.3294,
              39.9768
            ]
          ]
        ]
      },
      "properties": {
        "id": "BLD-1-003",
        "layer": "buildings",
        "parcel": "大钟寺 AI 产业集聚区",
        "source_type": "provisional_generated",
        "confidence": "low",
        "geometry_role": "provisional_constraint",
        "official_boundary": false,
        "boundary_precision": "provisional_rough",
        "area_sqm_declared": 22970.3
      }
    },
    {
      "type": "Feature",
      "id": "BLD-1-004",
      "geometry": {
        "type": "Polygon",
        "coordinates": [
          [
            [
              116.331,
              39.98479999999999
            ],
            [
              116.33172,
              39.98504
            ],
            [
              116.33244,
              39.98864
            ],
            [
              116.33172,
              39.98839999999999
            ],
            [
              116.331,
              39.98479999999999
            ]
          ]
        ]
      },
      "properties": {
        "id": "BLD-1-004",
        "layer": "buildings",
        "parcel": "大钟寺 AI 产业集聚区",
        "source_type": "provisional_generated",
        "confidence": "low",
        "geometry_role": "provisional_constraint",
        "official_boundary": false,
        "boundary_precision": "provisional_rough",
        "area_sqm_declared": 22970.3
      }
    },
    {
      "type": "Feature",
      "id": "BLD-2-005",
      "geometry": {
        "type": "Polygon",
        "coordinates": [
          [
            [
              116.3318,
              39.9776
            ],
            [
              116.33252,
              39.97784
            ],
            [
              116.33324,
              39.98144
            ],
            [
              116.33252,
              39.9812
            ],
            [
              116.3318,
              39.9776
            ]
          ]
        ]
      },
      "properties": {
        "id": "BLD-2-005",
        "layer": "buildings",
        "parcel": "产业研发组团",
        "source_type": "provisional_generated",
        "confidence": "low",
        "geometry_role": "provisional_constraint",
        "official_boundary": false,
        "boundary_precision": "provisional_rough",
        "area_sqm_declared": 22970.3
      }
    },
    {
      "type": "Feature",
      "id": "BLD-2-006",
      "geometry": {
        "type": "Polygon",
        "coordinates": [
          [
            [
              116.3334,
              39.9856
            ],
            [
              116.33412,
              39.985839999999996
            ],
            [
              116.33484,
              39.989439999999995
            ],
            [
              116.33412,
              39.9892
            ],
            [
              116.3334,
              39.9856
            ]
          ]
        ]
      },
      "properties": {
        "id": "BLD-2-006",
        "layer": "buildings",
        "parcel": "产业研发组团",
        "source_type": "provisional_generated",
        "confidence": "low",
        "geometry_role": "provisional_constraint",
        "official_boundary": false,
        "boundary_precision": "provisional_rough",
        "area_sqm_declared": 22970.3
      }
    },
    {
      "type": "Feature",
      "id": "BLD-2-007",
      "geometry": {
        "type": "Polygon",
        "coordinates": [
          [
            [
              116.3334,
              39.97813333333333
            ],
            [
              116.33412,
              39.97837333333334
            ],
            [
              116.33484,
              39.981973333333336
            ],
            [
              116.33412,
              39.98173333333333
            ],
            [
              116.3334,
              39.97813333333333
            ]
          ]
        ]
      },
      "properties": {
        "id": "BLD-2-007",
        "layer": "buildings",
        "parcel": "产业研发组团",
        "source_type": "provisional_generated",
        "confidence": "low",
        "geometry_role": "provisional_constraint",
        "official_boundary": false,
        "boundary_precision": "provisional_rough",
        "area_sqm_declared": 22970.3
      }
    },
    {
      "type": "Feature",
      "id": "BLD-2-008",
      "geometry": {
        "type": "Polygon",
        "coordinates": [
          [
            [
              116.335,
              39.98613333333333
            ],
            [
              116.33572,
              39.98637333333333
            ],
            [
              116.33644,
              39.98997333333333
            ],
            [
              116.33572,
              39.98973333333333
            ],
            [
              116.335,
              39.98613333333333
            ]
          ]
        ]
      },
      "properties": {
        "id": "BLD-2-008",
        "layer": "buildings",
        "parcel": "产业研发组团",
        "source_type": "provisional_generated",
        "confidence": "low",
        "geometry_role": "provisional_constraint",
        "official_boundary": false,
        "boundary_precision": "provisional_rough",
        "area_sqm_declared": 22970.3
      }
    },
    {
      "type": "Feature",
      "id": "BLD-3-009",
      "geometry": {
        "type": "Polygon",
        "coordinates": [
          [
            [
              116.33579999999999,
              39.97893333333334
            ],
            [
              116.33652,
              39.979173333333335
            ],
            [
              116.33724,
              39.982773333333334
            ],
            [
              116.33652,
              39.982533333333336
            ],
            [
              116.33579999999999,
              39.97893333333334
            ]
          ]
        ]
      },
      "properties": {
        "id": "BLD-3-009",
        "layer": "buildings",
        "parcel": "站城商业商务组团",
        "source_type": "provisional_generated",
        "confidence": "low",
        "geometry_role": "provisional_constraint",
        "official_boundary": false,
        "boundary_precision": "provisional_rough",
        "area_sqm_declared": 22970.3
      }
    },
    {
      "type": "Feature",
      "id": "BLD-3-010",
      "geometry": {
        "type": "Polygon",
        "coordinates": [
          [
            [
              116.33739999999999,
              39.98693333333333
            ],
            [
              116.33811999999999,
              39.98717333333333
            ],
            [
              116.33883999999999,
              39.99077333333333
            ],
            [
              116.33811999999999,
              39.99053333333333
            ],
            [
              116.33739999999999,
              39.98693333333333
            ]
          ]
        ]
      },
      "properties": {
        "id": "BLD-3-010",
        "layer": "buildings",
        "parcel": "站城商业商务组团",
        "source_type": "provisional_generated",
        "confidence": "low",
        "geometry_role": "provisional_constraint",
        "official_boundary": false,
        "boundary_precision": "provisional_rough",
        "area_sqm_declared": 22970.3
      }
    },
    {
      "type": "Feature",
      "id": "BLD-3-011",
      "geometry": {
        "type": "Polygon",
        "coordinates": [
          [
            [
              116.3374,
              39.97946666666667
            ],
            [
              116.33812,
              39.979706666666665
            ],
            [
              116.33884,
              39.983306666666664
            ],
            [
              116.33812,
              39.983066666666666
            ],
            [
              116.3374,
              39.97946666666667
            ]
          ]
        ]
      },
      "properties": {
        "id": "BLD-3-011",
        "layer": "buildings",
        "parcel": "站城商业商务组团",
        "source_type": "provisional_generated",
        "confidence": "low",
        "geometry_role": "provisional_constraint",
        "official_boundary": false,
        "boundary_precision": "provisional_rough",
        "area_sqm_declared": 22970.3
      }
    },
    {
      "type": "Feature",
      "id": "BLD-3-012",
      "geometry": {
        "type": "Polygon",
        "coordinates": [
          [
            [
              116.339,
              39.98746666666666
            ],
            [
              116.33972,
              39.98770666666666
            ],
            [
              116.34044,
              39.99130666666666
            ],
            [
              116.33972,
              39.99106666666666
            ],
            [
              116.339,
              39.98746666666666
            ]
          ]
        ]
      },
      "properties": {
        "id": "BLD-3-012",
        "layer": "buildings",
        "parcel": "站城商业商务组团",
        "source_type": "provisional_generated",
        "confidence": "low",
        "geometry_role": "provisional_constraint",
        "official_boundary": false,
        "boundary_precision": "provisional_rough",
        "area_sqm_declared": 22970.3
      }
    },
    {
      "type": "Feature",
      "id": "BLD-4-013",
      "geometry": {
        "type": "Polygon",
        "coordinates": [
          [
            [
              116.3398,
              39.980266666666665
            ],
            [
              116.34052,
              39.98050666666666
            ],
            [
              116.34124,
              39.98410666666666
            ],
            [
              116.34052,
              39.983866666666664
            ],
            [
              116.3398,
              39.980266666666665
            ]
          ]
        ]
      },
      "properties": {
        "id": "BLD-4-013",
        "layer": "buildings",
        "parcel": "知春苑 AI 加速度区",
        "source_type": "provisional_generated",
        "confidence": "low",
        "geometry_role": "provisional_constraint",
        "official_boundary": false,
        "boundary_precision": "provisional_rough",
        "area_sqm_declared": 22970.3
      }
    },
    {
      "type": "Feature",
      "id": "BLD-4-014",
      "geometry": {
        "type": "Polygon",
        "coordinates": [
          [
            [
              116.3414,
              39.98826666666666
            ],
            [
              116.34212,
              39.98850666666666
            ],
            [
              116.34284,
              39.99210666666666
            ],
            [
              116.34212,
              39.99186666666666
            ],
            [
              116.3414,
              39.98826666666666
            ]
          ]
        ]
      },
      "properties": {
        "id": "BLD-4-014",
        "layer": "buildings",
        "parcel": "知春苑 AI 加速度区",
        "source_type": "provisional_generated",
        "confidence": "low",
        "geometry_role": "provisional_constraint",
        "official_boundary": false,
        "boundary_precision": "provisional_rough",
        "area_sqm_declared": 22970.3
      }
    },
    {
      "type": "Feature",
      "id": "BLD-4-015",
      "geometry": {
        "type": "Polygon",
        "coordinates": [
          [
            [
              116.34140000000001,
              39.980799999999995
            ],
            [
              116.34212000000001,
              39.98104
            ],
            [
              116.34284000000001,
              39.98464
            ],
            [
              116.34212000000001,
              39.984399999999994
            ],
            [
              116.34140000000001,
              39.980799999999995
            ]
          ]
        ]
      },
      "properties": {
        "id": "BLD-4-015",
        "layer": "buildings",
        "parcel": "知春苑 AI 加速度区",
        "source_type": "provisional_generated",
        "confidence": "low",
        "geometry_role": "provisional_constraint",
        "official_boundary": false,
        "boundary_precision": "provisional_rough",
        "area_sqm_declared": 22970.3
      }
    },
    {
      "type": "Feature",
      "id": "BLD-4-016",
      "geometry": {
        "type": "Polygon",
        "coordinates": [
          [
            [
              116.343,
              39.98879999999999
            ],
            [
              116.34372,
              39.989039999999996
            ],
            [
              116.34444,
              39.992639999999994
            ],
            [
              116.34372,
              39.99239999999999
            ],
            [
              116.343,
              39.98879999999999
            ]
          ]
        ]
      },
      "properties": {
        "id": "BLD-4-016",
        "layer": "buildings",
        "parcel": "知春苑 AI 加速度区",
        "source_type": "provisional_generated",
        "confidence": "low",
        "geometry_role": "provisional_constraint",
        "official_boundary": false,
        "boundary_precision": "provisional_rough",
        "area_sqm_declared": 22970.3
      }
    },
    {
      "type": "Feature",
      "id": "BLD-5-017",
      "geometry": {
        "type": "Polygon",
        "coordinates": [
          [
            [
              116.3438,
              39.9816
            ],
            [
              116.34452,
              39.98184
            ],
            [
              116.34524,
              39.98544
            ],
            [
              116.34452,
              39.9852
            ],
            [
              116.3438,
              39.9816
            ]
          ]
        ]
      },
      "properties": {
        "id": "BLD-5-017",
        "layer": "buildings",
        "parcel": "京张铁路遗址公园带",
        "source_type": "provisional_generated",
        "confidence": "low",
        "geometry_role": "provisional_constraint",
        "official_boundary": false,
        "boundary_precision": "provisional_rough",
        "area_sqm_declared": 22970.3
      }
    },
    {
      "type": "Feature",
      "id": "BLD-5-018",
      "geometry": {
        "type": "Polygon",
        "coordinates": [
          [
            [
              116.3454,
              39.989599999999996
            ],
            [
              116.34612,
              39.989839999999994
            ],
            [
              116.34684,
              39.99343999999999
            ],
            [
              116.34612,
              39.993199999999995
            ],
            [
              116.3454,
              39.989599999999996
            ]
          ]
        ]
      },
      "properties": {
        "id": "BLD-5-018",
        "layer": "buildings",
        "parcel": "京张铁路遗址公园带",
        "source_type": "provisional_generated",
        "confidence": "low",
        "geometry_role": "provisional_constraint",
        "official_boundary": false,
        "boundary_precision": "provisional_rough",
        "area_sqm_declared": 22970.3
      }
    },
    {
      "type": "Feature",
      "id": "BLD-5-019",
      "geometry": {
        "type": "Polygon",
        "coordinates": [
          [
            [
              116.3454,
              39.98213333333333
            ],
            [
              116.34612,
              39.982373333333335
            ],
            [
              116.34684,
              39.985973333333334
            ],
            [
              116.34612,
              39.98573333333333
            ],
            [
              116.3454,
              39.98213333333333
            ]
          ]
        ]
      },
      "properties": {
        "id": "BLD-5-019",
        "layer": "buildings",
        "parcel": "京张铁路遗址公园带",
        "source_type": "provisional_generated",
        "confidence": "low",
        "geometry_role": "provisional_constraint",
        "official_boundary": false,
        "boundary_precision": "provisional_rough",
        "area_sqm_declared": 22970.3
      }
    },
    {
      "type": "Feature",
      "id": "BLD-5-020",
      "geometry": {
        "type": "Polygon",
        "coordinates": [
          [
            [
              116.347,
              39.990133333333326
            ],
            [
              116.34772,
              39.99037333333333
            ],
            [
              116.34844,
              39.99397333333333
            ],
            [
              116.34772,
              39.993733333333324
            ],
            [
              116.347,
              39.990133333333326
            ]
          ]
        ]
      },
      "properties": {
        "id": "BLD-5-020",
        "layer": "buildings",
        "parcel": "京张铁路遗址公园带",
        "source_type": "provisional_generated",
        "confidence": "low",
        "geometry_role": "provisional_constraint",
        "official_boundary": false,
        "boundary_precision": "provisional_rough",
        "area_sqm_declared": 22970.3
      }
    },
    {
      "type": "Feature",
      "id": "BLD-6-021",
      "geometry": {
        "type": "Polygon",
        "coordinates": [
          [
            [
              116.34779999999999,
              39.982933333333335
            ],
            [
              116.34852,
              39.98317333333333
            ],
            [
              116.34924,
              39.98677333333333
            ],
            [
              116.34852,
              39.986533333333334
            ],
            [
              116.34779999999999,
              39.982933333333335
            ]
          ]
        ]
      },
      "properties": {
        "id": "BLD-6-021",
        "layer": "buildings",
        "parcel": "五道口 AI 原生社区",
        "source_type": "provisional_generated",
        "confidence": "low",
        "geometry_role": "provisional_constraint",
        "official_boundary": false,
        "boundary_precision": "provisional_rough",
        "area_sqm_declared": 22970.3
      }
    },
    {
      "type": "Feature",
      "id": "BLD-6-022",
      "geometry": {
        "type": "Polygon",
        "coordinates": [
          [
            [
              116.34939999999999,
              39.99093333333333
            ],
            [
              116.35011999999999,
              39.99117333333333
            ],
            [
              116.35083999999999,
              39.99477333333333
            ],
            [
              116.35011999999999,
              39.99453333333333
            ],
            [
              116.34939999999999,
              39.99093333333333
            ]
          ]
        ]
      },
      "properties": {
        "id": "BLD-6-022",
        "layer": "buildings",
        "parcel": "五道口 AI 原生社区",
        "source_type": "provisional_generated",
        "confidence": "low",
        "geometry_role": "provisional_constraint",
        "official_boundary": false,
        "boundary_precision": "provisional_rough",
        "area_sqm_declared": 22970.3
      }
    },
    {
      "type": "Feature",
      "id": "BLD-6-023",
      "geometry": {
        "type": "Polygon",
        "coordinates": [
          [
            [
              116.3494,
              39.983466666666665
            ],
            [
              116.35012,
              39.98370666666667
            ],
            [
              116.35084,
              39.98730666666667
            ],
            [
              116.35012,
              39.987066666666664
            ],
            [
              116.3494,
              39.983466666666665
            ]
          ]
        ]
      },
      "properties": {
        "id": "BLD-6-023",
        "layer": "buildings",
        "parcel": "五道口 AI 原生社区",
        "source_type": "provisional_generated",
        "confidence": "low",
        "geometry_role": "provisional_constraint",
        "official_boundary": false,
        "boundary_precision": "provisional_rough",
        "area_sqm_declared": 22970.3
      }
    },
    {
      "type": "Feature",
      "id": "BLD-6-024",
      "geometry": {
        "type": "Polygon",
        "coordinates": [
          [
            [
              116.351,
              39.99146666666666
            ],
            [
              116.35172,
              39.991706666666666
            ],
            [
              116.35244,
              39.995306666666664
            ],
            [
              116.35172,
              39.99506666666666
            ],
            [
              116.351,
              39.99146666666666
            ]
          ]
        ]
      },
      "properties": {
        "id": "BLD-6-024",
        "layer": "buildings",
        "parcel": "五道口 AI 原生社区",
        "source_type": "provisional_generated",
        "confidence": "low",
        "geometry_role": "provisional_constraint",
        "official_boundary": false,
        "boundary_precision": "provisional_rough",
        "area_sqm_declared": 22970.3
      }
    }
  ]
}