{
  "type": "FeatureCollection",
  "metadata": {
    "generated_by": "provisional geometry generator (no official polygons supplied)",
    "crs": "EPSG:4326",
    "geometry_role": "provisional_constraint",
    "official_boundary": false,
    "boundary_precision": "provisional_rough",
    "note": "Provisional envelope only. Not an official redline. Recompute against EPSG:4548 when official data arrives."
  },
  "features": [
    {
      "type": "Feature",
      "id": "CONST-RAIL",
      "geometry": {
        "type": "LineString",
        "coordinates": [
          [
            116.32799999999999,
            39.980999999999995
          ],
          [
            116.33519999999999,
            39.983399999999996
          ],
          [
            116.34119999999999,
            39.9854
          ],
          [
            116.34719999999999,
            39.987399999999994
          ],
          [
            116.35199999999999,
            39.989
          ]
        ]
      },
      "properties": {
        "id": "CONST-RAIL",
        "layer": "constraints",
        "name": "现状京张铁路遗址 (保护约束)",
        "source_type": "provisional_generated",
        "confidence": "medium",
        "geometry_role": "provisional_constraint",
        "official_boundary": false,
        "boundary_precision": "provisional_rough"
      }
    }
  ]
}