{
  "type": "FeatureCollection",
  "metadata": {
    "generated_by": "provisional geometry generator (no official polygons supplied)",
    "crs": "EPSG:4326",
    "geometry_role": "provisional_constraint",
    "official_boundary": false,
    "boundary_precision": "provisional_rough",
    "note": "Provisional envelope only. Not an official redline. Recompute against EPSG:4548 when official data arrives."
  },
  "features": [
    {
      "type": "Feature",
      "id": "LU-001",
      "geometry": {
        "type": "Polygon",
        "coordinates": [
          [
            [
              116.326,
              39.971
            ],
            [
              116.33,
              39.97233333333333
            ],
            [
              116.334,
              39.992333333333335
            ],
            [
              116.33,
              39.991
            ],
            [
              116.326,
              39.971
            ]
          ]
        ]
      },
      "properties": {
        "id": "LU-001",
        "layer": "land_use",
        "land_use_code": "M4",
        "land_use_name": "AI 产业研发用地 (大钟寺 AI 产业集聚区)",
        "parcel_label": "大钟寺 AI 产业集聚区",
        "source_type": "provisional_generated",
        "confidence": "low",
        "geometry_role": "provisional_constraint",
        "official_boundary": false,
        "boundary_precision": "provisional_rough",
        "area_sqm_declared": 708961.3
      }
    },
    {
      "type": "Feature",
      "id": "LU-002",
      "geometry": {
        "type": "Polygon",
        "coordinates": [
          [
            [
              116.33,
              39.97233333333333
            ],
            [
              116.33399999999999,
              39.97366666666667
            ],
            [
              116.338,
              39.99366666666667
            ],
            [
              116.334,
              39.992333333333335
            ],
            [
              116.33,
              39.97233333333333
            ]
          ]
        ]
      },
      "properties": {
        "id": "LU-002",
        "layer": "land_use",
        "land_use_code": "M4",
        "land_use_name": "AI 产业研发用地",
        "parcel_label": "产业研发组团",
        "source_type": "provisional_generated",
        "confidence": "low",
        "geometry_role": "provisional_constraint",
        "official_boundary": false,
        "boundary_precision": "provisional_rough",
        "area_sqm_declared": 708961.3
      }
    },
    {
      "type": "Feature",
      "id": "LU-003",
      "geometry": {
        "type": "Polygon",
        "coordinates": [
          [
            [
              116.33399999999999,
              39.97366666666667
            ],
            [
              116.338,
              39.974999999999994
            ],
            [
              116.342,
              39.995
            ],
            [
              116.338,
              39.99366666666667
            ],
            [
              116.33399999999999,
              39.97366666666667
            ]
          ]
        ]
      },
      "properties": {
        "id": "LU-003",
        "layer": "land_use",
        "land_use_code": "B1B2",
        "land_use_name": "商业商务混合用地",
        "parcel_label": "站城商业商务组团",
        "source_type": "provisional_generated",
        "confidence": "low",
        "geometry_role": "provisional_constraint",
        "official_boundary": false,
        "boundary_precision": "provisional_rough",
        "area_sqm_declared": 708961.3
      }
    },
    {
      "type": "Feature",
      "id": "LU-004",
      "geometry": {
        "type": "Polygon",
        "coordinates": [
          [
            [
              116.338,
              39.974999999999994
            ],
            [
              116.342,
              39.97633333333333
            ],
            [
              116.346,
              39.99633333333333
            ],
            [
              116.342,
              39.995
            ],
            [
              116.338,
              39.974999999999994
            ]
          ]
        ]
      },
      "properties": {
        "id": "LU-004",
        "layer": "land_use",
        "land_use_code": "M4",
        "land_use_name": "AI 加速度区 (知春苑) 创新研发",
        "parcel_label": "知春苑 AI 加速度区",
        "source_type": "provisional_generated",
        "confidence": "low",
        "geometry_role": "provisional_constraint",
        "official_boundary": false,
        "boundary_precision": "provisional_rough",
        "area_sqm_declared": 708961.3
      }
    },
    {
      "type": "Feature",
      "id": "LU-005",
      "geometry": {
        "type": "Polygon",
        "coordinates": [
          [
            [
              116.342,
              39.97633333333333
            ],
            [
              116.34599999999999,
              39.977666666666664
            ],
            [
              116.35,
              39.99766666666667
            ],
            [
              116.346,
              39.99633333333333
            ],
            [
              116.342,
              39.97633333333333
            ]
          ]
        ]
      },
      "properties": {
        "id": "LU-005",
        "layer": "land_use",
        "land_use_code": "G1A",
        "land_use_name": "铁路遗址公园绿地 / 公共空间",
        "parcel_label": "京张铁路遗址公园带",
        "source_type": "provisional_generated",
        "confidence": "low",
        "geometry_role": "provisional_constraint",
        "official_boundary": false,
        "boundary_precision": "provisional_rough",
        "area_sqm_declared": 708961.3
      }
    },
    {
      "type": "Feature",
      "id": "LU-006",
      "geometry": {
        "type": "Polygon",
        "coordinates": [
          [
            [
              116.34599999999999,
              39.977666666666664
            ],
            [
              116.35,
              39.979
            ],
            [
              116.354,
              39.999
            ],
            [
              116.35,
              39.99766666666667
            ],
            [
              116.34599999999999,
              39.977666666666664
            ]
          ]
        ]
      },
      "properties": {
        "id": "LU-006",
        "layer": "land_use",
        "land_use_code": "R2B1",
        "land_use_name": "AI 原生社区 (混合居住+商业, 五道口)",
        "parcel_label": "五道口 AI 原生社区",
        "source_type": "provisional_generated",
        "confidence": "low",
        "geometry_role": "provisional_constraint",
        "official_boundary": false,
        "boundary_precision": "provisional_rough",
        "area_sqm_declared": 708961.3
      }
    }
  ]
}