{
 "type": "FeatureCollection",
 "name": "public_space",
 "features": [
  {
   "type": "Feature",
   "id": "PS-LM00",
   "properties": {
    "id": "PS-LM00",
    "layer": "PUBLIC_SPACE",
    "scenario_type": "ai_landmark",
    "label_zh": "智核集散广场",
    "landmark_id": "SMART-CORE-PLAZA",
    "official_boundary": false,
    "geometry_role": "design_proposal",
    "confidence": "low",
    "source_type": "agent_generated_design"
   },
   "geometry": {
    "type": "Polygon",
    "coordinates": [
     [
      [
       116.3482689743136,
       40.01665744741711
      ],
      [
       116.3482672434922,
       40.01683938778861
      ],
      [
       116.34873103733509,
       40.01684199523838
      ],
      [
       116.34873276692498,
       40.01666005485017
      ],
      [
       116.3482689743136,
       40.01665744741711
      ]
     ]
    ]
   }
  },
  {
   "type": "Feature",
   "id": "PS-LM01",
   "properties": {
    "id": "PS-LM01",
    "layer": "PUBLIC_SPACE",
    "scenario_type": "ai_landmark",
    "label_zh": "AI出行服务大厅",
    "landmark_id": "AI-MOBILITY-HALL",
    "official_boundary": false,
    "geometry_role": "design_proposal",
    "confidence": "low",
    "source_type": "agent_generated_design"
   },
   "geometry": {
    "type": "Polygon",
    "coordinates": [
     [
      [
       116.34726906438364,
       39.98840773532251
      ],
      [
       116.34726733263892,
       39.98858967654732
      ],
      [
       116.34773093528612,
       39.988592286478045
      ],
      [
       116.34773266580109,
       39.98841034523651
      ],
      [
       116.34726906438364,
       39.98840773532251
      ]
     ]
    ]
   }
  },
  {
   "type": "Feature",
   "id": "PS-LM02",
   "properties": {
    "id": "PS-LM02",
    "layer": "PUBLIC_SPACE",
    "scenario_type": "ai_landmark",
    "label_zh": "智慧换乘走廊",
    "landmark_id": "SMART-TRANSIT-LINK",
    "official_boundary": false,
    "geometry_role": "design_proposal",
    "confidence": "low",
    "source_type": "agent_generated_design"
   },
   "geometry": {
    "type": "Polygon",
    "coordinates": [
     [
      [
       116.34826919933026,
       39.94682786821142
      ],
      [
       116.34826747278167,
       39.94700981078146
      ],
      [
       116.34873079473404,
       39.947012414475836
      ],
      [
       116.34873252005538,
       39.9468304718891
      ],
      [
       116.34826919933026,
       39.94682786821142
      ]
     ]
    ]
   }
  },
  {
   "type": "Feature",
   "id": "PS-SN00",
   "properties": {
    "id": "PS-SN00",
    "layer": "PUBLIC_SPACE",
    "scenario_type": "scenario_node",
    "label_zh": "AI场景节点",
    "official_boundary": false,
    "geometry_role": "design_proposal",
    "confidence": "low",
    "source_type": "agent_generated_design"
   },
   "geometry": {
    "type": "Polygon",
    "coordinates": [
     [
      [
       116.34713177925815,
       40.008578318103055
      ],
      [
       116.34712663143786,
       40.00911865405523
      ],
      [
       116.34782930591787,
       40.00912261050086
      ],
      [
       116.34783444819863,
       40.00858227447342
      ],
      [
       116.34713177925815,
       40.008578318103055
      ]
     ]
    ]
   }
  },
  {
   "type": "Feature",
   "id": "PS-SN01",
   "properties": {
    "id": "PS-SN01",
    "layer": "PUBLIC_SPACE",
    "scenario_type": "scenario_node",
    "label_zh": "AI场景节点",
    "official_boundary": false,
    "geometry_role": "design_proposal",
    "confidence": "low",
    "source_type": "agent_generated_design"
   },
   "geometry": {
    "type": "Polygon",
    "coordinates": [
     [
      [
       116.34723461508077,
       40.00070788084921
      ],
      [
       116.34722732547348,
       40.00147335782478
      ],
      [
       116.34822267001508,
       40.00147895978438
      ],
      [
       116.34822994850914,
       40.00071348265782
      ],
      [
       116.34723461508077,
       40.00070788084921
      ]
     ]
    ]
   }
  },
  {
   "type": "Feature",
   "id": "PS-SN02",
   "properties": {
    "id": "PS-SN02",
    "layer": "PUBLIC_SPACE",
    "scenario_type": "scenario_node",
    "label_zh": "AI场景节点",
    "official_boundary": false,
    "geometry_role": "design_proposal",
    "confidence": "low",
    "source_type": "agent_generated_design"
   },
   "geometry": {
    "type": "Polygon",
    "coordinates": [
     [
      [
       116.3473374150249,
       39.992837432663265
      ],
      [
       116.34732798547465,
       39.99382805127585
      ],
      [
       116.34861593485515,
       39.99383529698322
      ],
      [
       116.34862534580084,
       39.99284467811789
      ],
      [
       116.3473374150249,
       39.992837432663265
      ]
     ]
    ]
   }
  },
  {
   "type": "Feature",
   "id": "PS-SN03",
   "properties": {
    "id": "PS-SN03",
    "layer": "PUBLIC_SPACE",
    "scenario_type": "scenario_node",
    "label_zh": "AI场景节点",
    "official_boundary": false,
    "geometry_role": "design_proposal",
    "confidence": "low",
    "source_type": "agent_generated_design"
   },
   "geometry": {
    "type": "Polygon",
    "coordinates": [
     [
      [
       116.34785589557895,
       39.98530681863663
      ],
      [
       116.34785075770095,
       39.98584715684292
      ],
      [
       116.34855319380716,
       39.98585110700209
      ],
      [
       116.34855832615203,
       39.985310768720616
      ],
      [
       116.34785589557895,
       39.98530681863663
      ]
     ]
    ]
   }
  },
  {
   "type": "Feature",
   "id": "PS-SN04",
   "properties": {
    "id": "PS-SN04",
    "layer": "PUBLIC_SPACE",
    "scenario_type": "scenario_node",
    "label_zh": "AI场景节点",
    "official_boundary": false,
    "geometry_role": "design_proposal",
    "confidence": "low",
    "source_type": "agent_generated_design"
   },
   "geometry": {
    "type": "Polygon",
    "coordinates": [
     [
      [
       116.34790271263884,
       39.97743541066282
      ],
      [
       116.34789543648722,
       39.978200890823146
      ],
      [
       116.34889044343683,
       39.97820648435974
      ],
      [
       116.34889770848812,
       39.97744100404862
      ],
      [
       116.34790271263884,
       39.97743541066282
      ]
     ]
    ]
   }
  },
  {
   "type": "Feature",
   "id": "PS-SN05",
   "properties": {
    "id": "PS-SN05",
    "layer": "PUBLIC_SPACE",
    "scenario_type": "scenario_node",
    "label_zh": "AI场景节点",
    "official_boundary": false,
    "geometry_role": "design_proposal",
    "confidence": "low",
    "source_type": "agent_generated_design"
   },
   "geometry": {
    "type": "Polygon",
    "coordinates": [
     [
      [
       116.34794950669915,
       39.96956399193131
      ],
      [
       116.3479400937484,
       39.97055461465425
      ],
      [
       116.34922760638001,
       39.970561850085765
      ],
      [
       116.34923700074779,
       39.96957122711038
      ],
      [
       116.34794950669915,
       39.96956399193131
      ]
     ]
    ]
   }
  },
  {
   "type": "Feature",
   "id": "PS-SN06",
   "properties": {
    "id": "PS-SN06",
    "layer": "PUBLIC_SPACE",
    "scenario_type": "scenario_node",
    "label_zh": "AI场景节点",
    "official_boundary": false,
    "geometry_role": "design_proposal",
    "confidence": "low",
    "source_type": "agent_generated_design"
   },
   "geometry": {
    "type": "Polygon",
    "coordinates": [
     [
      [
       116.34843194018745,
       39.96203274281279
      ],
      [
       116.34842681107442,
       39.96257308325715
      ],
      [
       116.34912900903774,
       39.96257702803008
      ],
      [
       116.34913413262409,
       39.96203668751065
      ],
      [
       116.34843194018745,
       39.96203274281279
      ]
     ]
    ]
   }
  },
  {
   "type": "Feature",
   "id": "PS-SN07",
   "properties": {
    "id": "PS-SN07",
    "layer": "PUBLIC_SPACE",
    "scenario_type": "scenario_node",
    "label_zh": "AI场景节点",
    "official_boundary": false,
    "geometry_role": "design_proposal",
    "confidence": "low",
    "source_type": "agent_generated_design"
   },
   "geometry": {
    "type": "Polygon",
    "coordinates": [
     [
      [
       116.34847863908882,
       39.954161302452476
      ],
      [
       116.34847137534939,
       39.95492678578321
      ],
      [
       116.3494660450587,
       39.954932371691974
      ],
      [
       116.3494732977107,
       39.95416688821063
      ],
      [
       116.34847863908882,
       39.954161302452476
      ]
     ]
    ]
   }
  }
 ]
}