{
  "type": "FeatureCollection",
  "name": "living_systems_response_prototype_v0_1",
  "features": [
    {
      "type": "Feature",
      "id": "GREEN-001",
      "properties": {
        "id": "GREEN-001",
        "layer": "GREEN_SPACE",
        "source_type": "agent_generated_design",
        "confidence": "low",
        "geometry_role": "design_proposal",
        "land_use_code": "1401",
        "name_zh": "既有河园接口与生境审查原型",
        "name_en": "Existing park-water interface and living-systems review prototype",
        "evidence_status": "CONCEPT_REQUIRES_EXISTING_PROJECT_AND_ECOLOGY_SURVEY",
        "renewal_action": "COORDINATE_REPAIR_DO_NOT_DUPLICATE",
        "precision_note": "Concept envelope only; not existing green geometry, water line, ecology or a new park boundary.",
        "area_sqm_declared": 1408600.768
      },
      "geometry": {
        "type": "Polygon",
        "coordinates": [
          [
            [
              116.34438,
              39.953
            ],
            [
              116.34438,
              40.012499999999996
            ],
            [
              116.346876,
              40.012499999999996
            ],
            [
              116.346876,
              39.953
            ],
            [
              116.34438,
              39.953
            ]
          ]
        ]
      }
    }
  ]
}
