{
  "type": "FeatureCollection",
  "name": "provisional_functional_response_partition_v0_1",
  "features": [
    {
      "type": "Feature",
      "id": "LU-001",
      "properties": {
        "id": "LU-001",
        "layer": "LAND_USE",
        "source_type": "agent_generated_design",
        "confidence": "low",
        "geometry_role": "design_proposal",
        "land_use_code": "0802",
        "name_zh": "现状核验与适应性创新响应区",
        "name_en": "Survey-gated adaptive innovation response zone",
        "evidence_status": "SURVEY_ONLY_UNKNOWN",
        "renewal_action": "RETAIN_THEN_ADAPT_IF_VERIFIED",
        "precision_note": "Conceptual topology partition, not current use, parcel or statutory land-use change.",
        "area_sqm_declared": 2674562.492
      },
      "geometry": {
        "type": "Polygon",
        "coordinates": [
          [
            [
              116.3407,
              39.939
            ],
            [
              116.3397,
              39.975
            ],
            [
              116.3417,
              40.006
            ],
            [
              116.3427,
              40.0265
            ],
            [
              116.344068,
              40.0265
            ],
            [
              116.344068,
              39.939
            ],
            [
              116.3407,
              39.939
            ]
          ]
        ]
      }
    },
    {
      "type": "Feature",
      "id": "LU-002",
      "properties": {
        "id": "LU-002",
        "layer": "LAND_USE",
        "source_type": "agent_generated_design",
        "confidence": "low",
        "geometry_role": "design_proposal",
        "land_use_code": "1401",
        "name_zh": "既有河园与项目接口响应区",
        "name_en": "Existing park-water and project interface response zone",
        "evidence_status": "MIXED_BUILT_AND_PROJECT_STATUS_REQUIRES_ITEM_CHECK",
        "renewal_action": "RETAIN_COORDINATE_REPAIR",
        "precision_note": "Conceptual topology partition, not mapped existing green space or a new green statutory zone.",
        "area_sqm_declared": 2589339.239
      },
      "geometry": {
        "type": "Polygon",
        "coordinates": [
          [
            [
              116.344068,
              39.939
            ],
            [
              116.344068,
              40.0265
            ],
            [
              116.347188,
              40.0265
            ],
            [
              116.347188,
              39.939
            ],
            [
              116.344068,
              39.939
            ]
          ]
        ]
      }
    },
    {
      "type": "Feature",
      "id": "LU-003",
      "properties": {
        "id": "LU-003",
        "layer": "LAND_USE",
        "source_type": "agent_generated_design",
        "confidence": "low",
        "geometry_role": "design_proposal",
        "land_use_code": "05",
        "name_zh": "公开侧混合服务与接口响应区",
        "name_en": "Public-side mixed service and interface response zone",
        "evidence_status": "SURVEY_ONLY_UNKNOWN",
        "renewal_action": "RETAIN_REPAIR_OPEN_EDGE_CONDITIONALLY",
        "precision_note": "Conceptual topology partition, not a current commercial-use claim.",
        "area_sqm_declared": 3366138.181
      },
      "geometry": {
        "type": "Polygon",
        "coordinates": [
          [
            [
              116.347188,
              39.939
            ],
            [
              116.347188,
              40.0265
            ],
            [
              116.351244,
              40.0265
            ],
            [
              116.351244,
              39.939
            ],
            [
              116.347188,
              39.939
            ]
          ]
        ]
      }
    },
    {
      "type": "Feature",
      "id": "LU-004",
      "properties": {
        "id": "LU-004",
        "layer": "LAND_USE",
        "source_type": "agent_generated_design",
        "confidence": "low",
        "geometry_role": "design_proposal",
        "land_use_code": "0702",
        "name_zh": "日常城市连续性与公共服务响应区",
        "name_en": "Ordinary-city continuity and public-service response zone",
        "evidence_status": "SURVEY_ONLY_UNKNOWN",
        "renewal_action": "RETAIN_REPAIR_AND_INFILL_ONLY_AFTER_NEED",
        "precision_note": "Conceptual topology partition, not a parcel-level community-use claim.",
        "area_sqm_declared": 2782792.823
      },
      "geometry": {
        "type": "Polygon",
        "coordinates": [
          [
            [
              116.3553,
              40.0265
            ],
            [
              116.3533,
              39.99
            ],
            [
              116.3553,
              39.965
            ],
            [
              116.3553,
              39.939
            ],
            [
              116.351244,
              39.939
            ],
            [
              116.351244,
              40.0265
            ],
            [
              116.3553,
              40.0265
            ]
          ]
        ]
      }
    }
  ]
}
