{
  "type": "FeatureCollection",
  "name": "public_side_interface_prototype_v0_1",
  "features": [
    {
      "type": "Feature",
      "id": "PUBLIC-001",
      "properties": {
        "id": "PUBLIC-001",
        "layer": "PUBLIC_SPACE",
        "source_type": "agent_generated_design",
        "confidence": "low",
        "geometry_role": "design_proposal",
        "name_zh": "公开侧普通城市界面原型",
        "name_en": "Public-side ordinary-city interface prototype",
        "evidence_status": "SURVEY_ONLY_UNKNOWN",
        "renewal_action": "RETAIN_OR_REPAIR_THEN_OPEN_EDGE_IF_CONSENTED",
        "users": "residents, workers, students, children/caregivers, older/disabled users, visitors",
        "ai_off": "must remain open and usable without AI",
        "precision_note": "Concept envelope only; not a current public-space or access-right claim.",
        "area_sqm_declared": 836345.643
      },
      "geometry": {
        "type": "Polygon",
        "coordinates": [
          [
            [
              116.34734399999999,
              39.967
            ],
            [
              116.34734399999999,
              40.00025
            ],
            [
              116.349996,
              40.00025
            ],
            [
              116.349996,
              39.967
            ],
            [
              116.34734399999999,
              39.967
            ]
          ]
        ]
      }
    }
  ]
}
