{
  "type": "FeatureCollection",
  "name": "concept_connection_family_v0_1",
  "features": [
    {
      "type": "Feature",
      "id": "ROAD-001",
      "properties": {
        "id": "ROAD-001",
        "layer": "ROAD_CENTERLINE",
        "source_type": "agent_generated_design",
        "confidence": "low",
        "geometry_role": "design_proposal",
        "road_class": "pedestrian",
        "name_zh": "普通公共联系原型（非道路红线）",
        "name_en": "Ordinary public connection prototype (not a road redline)",
        "connection_family": "ordinary_public_street_or_park_route",
        "evidence_status": "SURVEY_ONLY_UNKNOWN",
        "precision_note": "Conceptual cross-connection; alignment and capacity require current field and official data."
      },
      "geometry": {
        "type": "LineString",
        "coordinates": [
          [
            116.340948,
            39.9845
          ],
          [
            116.35374,
            39.9845
          ]
        ]
      }
    }
  ]
}
