{
  "type": "FeatureCollection",
  "name": "talent_living_lab_buildings",
  "features": [
    {
      "type": "Feature",
      "id": "BLDG-001",
      "properties": {
        "id": "BLDG-001",
        "layer": "BUILDING_FOOTPRINT",
        "source_type": "agent_generated_design",
        "confidence": "medium",
        "geometry_role": "design_proposal",
        "building_type": "lab",
        "name_zh": "服务原型与质量验证工坊",
        "name_en": "Service Prototype and Quality Validation Workshop",
        "renewal_action": "adaptive_reuse_subject_to_survey",
        "area_sqm_declared": 68259.011,
        "implementation_cards": [
          "IC-ZZY-03"
        ],
        "ground_floor_interface": "reversible_workshop_frontage"
      },
      "geometry": {
        "type": "Polygon",
        "coordinates": [
          [
            [
              116.3484,
              40.013
            ],
            [
              116.3484,
              40.016
            ],
            [
              116.346,
              40.016
            ],
            [
              116.346,
              40.013
            ],
            [
              116.3484,
              40.013
            ]
          ]
        ]
      }
    },
    {
      "type": "Feature",
      "id": "BLDG-002",
      "properties": {
        "id": "BLDG-002",
        "layer": "BUILDING_FOOTPRINT",
        "source_type": "agent_generated_design",
        "confidence": "medium",
        "geometry_role": "design_proposal",
        "building_type": "mixed_use",
        "name_zh": "原点人才生活协作站",
        "name_en": "Origin Talent Living Collaboration Hub",
        "renewal_action": "retain_or_renovate_subject_to_survey",
        "area_sqm_declared": 68285.603,
        "implementation_cards": [
          "IC-ORI-03"
        ],
        "ground_floor_interface": "replaceable_daily_service_frontage"
      },
      "geometry": {
        "type": "Polygon",
        "coordinates": [
          [
            [
              116.3474,
              39.986
            ],
            [
              116.3474,
              39.989
            ],
            [
              116.345,
              39.989
            ],
            [
              116.345,
              39.986
            ],
            [
              116.3474,
              39.986
            ]
          ]
        ]
      }
    },
    {
      "type": "Feature",
      "id": "BLDG-003",
      "properties": {
        "id": "BLDG-003",
        "layer": "BUILDING_FOOTPRINT",
        "source_type": "agent_generated_design",
        "confidence": "medium",
        "geometry_role": "design_proposal",
        "building_type": "mixed_use",
        "name_zh": "大钟寺企业服务与城市体验客厅",
        "name_en": "Dazhongsi Enterprise Service and Urban Experience Hall",
        "renewal_action": "adaptive_reuse_subject_to_survey",
        "area_sqm_declared": 74019.524,
        "implementation_cards": [
          "IC-DZS-03"
        ],
        "ground_floor_interface": "modular_staffed_service_hall"
      },
      "geometry": {
        "type": "Polygon",
        "coordinates": [
          [
            [
              116.3486,
              39.9452
            ],
            [
              116.3486,
              39.9482
            ],
            [
              116.346,
              39.9482
            ],
            [
              116.346,
              39.9452
            ],
            [
              116.3486,
              39.9452
            ]
          ]
        ]
      }
    }
  ]
}
