{
 "type": "FeatureCollection",
 "features": [
  {
   "type": "Feature",
   "id": "LU-001",
   "geometry": {
    "type": "Polygon",
    "coordinates": [
     [
      [
       116.35313175036984,
       39.93970841808372
      ],
      [
       116.35161082698824,
       39.939699922251165
      ],
      [
       116.35160227002613,
       39.94060651042797
      ],
      [
       116.35159371267646,
       39.94151309846106
      ],
      [
       116.35158515493922,
       39.942419686350426
      ],
      [
       116.35157659681438,
       39.94332627409606
      ],
      [
       116.35156803830192,
       39.94423286169796
      ],
      [
       116.35155947940183,
       39.94513944915613
      ],
      [
       116.35155092011408,
       39.94604603647059
      ],
      [
       116.35154236043866,
       39.946952623641295
      ],
      [
       116.35153380037553,
       39.94785921066828
      ],
      [
       116.3515252399247,
       39.94876579755152
      ],
      [
       116.35151667908613,
       39.949672384291034
      ],
      [
       116.35150811785981,
       39.95057897088682
      ],
      [
       116.35149955624571,
       39.95148555733887
      ],
      [
       116.35149099424383,
       39.95239214364718
      ],
      [
       116.35148243185414,
       39.953298729811756
      ],
      [
       116.3514738690766,
       39.95420531583259
      ],
      [
       116.35146530591122,
       39.95511190170969
      ],
      [
       116.351456742358,
       39.95601848744304
      ],
      [
       116.35144817841685,
       39.95692507303266
      ],
      [
       116.3514396140878,
       39.95783165847853
      ],
      [
       116.3514310493708,
       39.958738243780665
      ],
      [
       116.35142248426588,
       39.95964482893906
      ],
      [
       116.35141391877299,
       39.96055141395371
      ],
      [
       116.3514053528921,
       39.96145799882461
      ],
      [
       116.35139678662321,
       39.962364583551775
      ],
      [
       116.35138821996628,
       39.963271168135165
      ],
      [
       116.35137965292131,
       39.96417775257484
      ],
      [
       116.35137108548828,
       39.96508433687074
      ],
      [
       116.35136251766716,
       39.96599092102291
      ],
      [
       116.35135394945793,
       39.96689750503133
      ],
      [
       116.35134538086058,
       39.96780408889599
      ],
      [
       116.35133681187509,
       39.96871067261691
      ],
      [
       116.35132824250141,
       39.96961725619407
      ],
      [
       116.35131967273956,
       39.97052383962747
      ],
      [
       116.3513111025895,
       39.971430422917116
      ],
      [
       116.35130253205122,
       39.972337006063015
      ],
      [
       116.35129396112471,
       39.97324358906515
      ],
      [
       116.35128538980993,
       39.97415017192354
      ],
      [
       116.35127681810688,
       39.97505675463817
      ],
      [
       116.3512682460155,
       39.97596333720904
      ],
      [
       116.35125967353582,
       39.976869919636144
      ],
      [
       116.35125110066778,
       39.9777765019195
      ],
      [
       116.35124252741137,
       39.97868308405908
      ],
      [
       116.3512339537666,
       39.9795896660549
      ],
      [
       116.35122537973345,
       39.98049624790698
      ],
      [
       116.35121680531182,
       39.98140282961527
      ],
      [
       116.3512082305018,
       39.982309411179806
      ],
      [
       116.35119965530332,
       39.98321599260058
      ],
      [
       116.35119107971634,
       39.984122573877585
      ],
      [
       116.35118250374086,
       39.985029155010814
      ],
      [
       116.35117392737686,
       39.98593573600028
      ],
      [
       116.35116535062434,
       39.98684231684599
      ],
      [
       116.35115677348324,
       39.98774889754792
      ],
      [
       116.3511481959536,
       39.988655478106075
      ],
      [
       116.35113961803532,
       39.98956205852046
      ],
      [
       116.35113103972844,
       39.99046863879108
      ],
      [
       116.35112246103296,
       39.99137521891792
      ],
      [
       116.35111388194876,
       39.99228179890099
      ],
      [
       116.35110530247593,
       39.99318837874029
      ],
      [
       116.35109672261439,
       39.99409495843581
      ],
      [
       116.35108814236413,
       39.995001537987534
      ],
      [
       116.35107956172514,
       39.995908117395494
      ],
      [
       116.35107098069739,
       39.99681469665968
      ],
      [
       116.35106239928088,
       39.997721275780094
      ],
      [
       116.35105381747556,
       39.99862785475673
      ],
      [
       116.35104523528143,
       39.99953443358957
      ],
      [
       116.35103665269848,
       40.00044101227864
      ],
      [
       116.35102806972667,
       40.001347590823926
      ],
      [
       116.351019486366,
       40.002254169225424
      ],
      [
       116.35101090261642,
       40.003160747483136
      ],
      [
       116.35100231847792,
       40.00406732559706
      ],
      [
       116.35099373395052,
       40.00497390356721
      ],
      [
       116.35098514903414,
       40.00588048139357
      ],
      [
       116.35097656372879,
       40.006787059076146
      ],
      [
       116.35096797803448,
       40.007693636614924
      ],
      [
       116.35095939195114,
       40.00860021400992
      ],
      [
       116.35095080547876,
       40.009506791261124
      ],
      [
       116.35094221861733,
       40.01041336836853
      ],
      [
       116.35093363136686,
       40.011319945332154
      ],
      [
       116.35092504372727,
       40.01222652215198
      ],
      [
       116.3509164556986,
       40.013133098828014
      ],
      [
       116.35090786728077,
       40.01403967536026
      ],
      [
       116.3508992784738,
       40.0149462517487
      ],
      [
       116.35089068927769,
       40.01585282799335
      ],
      [
       116.35088209969237,
       40.016759404094195
      ],
      [
       116.35087350971784,
       40.01766598005124
      ],
      [
       116.35086491935408,
       40.018572555864516
      ],
      [
       116.35085632860108,
       40.019479131533956
      ],
      [
       116.35084773745884,
       40.02038570705962
      ],
      [
       116.35083914592728,
       40.02129228244147
      ],
      [
       116.35083055400644,
       40.02219885767953
      ],
      [
       116.35082196169625,
       40.02310543277378
      ],
      [
       116.35081336899673,
       40.02401200772422
      ],
      [
       116.35080477590783,
       40.02491858253087
      ],
      [
       116.35079618242955,
       40.025825157193694
      ],
      [
       116.35231901639327,
       40.025833678834665
      ],
      [
       116.35232758971729,
       40.024927103899834
      ],
      [
       116.35233616265288,
       40.0240205288212
      ],
      [
       116.35234473519996,
       40.02311395359877
      ],
      [
       116.35235330735865,
       40.02220737823253
      ],
      [
       116.3523618791289,
       40.02130080272251
      ],
      [
       116.35237045051079,
       40.020394227068685
      ],
      [
       116.35237902150429,
       40.01948765127108
      ],
      [
       116.35238759210945,
       40.01858107532967
      ],
      [
       116.35239616232627,
       40.017674499244464
      ],
      [
       116.35240473215477,
       40.01676792301548
      ],
      [
       116.35241330159496,
       40.01586134664271
      ],
      [
       116.35242187064692,
       40.014954770126124
      ],
      [
       116.35243043931058,
       40.01404819346577
      ],
      [
       116.35243900758601,
       40.01314161666161
      ],
      [
       116.35244757547325,
       40.01223503971369
      ],
      [
       116.35245614297227,
       40.01132846262197
      ],
      [
       116.35246471008314,
       40.01042188538646
      ],
      [
       116.35247327680584,
       40.00951530800716
      ],
      [
       116.3524818431404,
       40.008608730484085
      ],
      [
       116.35249040908685,
       40.00770215281723
      ],
      [
       116.35249897464517,
       40.006795575006585
      ],
      [
       116.35250753981545,
       40.00588899705217
      ],
      [
       116.35251610459767,
       40.004982418953965
      ],
      [
       116.35252466899183,
       40.00407584071198
      ],
      [
       116.35253323299797,
       40.00316926232622
      ],
      [
       116.35254179661614,
       40.00226268379669
      ],
      [
       116.3525503598463,
       40.001356105123364
      ],
      [
       116.3525589226885,
       40.00044952630628
      ],
      [
       116.35256748514279,
       39.9995429473454
      ],
      [
       116.35257604720913,
       39.99863636824076
      ],
      [
       116.35258460888758,
       39.997729788992345
      ],
      [
       116.35259317017814,
       39.99682320960015
      ],
      [
       116.35260173108084,
       39.995916630064194
      ],
      [
       116.3526102915957,
       39.99501005038445
      ],
      [
       116.35261885172274,
       39.994103470560965
      ],
      [
       116.35262741146197,
       39.9931968905937
      ],
      [
       116.35263597081342,
       39.99229031048265
      ],
      [
       116.3526445297771,
       39.991383730227845
      ],
      [
       116.35265308835304,
       39.99047714982927
      ],
      [
       116.35266164654125,
       39.98957056928693
      ],
      [
       116.35267020434178,
       39.988663988600834
      ],
      [
       116.35267876175459,
       39.98775740777096
      ],
      [
       116.35268731877974,
       39.98685082679732
      ],
      [
       116.35269587541725,
       39.985944245679924
      ],
      [
       116.35270443166714,
       39.985037664418776
      ],
      [
       116.35271298752943,
       39.98413108301386
      ],
      [
       116.35272154300411,
       39.98322450146517
      ],
      [
       116.35273009809123,
       39.98231791977274
      ],
      [
       116.3527386527908,
       39.98141133793654
      ],
      [
       116.35274720710285,
       39.98050475595659
      ],
      [
       116.3527557610274,
       39.97959817383288
      ],
      [
       116.35276431456441,
       39.978691591565415
      ],
      [
       116.352772867714,
       39.9777850091542
      ],
      [
       116.35278142047612,
       39.97687842659922
      ],
      [
       116.35278997285081,
       39.9759718439005
      ],
      [
       116.3527985248381,
       39.97506526105802
      ],
      [
       116.35280707643798,
       39.97415867807179
      ],
      [
       116.35281562765051,
       39.97325209494181
      ],
      [
       116.35282417847567,
       39.972345511668074
      ],
      [
       116.35283272891351,
       39.97143892825059
      ],
      [
       116.35284127896404,
       39.970532344689374
      ],
      [
       116.35284982862724,
       39.9696257609844
      ],
      [
       116.35285837790319,
       39.96871917713567
      ],
      [
       116.3528669267919,
       39.96781259314321
      ],
      [
       116.35287547529335,
       39.966906009007
      ],
      [
       116.3528840234076,
       39.965999424727045
      ],
      [
       116.35289257113465,
       39.96509284030334
      ],
      [
       116.35290111847452,
       39.96418625573591
      ],
      [
       116.35290966542725,
       39.96327967102472
      ],
      [
       116.35291821199283,
       39.96237308616981
      ],
      [
       116.35292675817126,
       39.961466501171145
      ],
      [
       116.35293530396265,
       39.96055991602875
      ],
      [
       116.35294384936692,
       39.95965333074262
      ],
      [
       116.35295239438416,
       39.95874674531273
      ],
      [
       116.35296093901434,
       39.95784015973913
      ],
      [
       116.3529694832575,
       39.95693357402178
      ],
      [
       116.35297802711365,
       39.95602698816071
      ],
      [
       116.35298657058284,
       39.95512040215589
      ],
      [
       116.35299511366506,
       39.95421381600734
      ],
      [
       116.35300365636034,
       39.95330722971508
      ],
      [
       116.35301219866871,
       39.95240064327907
      ],
      [
       116.35302074059017,
       39.95149405669933
      ],
      [
       116.35302928212475,
       39.950587469975865
      ],
      [
       116.35303782327244,
       39.94968088310867
      ],
      [
       116.3530463640333,
       39.94877429609775
      ],
      [
       116.35305490440737,
       39.9478677089431
      ],
      [
       116.35306344439459,
       39.946961121644726
      ],
      [
       116.35307198399504,
       39.94605453420263
      ],
      [
       116.35308052320873,
       39.94514794661681
      ],
      [
       116.35308906203566,
       39.94424135888726
      ],
      [
       116.35309760047588,
       39.943334771013994
      ],
      [
       116.3531061385294,
       39.942428182997006
      ],
      [
       116.35311467619621,
       39.941521594836296
      ],
      [
       116.35312321347637,
       39.940615006531864
      ],
      [
       116.35313175036984,
       39.93970841808372
      ]
     ]
    ]
   },
   "properties": {
    "id": "LU-001",
    "layer": "LAND_USE",
    "source_type": "agent_generated_design",
    "confidence": "medium",
    "geometry_role": "design_proposal",
    "land_use_code": "1401",
    "name_zh": "京张遗址公园绿脊（正线）",
    "area_sqm_declared": 1243251.08
   }
  },
  {
   "type": "Feature",
   "id": "LU-002",
   "geometry": {
    "type": "Polygon",
    "coordinates": [
     [
      [
       116.34299999999999,
       40.0075
      ],
      [
       116.34300000162023,
       40.00842500139769
      ],
      [
       116.34300000306992,
       40.00935000264825
      ],
      [
       116.34300000434908,
       40.0102750037517
      ],
      [
       116.34300000545772,
       40.01120000470804
      ],
      [
       116.34300000639584,
       40.01212500551724
      ],
      [
       116.3430000071634,
       40.01305000617931
      ],
      [
       116.34300000776042,
       40.01397500669428
      ],
      [
       116.34300000818689,
       40.01490000706211
      ],
      [
       116.34300000844279,
       40.01582500728281
      ],
      [
       116.34300000852815,
       40.0167500073564
      ],
      [
       116.34300000844294,
       40.01767500728285
      ],
      [
       116.34300000818718,
       40.01860000706216
      ],
      [
       116.34300000776082,
       40.019525006694366
      ],
      [
       116.3430000071639,
       40.020450006179416
      ],
      [
       116.3430000063964,
       40.02137500551734
      ],
      [
       116.34300000545831,
       40.02230000470814
      ],
      [
       116.34300000434962,
       40.023225003751804
      ],
      [
       116.34300000307034,
       40.02415000264835
      ],
      [
       116.34300000162048,
       40.02507500139774
      ],
      [
       116.34299999999999,
       40.025999999999996
      ],
      [
       116.34422222152045,
       40.026000051567316
      ],
      [
       116.34544444321817,
       40.02600009024282
      ],
      [
       116.34666666509241,
       40.026000116026495
      ],
      [
       116.34788888714233,
       40.026000128918334
      ],
      [
       116.34911110936717,
       40.02600012891836
      ],
      [
       116.35033333176617,
       40.02600011602653
      ],
      [
       116.35155555433847,
       40.02600009024287
      ],
      [
       116.35277777708335,
       40.026000051567365
      ],
      [
       116.354,
       40.02600000000001
      ],
      [
       116.35400000159336,
       40.02507500139805
      ],
      [
       116.35400000301897,
       40.02415000264893
      ],
      [
       116.35400000427681,
       40.023225003752636
      ],
      [
       116.35400000536693,
       40.02230000470918
      ],
      [
       116.35400000628931,
       40.02137500551857
      ],
      [
       116.35400000704396,
       40.02045000618078
      ],
      [
       116.35400000763089,
       40.01952500669584
      ],
      [
       116.35400000805012,
       40.01860000706371
      ],
      [
       116.35400000830161,
       40.017675007284446
      ],
      [
       116.35400000838537,
       40.016750007358006
      ],
      [
       116.35400000830145,
       40.015825007284406
      ],
      [
       116.35400000804984,
       40.01490000706367
      ],
      [
       116.35400000763049,
       40.01397500669574
      ],
      [
       116.35400000704348,
       40.01305000618068
      ],
      [
       116.35400000628874,
       40.01212500551844
      ],
      [
       116.35400000536636,
       40.01120000470907
      ],
      [
       116.35400000427627,
       40.01027500375253
      ],
      [
       116.35400000301853,
       40.00935000264884
      ],
      [
       116.3540000015931,
       40.00842500139799
      ],
      [
       116.354,
       40.007499999999986
      ],
      [
       116.35249231852407,
       40.00750006174727
      ],
      [
       116.35248365718843,
       40.00841674399825
      ],
      [
       116.35247499545596,
       40.009333426102216
      ],
      [
       116.35246633332666,
       40.01025010805918
      ],
      [
       116.35245767080049,
       40.01116678986914
      ],
      [
       116.35244900787745,
       40.01208347153208
      ],
      [
       116.35244034455752,
       40.01300015304803
      ],
      [
       116.3524316808407,
       40.01391683441695
      ],
      [
       116.35242301672692,
       40.01483351563887
      ],
      [
       116.35241435221617,
       40.015750196713775
      ],
      [
       116.35240568730846,
       40.01666687764166
      ],
      [
       116.35239702200377,
       40.01758355842253
      ],
      [
       116.35238835630204,
       40.0185002390564
      ],
      [
       116.35237969020329,
       40.01941691954325
      ],
      [
       116.35237102370748,
       40.020333599883074
      ],
      [
       116.3523623568146,
       40.02125028007589
      ],
      [
       116.35235368952459,
       40.02216696012168
      ],
      [
       116.35234502183748,
       40.02308364002046
      ],
      [
       116.35233635375324,
       40.02400031977222
      ],
      [
       116.35232768527183,
       40.02491699937695
      ],
      [
       116.35231901639327,
       40.025833678834665
      ],
      [
       116.35079618242955,
       40.025825157193694
      ],
      [
       116.35080486763076,
       40.02490890593926
      ],
      [
       116.3508135524342,
       40.023992654537935
      ],
      [
       116.35082223683992,
       40.02307640298972
      ],
      [
       116.35083092084794,
       40.02216015129462
      ],
      [
       116.35083960445829,
       40.02124389945263
      ],
      [
       116.35084828767097,
       40.02032764746375
      ],
      [
       116.35085697048602,
       40.01941139532799
      ],
      [
       116.35086565290345,
       40.01849514304532
      ],
      [
       116.35087433492328,
       40.01757889061578
      ],
      [
       116.35088301654552,
       40.01666263803936
      ],
      [
       116.35089169777021,
       40.01574638531604
      ],
      [
       116.35090037859736,
       40.014830132445844
      ],
      [
       116.35090905902702,
       40.01391387942878
      ],
      [
       116.35091773905916,
       40.01299762626482
      ],
      [
       116.35092641869383,
       40.01208137295399
      ],
      [
       116.35093509793103,
       40.011165119496276
      ],
      [
       116.35094377677079,
       40.01024886589169
      ],
      [
       116.35095245521316,
       40.0093326121402
      ],
      [
       116.35096113325811,
       40.00841635824186
      ],
      [
       116.3509698109057,
       40.00750010419664
      ],
      [
       116.34964150857127,
       40.00750012489324
      ],
      [
       116.34831320644223,
       40.00750013036475
      ],
      [
       116.34698490451957,
       40.00750012061116
      ],
      [
       116.34565660280428,
       40.00750009563253
      ],
      [
       116.34432830129744,
       40.0075000554288
      ],
      [
       116.34299999999999,
       40.0075
      ]
     ]
    ]
   },
   "properties": {
    "id": "LU-002",
    "layer": "LAND_USE",
    "source_type": "agent_generated_design",
    "confidence": "medium",
    "geometry_role": "design_proposal",
    "land_use_code": "0802",
    "name_zh": "众智园AI自主创新加速区（科研创新）",
    "area_sqm_declared": 1664609.31
   }
  },
  {
   "type": "Feature",
   "id": "LU-003",
   "geometry": {
    "type": "MultiPolygon",
    "coordinates": [
     [
      [
       [
        116.35300000146017,
        39.99168181946084
       ],
       [
        116.3530000019469,
        39.99077272897809
       ],
       [
        116.35300000227137,
        39.98986363835324
       ],
       [
        116.35300000243357,
        39.98895454758625
       ],
       [
        116.35300000243355,
        39.988045456677156
       ],
       [
        116.35300000227132,
        39.98713636562594
       ],
       [
        116.35300000194682,
        39.98622727443263
       ],
       [
        116.3530000014601,
        39.985318183097185
       ],
       [
        116.35300000081116,
        39.984409091619646
       ],
       [
        116.353,
        39.9835
       ],
       [
        116.35271894302329,
        39.98350001299629
       ],
       [
        116.3527103637381,
        39.98440910501119
       ],
       [
        116.35270178406314,
        39.9853181968815
       ],
       [
        116.35269320399844,
        39.986227288607274
       ],
       [
        116.35268462354395,
        39.9871363801885
       ],
       [
        116.35267604269964,
        39.98804547162515
       ],
       [
        116.35266746146553,
        39.988954562917236
       ],
       [
        116.35265887984157,
        39.98986365406477
       ],
       [
        116.35265029782774,
        39.99077274506775
       ],
       [
        116.35264171542404,
        39.99168183592616
       ],
       [
        116.35263313263042,
        39.99259092663999
       ],
       [
        116.35262454944692,
        39.99350001720927
       ],
       [
        116.353,
        39.99349999999998
       ],
       [
        116.3530000008112,
        39.99259090980147
       ],
       [
        116.35300000146017,
        39.99168181946084
       ]
      ]
     ],
     [
      [
       [
        116.34200000148495,
        39.985318183096915
       ],
       [
        116.34200000197991,
        39.986227274432245
       ],
       [
        116.34200000230993,
        39.987136365625496
       ],
       [
        116.34200000247493,
        39.98804545667669
       ],
       [
        116.34200000247496,
        39.98895454758578
       ],
       [
        116.34200000231,
        39.989863638352794
       ],
       [
        116.34200000198003,
        39.99077272897771
       ],
       [
        116.34200000148502,
        39.99168181946055
       ],
       [
        116.34200000082502,
        39.99259090980131
       ],
       [
        116.34200000000001,
        39.99349999999999
       ],
       [
        116.34330033549205,
        39.9935000544141
       ],
       [
        116.34460067118516,
        39.99350009423874
       ],
       [
        116.34590100707842,
        39.993500119473865
       ],
       [
        116.3472013431709,
        39.99350013011948
       ],
       [
        116.34850167946163,
        39.993500126175576
       ],
       [
        116.34980201594966,
        39.993500107642184
       ],
       [
        116.35110235263407,
        39.99350007451925
       ],
       [
        116.35111095600024,
        39.992590984061756
       ],
       [
        116.35111955897555,
        39.99168189345969
       ],
       [
        116.35112816156007,
        39.99077280271304
       ],
       [
        116.35113676375377,
        39.98986371182183
       ],
       [
        116.3511453655567,
        39.988954620786046
       ],
       [
        116.3511539669689,
        39.9880455296057
       ],
       [
        116.35116256799033,
        39.98713643828078
       ],
       [
        116.35117116862104,
        39.98622734681129
       ],
       [
        116.35117976886104,
        39.98531825519723
       ],
       [
        116.35118836871038,
        39.984409163438606
       ],
       [
        116.35119696816908,
        39.98350007153543
       ],
       [
        116.34988311496721,
        39.983500105996555
       ],
       [
        116.34856926196584,
        39.983500125564184
       ],
       [
        116.34725540916587,
        39.98350013023832
       ],
       [
        116.34594155656833,
        39.98350012001896
       ],
       [
        116.34462770417419,
        39.98350009490613
       ],
       [
        116.34331385198443,
        39.98350005489979
       ],
       [
        116.34200000000001,
        39.98349999999999
       ],
       [
        116.34200000082497,
        39.9844090916195
       ],
       [
        116.34200000148495,
        39.985318183096915
       ]
      ]
     ]
    ]
   },
   "properties": {
    "id": "LU-003",
    "layer": "LAND_USE",
    "source_type": "agent_generated_design",
    "confidence": "medium",
    "geometry_role": "design_proposal",
    "land_use_code": "0804",
    "name_zh": "北京AI原点社区（教育创新）",
    "area_sqm_declared": 898882.87
   }
  },
  {
   "type": "Feature",
   "id": "LU-004",
   "geometry": {
    "type": "MultiPolygon",
    "coordinates": [
     [
      [
       [
        116.35500000074164,
        39.94789333398482
       ],
       [
        116.35500000083434,
        39.94692000073293
       ],
       [
        116.35500000074161,
        39.94594666731817
       ],
       [
        116.3550000004635,
        39.94497333374052
       ],
       [
        116.35500000000002,
        39.944
       ],
       [
        116.35309133438375,
        39.944000091302414
       ],
       [
        116.35308216699198,
        39.94497342541141
       ],
       [
        116.3530729991544,
        39.945946759354726
       ],
       [
        116.35306383087105,
        39.94692009313239
       ],
       [
        116.35305466214184,
        39.947893426744365
       ],
       [
        116.35304549296681,
        39.94886676019069
       ],
       [
        116.35303632334586,
        39.94984009347134
       ],
       [
        116.35500000000002,
        39.94983999999999
       ],
       [
        116.35500000046353,
        39.94886666707385
       ],
       [
        116.35500000074164,
        39.94789333398482
       ]
      ]
     ],
     [
      [
       [
        116.34200000075656,
        39.94594666731799
       ],
       [
        116.34200000085113,
        39.946920000732746
       ],
       [
        116.34200000075657,
        39.947893333984666
       ],
       [
        116.34200000047286,
        39.948866667073744
       ],
       [
        116.34200000000001,
        39.94984
       ],
       [
        116.3431893862776,
        39.94984006058703
       ],
       [
        116.3443787727241,
        39.949840108971244
       ],
       [
        116.34556815933877,
        39.94984014515262
       ],
       [
        116.34675754612083,
        39.949840169131186
       ],
       [
        116.34794693306962,
        39.949840180906946
       ],
       [
        116.34913632018436,
        39.94984018047986
       ],
       [
        116.35032570746439,
        39.949840167849935
       ],
       [
        116.35151509490892,
        39.94984014301717
       ],
       [
        116.35152428609146,
        39.948866809855986
       ],
       [
        116.35153347682704,
        39.94789347652912
       ],
       [
        116.35154266711575,
        39.94692014303659
       ],
       [
        116.35155185695757,
        39.94594680937837
       ],
       [
        116.35156104635251,
        39.94497347555447
       ],
       [
        116.35157023530063,
        39.94400014156491
       ],
       [
        116.35037395530036,
        39.944000167074115
       ],
       [
        116.3491776754665,
        39.94400018023906
       ],
       [
        116.34798139579985,
        39.944000181059806
       ],
       [
        116.34678511630108,
        39.94400016953628
       ],
       [
        116.345588836971,
        39.944000145668554
       ],
       [
        116.3443925578103,
        39.94400010945659
       ],
       [
        116.34319627881972,
        39.94400006090039
       ],
       [
        116.34200000000001,
        39.943999999999996
       ],
       [
        116.34200000047285,
        39.944973333740414
       ],
       [
        116.34200000075656,
        39.94594666731799
       ]
      ]
     ]
    ]
   },
   "properties": {
    "id": "LU-004",
    "layer": "LAND_USE",
    "source_type": "agent_generated_design",
    "confidence": "medium",
    "geometry_role": "design_proposal",
    "land_use_code": "05",
    "name_zh": "大钟寺AI产业集聚区（商业服务）",
    "area_sqm_declared": 636152.08
   }
  },
  {
   "type": "Feature",
   "id": "LU-008",
   "geometry": {
    "type": "Polygon",
    "coordinates": [
     [
      [
       116.35384553918664,
       39.98318273375823
      ],
      [
       116.35388237058262,
       39.98272242120905
      ],
      [
       116.35391036526492,
       39.982372543897014
      ],
      [
       116.35272964479671,
       39.98236595637934
      ],
      [
       116.35272199631808,
       39.98317646486578
      ],
      [
       116.35384553918664,
       39.98318273375823
      ]
     ]
    ]
   },
   "properties": {
    "id": "LU-008",
    "layer": "LAND_USE",
    "source_type": "agent_generated_design",
    "confidence": "medium",
    "geometry_role": "design_proposal",
    "land_use_code": "1401",
    "name_zh": "小月河场景赋能翼滨水绿廊",
    "area_sqm_declared": 8857.44
   }
  },
  {
   "type": "Feature",
   "id": "LU-009",
   "geometry": {
    "type": "Polygon",
    "coordinates": [
     [
      [
       116.34734216325162,
       39.9764367318934
      ],
      [
       116.34595151510847,
       39.976428893351574
      ],
      [
       116.34456086751057,
       39.97642103812759
      ],
      [
       116.34317022045909,
       39.97641316622145
      ],
      [
       116.3417795739552,
       39.97640527763316
      ],
      [
       116.34038892800002,
       39.976397372362776
      ],
      [
       116.34037921794983,
       39.97740730187669
      ],
      [
       116.34036950740963,
       39.978417231212134
      ],
      [
       116.34035979637937,
       39.979427160369106
      ],
      [
       116.34035008485903,
       39.98043708934762
      ],
      [
       116.3403403728486,
       39.98144701814764
      ],
      [
       116.340330660348,
       39.9824569467692
      ],
      [
       116.34032094735728,
       39.98346687521228
      ],
      [
       116.34031123387636,
       39.98447680347689
      ],
      [
       116.34036968158136,
       39.98538287551863
      ],
      [
       116.34042813066684,
       39.98628894740232
      ],
      [
       116.34048658113286,
       39.987195019127945
      ],
      [
       116.34054503297956,
       39.98810109069551
      ],
      [
       116.340603486207,
       39.989007162104976
      ],
      [
       116.3420000024691,
       39.98901509873172
      ],
      [
       116.3420000024793,
       39.9880959159729
      ],
      [
       116.34200000232077,
       39.98717673306881
      ],
      [
       116.34200000199358,
       39.98625755001949
      ],
      [
       116.34200000149772,
       39.98533836682491
      ],
      [
       116.34200000083318,
       39.98441918348509
      ],
      [
       116.34200000000001,
       39.98349999999999
      ],
      [
       116.3433187390112,
       39.9835000550762
      ],
      [
       116.34463747822927,
       39.98350009514791
      ],
      [
       116.34595621765325,
       39.98350012021516
      ],
      [
       116.3472749572821,
       39.983500130277925
      ],
      [
       116.34728455958721,
       39.98249107390022
      ],
      [
       116.34729416140819,
       39.9814820173444
      ],
      [
       116.34730376274501,
       39.98047296061044
      ],
      [
       116.34731336359775,
       39.97946390369836
      ],
      [
       116.34732296396642,
       39.97845484660815
      ],
      [
       116.34733256385103,
       39.97744578933984
      ],
      [
       116.34734216325162,
       39.9764367318934
      ]
     ]
    ]
   },
   "properties": {
    "id": "LU-009",
    "layer": "LAND_USE",
    "source_type": "agent_generated_design",
    "confidence": "medium",
    "geometry_role": "design_proposal",
    "land_use_code": "0802",
    "name_zh": "中关村科技服务翼（科技服务）",
    "area_sqm_declared": 549126.82
   }
  },
  {
   "type": "Feature",
   "id": "LU-011",
   "geometry": {
    "type": "Polygon",
    "coordinates": [
     [
      [
       116.3533,
       39.989999999999995
      ],
      [
       116.3533779413663,
       39.98902610552197
      ],
      [
       116.3534558803334,
       39.98805221081082
      ],
      [
       116.35353381690146,
       39.98707831586653
      ],
      [
       116.35361175107066,
       39.986104420689124
      ],
      [
       116.35368968284112,
       39.98513052527859
      ],
      [
       116.35376761221306,
       39.98415662963497
      ],
      [
       116.35384553918664,
       39.98318273375823
      ],
      [
       116.35272199631808,
       39.98317646486578
      ],
      [
       116.35271894302329,
       39.98350001299629
      ],
      [
       116.353,
       39.9835
      ],
      [
       116.35300000081116,
       39.984409091619646
      ],
      [
       116.3530000014601,
       39.985318183097185
      ],
      [
       116.35300000194682,
       39.98622727443263
      ],
      [
       116.35300000227132,
       39.98713636562594
      ],
      [
       116.35300000243355,
       39.988045456677156
      ],
      [
       116.35300000243357,
       39.98895454758625
      ],
      [
       116.35300000227137,
       39.98986363835324
      ],
      [
       116.3530000019469,
       39.99077272897809
      ],
      [
       116.35300000146017,
       39.99168181946084
      ],
      [
       116.3530000008112,
       39.99259090980147
      ],
      [
       116.353,
       39.99349999999998
      ],
      [
       116.35262454944692,
       39.99350001720927
      ],
      [
       116.35261573692999,
       39.9944333545785
      ],
      [
       116.35260692400202,
       39.99536669179535
      ],
      [
       116.35259811066301,
       39.99630002885982
      ],
      [
       116.3525892969129,
       39.99723336577189
      ],
      [
       116.35258048275168,
       39.99816670253161
      ],
      [
       116.35257166817932,
       39.999100039138916
      ],
      [
       116.35256285319585,
       40.00003337559386
      ],
      [
       116.35255403780121,
       40.00096671189639
      ],
      [
       116.35254522199537,
       40.00190004804655
      ],
      [
       116.35253640577828,
       40.00283338404431
      ],
      [
       116.35252758915,
       40.0037667198897
      ],
      [
       116.35251877211046,
       40.00470005558267
      ],
      [
       116.35250995465964,
       40.005633391123276
      ],
      [
       116.35250113679751,
       40.006566726511466
      ],
      [
       116.35249231852407,
       40.00750006174727
      ],
      [
       116.354,
       40.007499999999986
      ],
      [
       116.3540000015931,
       40.00842500139799
      ],
      [
       116.35400000301853,
       40.00935000264884
      ],
      [
       116.35400000427627,
       40.01027500375253
      ],
      [
       116.35400000536636,
       40.01120000470907
      ],
      [
       116.35400000628874,
       40.01212500551844
      ],
      [
       116.35400000704348,
       40.01305000618068
      ],
      [
       116.35400000763049,
       40.01397500669574
      ],
      [
       116.35400000804984,
       40.01490000706367
      ],
      [
       116.35400000830145,
       40.015825007284406
      ],
      [
       116.35400000838537,
       40.016750007358006
      ],
      [
       116.35400000830161,
       40.017675007284446
      ],
      [
       116.35400000805012,
       40.01860000706371
      ],
      [
       116.35400000763089,
       40.01952500669584
      ],
      [
       116.35400000704396,
       40.02045000618078
      ],
      [
       116.35400000628931,
       40.02137500551857
      ],
      [
       116.35400000536693,
       40.02230000470918
      ],
      [
       116.35400000427681,
       40.023225003752636
      ],
      [
       116.35400000301897,
       40.02415000264893
      ],
      [
       116.35400000159336,
       40.02507500139805
      ],
      [
       116.354,
       40.02600000000001
      ],
      [
       116.35264033316271,
       40.026000056559944
      ],
      [
       116.35128066653812,
       40.0260000971655
      ],
      [
       116.35127592985724,
       40.026500148912895
      ],
      [
       116.3526172863646,
       40.02650011480286
      ],
      [
       116.35395864307921,
       40.02650006516523
      ],
      [
       116.3553,
       40.0265
      ],
      [
       116.35524997719871,
       40.02558750300735
      ],
      [
       116.35519995556783,
       40.02467500586042
      ],
      [
       116.35514993510724,
       40.02376250855926
      ],
      [
       116.35509991581688,
       40.02285001110383
      ],
      [
       116.35504989769663,
       40.02193751349415
      ],
      [
       116.35499988074646,
       40.02102501573023
      ],
      [
       116.35494986496624,
       40.020112517812066
      ],
      [
       116.35489985035589,
       40.01920001973964
      ],
      [
       116.35484983691536,
       40.018287521513
      ],
      [
       116.3547998246445,
       40.01737502313212
      ],
      [
       116.35474981354325,
       40.01646252459699
      ],
      [
       116.35469980361157,
       40.01555002590764
      ],
      [
       116.3546497948493,
       40.01463752706407
      ],
      [
       116.35459978725638,
       40.01372502806627
      ],
      [
       116.35454978083276,
       40.012812528914246
      ],
      [
       116.35449977557828,
       40.011900029608
      ],
      [
       116.3544497714929,
       40.01098753014754
      ],
      [
       116.35439976857654,
       40.01007503053286
      ],
      [
       116.3543497668291,
       40.009162530763994
      ],
      [
       116.35429976625049,
       40.0082500308409
      ],
      [
       116.35424976684064,
       40.00733753076361
      ],
      [
       116.35419976859944,
       40.0064250305321
      ],
      [
       116.35414977152682,
       40.00551253014641
      ],
      [
       116.3540997756227,
       40.004600029606515
      ],
      [
       116.35404978088695,
       40.00368752891244
      ],
      [
       116.35399978731954,
       40.002775028064164
      ],
      [
       116.35394979492034,
       40.00186252706169
      ],
      [
       116.35389980368929,
       40.00095002590506
      ],
      [
       116.35384981362628,
       40.000037524594234
      ],
      [
       116.35379982473124,
       39.999125023129224
      ],
      [
       116.35374983700409,
       39.99821252151005
      ],
      [
       116.35369985044474,
       39.9973000197367
      ],
      [
       116.35364986505309,
       39.99638751780917
      ],
      [
       116.35359988082904,
       39.995475015727486
      ],
      [
       116.35354989777255,
       39.99456251349163
      ],
      [
       116.3534999158835,
       39.993650011101614
      ],
      [
       116.35344993516179,
       39.99273750855744
      ],
      [
       116.35339995560737,
       39.99182500585912
      ],
      [
       116.35334997722013,
       39.99091250300663
      ],
      [
       116.3533,
       39.989999999999995
      ]
     ]
    ]
   },
   "properties": {
    "id": "LU-011",
    "layer": "LAND_USE",
    "source_type": "agent_generated_design",
    "confidence": "medium",
    "geometry_role": "design_proposal",
    "land_use_code": "0804",
    "name_zh": "学院路高校创新带",
    "area_sqm_declared": 379106.7
   }
  },
  {
   "type": "Feature",
   "id": "LU-012",
   "geometry": {
    "type": "MultiPolygon",
    "coordinates": [
     [
      [
       [
        116.34031123389818,
        39.9844768012092
       ],
       [
        116.34031123387636,
        39.98447680347689
       ],
       [
        116.34032920090334,
        39.984755333161196
       ],
       [
        116.34031123389818,
        39.9844768012092
       ]
      ]
     ],
     [
      [
       [
        116.34035822269766,
        39.98520523682162
       ],
       [
        116.34032920090334,
        39.984755333161196
       ],
       [
        116.34034688194663,
        39.98502943201361
       ],
       [
        116.34035822269766,
        39.98520523682162
       ]
      ]
     ],
     [
      [
       [
        116.34036968158136,
        39.98538287551863
       ],
       [
        116.3403878355845,
        39.985664297061476
       ],
       [
        116.34035822269766,
        39.98520523682162
       ],
       [
        116.34036968158136,
        39.98538287551863
       ]
      ]
     ],
     [
      [
       [
        116.34040569778122,
        39.98594119760005
       ],
       [
        116.34041685778595,
        39.98611419632913
       ],
       [
        116.3403878355845,
        39.985664297061476
       ],
       [
        116.34040569778122,
        39.98594119760005
       ]
      ]
     ],
     [
      [
       [
        116.34042813066684,
        39.98628894740232
       ],
       [
        116.34044647144171,
        39.98657325749716
       ],
       [
        116.34041685778595,
        39.98611419632913
       ],
       [
        116.34042813066684,
        39.98628894740232
       ]
      ]
     ],
     [
      [
       [
        116.34047549326492,
        39.987023140196605
       ],
       [
        116.34044647144171,
        39.98657325749716
       ],
       [
        116.34046451501375,
        39.9868529630264
       ],
       [
        116.34047549326492,
        39.987023140196605
       ]
      ]
     ],
     [
      [
       [
        116.34047549326492,
        39.987023140196605
       ],
       [
        116.34048658113286,
        39.987195019127945
       ],
       [
        116.3405051106521,
        39.9874822482147
       ],
       [
        116.34047549326492,
        39.987023140196605
       ]
      ]
     ],
     [
      [
       [
        116.33999401628978,
        39.97955883513398
       ],
       [
        116.34005282373894,
        39.98047060168068
       ],
       [
        116.34011163258545,
        39.981382368067365
       ],
       [
        116.34017044282936,
        39.98229413429399
       ],
       [
        116.34022925447078,
        39.98320590036057
       ],
       [
        116.34028806750985,
        39.984117666267124
       ],
       [
        116.34031123389818,
        39.9844768012092
       ],
       [
        116.34032094735728,
        39.98346687521228
       ],
       [
        116.340330660348,
        39.9824569467692
       ],
       [
        116.3403403728486,
        39.98144701814764
       ],
       [
        116.34035008485903,
        39.98043708934762
       ],
       [
        116.34035979637937,
        39.979427160369106
       ],
       [
        116.34036950740963,
        39.978417231212134
       ],
       [
        116.34037921794983,
        39.97740730187669
       ],
       [
        116.34038892800002,
        39.976397372362776
       ],
       [
        116.34204821245005,
        39.97640680281349
       ],
       [
        116.343707497681,
        39.97641620951443
       ],
       [
        116.3437162638851,
        39.9754997937739
       ],
       [
        116.34372502968782,
        39.97458337788645
       ],
       [
        116.34373379508915,
        39.97366696185204
       ],
       [
        116.34374256008911,
        39.97275054567072
       ],
       [
        116.34375132468774,
        39.97183412934248
       ],
       [
        116.34376008888505,
        39.970917712867305
       ],
       [
        116.34376885268107,
        39.97000129624521
       ],
       [
        116.3437776160758,
        39.96908487947618
       ],
       [
        116.34378637906924,
        39.96816846256023
       ],
       [
        116.34379514166149,
        39.967252045497354
       ],
       [
        116.34380390385249,
        39.96633562828756
       ],
       [
        116.34381266564229,
        39.965419210930825
       ],
       [
        116.34382142703092,
        39.96450279342718
       ],
       [
        116.3438301880184,
        39.963586375776615
       ],
       [
        116.34383894860473,
        39.96266995797914
       ],
       [
        116.34384770878995,
        39.96175354003474
       ],
       [
        116.34385646857409,
        39.96083712194342
       ],
       [
        116.34386522795712,
        39.95992070370519
       ],
       [
        116.34387398693913,
        39.959004285320034
       ],
       [
        116.34388274552008,
        39.95808786678798
       ],
       [
        116.34389150370002,
        39.95717144810899
       ],
       [
        116.34390026147899,
        39.95625502928309
       ],
       [
        116.34390901885698,
        39.95533861031027
       ],
       [
        116.34391777583399,
        39.95442219119055
       ],
       [
        116.3439265324101,
        39.95350577192393
       ],
       [
        116.34393528858527,
        39.95258935251038
       ],
       [
        116.34394404435956,
        39.95167293294995
       ],
       [
        116.34395279973299,
        39.95075651324258
       ],
       [
        116.34396155470556,
        39.94984009338833
       ],
       [
        116.34200000000001,
        39.94984
       ],
       [
        116.34200000047286,
        39.948866667073744
       ],
       [
        116.34200000075657,
        39.947893333984666
       ],
       [
        116.34200000085113,
        39.946920000732746
       ],
       [
        116.34200000075656,
        39.94594666731799
       ],
       [
        116.34200000047285,
        39.944973333740414
       ],
       [
        116.34200000000001,
        39.943999999999996
       ],
       [
        116.34401733739308,
        39.94400009555534
       ],
       [
        116.34402688745679,
        39.94300010940413
       ],
       [
        116.34403643704344,
        39.942000123078
       ],
       [
        116.34404598615305,
        39.94100013657696
       ],
       [
        116.34405553478561,
        39.940000149901
       ],
       [
        116.34406508294116,
        39.939000163050146
       ],
       [
        116.34238254130125,
        39.93900009373427
       ],
       [
        116.34070000000001,
        39.93899999999999
       ],
       [
        116.34067437530872,
        39.939923079919915
       ],
       [
        116.34064874975837,
        39.940846159682124
       ],
       [
        116.34062312334889,
        39.94176923928662
       ],
       [
        116.34059749608028,
        39.94269231873342
       ],
       [
        116.34057186795243,
        39.94361539802249
       ],
       [
        116.34054623896535,
        39.94453847715383
       ],
       [
        116.3405206091189,
        39.94546155612746
       ],
       [
        116.3404949784131,
        39.946384634943364
       ],
       [
        116.34046934684787,
        39.94730771360156
       ],
       [
        116.34044371442317,
        39.94823079210204
       ],
       [
        116.34041808113894,
        39.94915387044477
       ],
       [
        116.34039244699514,
        39.950076948629786
       ],
       [
        116.3403668119917,
        39.951000026657084
       ],
       [
        116.34034117612858,
        39.95192310452664
       ],
       [
        116.34031553940571,
        39.95284618223847
       ],
       [
        116.34028990182306,
        39.95376925979257
       ],
       [
        116.34026426338055,
        39.95469233718895
       ],
       [
        116.34023862407817,
        39.95561541442759
       ],
       [
        116.34021298391585,
        39.95653849150849
       ],
       [
        116.3401873428935,
        39.95746156843166
       ],
       [
        116.34016170101111,
        39.95838464519708
       ],
       [
        116.34013605826864,
        39.95930772180477
       ],
       [
        116.340110414666,
        39.96023079825471
       ],
       [
        116.34008477020313,
        39.96115387454692
       ],
       [
        116.34005912488004,
        39.96207695068138
       ],
       [
        116.34003347869663,
        39.9630000266581
       ],
       [
        116.34000783165283,
        39.96392310247706
       ],
       [
        116.33998218374863,
        39.96484617813829
       ],
       [
        116.33995653498397,
        39.96576925364176
       ],
       [
        116.33993088535875,
        39.96669232898749
       ],
       [
        116.33990523487302,
        39.967615404175454
       ],
       [
        116.33987958352661,
        39.96853847920568
       ],
       [
        116.33985393131955,
        39.969461554078144
       ],
       [
        116.33982827825176,
        39.97038462879285
       ],
       [
        116.33980262432318,
        39.971307703349794
       ],
       [
        116.33977696953377,
        39.97223077774899
       ],
       [
        116.33975131388347,
        39.973153851990425
       ],
       [
        116.33972565737223,
        39.9740769260741
       ],
       [
        116.3397,
        39.975
       ],
       [
        116.33975880046414,
        39.97591176734685
       ],
       [
        116.33981760232508,
        39.976823534533665
       ],
       [
        116.33987640558294,
        39.977735301560465
       ],
       [
        116.33993521023781,
        39.97864706842723
       ],
       [
        116.33999401628978,
        39.97955883513398
       ]
      ]
     ],
     [
      [
       [
        116.3405341295958,
        39.987932075573106
       ],
       [
        116.3405051106521,
        39.9874822482147
       ],
       [
        116.34052333364433,
        39.987764728292724
       ],
       [
        116.3405341295958,
        39.987932075573106
       ]
      ]
     ],
     [
      [
       [
        116.34054503297956,
        39.98810109069551
       ],
       [
        116.34056375139919,
        39.988391241053186
       ],
       [
        116.3405341295958,
        39.987932075573106
       ],
       [
        116.34054503297956,
        39.98810109069551
       ]
      ]
     ],
     [
      [
       [
        116.34059276701889,
        39.98884100618329
       ],
       [
        116.34056375139919,
        39.988391241053186
       ],
       [
        116.34058215367303,
        39.98867649339896
       ],
       [
        116.34059276701889,
        39.98884100618329
       ]
      ]
     ],
     [
      [
       [
        116.340603486207,
        39.989007162104976
       ],
       [
        116.34060348636986,
        39.9890071621059
       ],
       [
        116.34059276701889,
        39.98884100618329
       ],
       [
        116.340603486207,
        39.989007162104976
       ]
      ]
     ],
     [
      [
       [
        116.34087627479211,
        39.99323531652905
       ],
       [
        116.34093510321175,
        39.99414708067482
       ],
       [
        116.34099393303026,
        39.995058844660484
       ],
       [
        116.34105276424772,
        39.995970608486054
       ],
       [
        116.34111159686422,
        39.996882372151546
       ],
       [
        116.3411704308799,
        39.99779413565692
       ],
       [
        116.34122926629483,
        39.99870589900219
       ],
       [
        116.34128810310912,
        39.99961766218734
       ],
       [
        116.34134694132288,
        40.00052942521238
       ],
       [
        116.34140578093621,
        40.00144118807731
       ],
       [
        116.34146462194923,
        40.00235295078208
       ],
       [
        116.34152346436201,
        40.00326471332677
       ],
       [
        116.34158230817464,
        40.00417647571132
       ],
       [
        116.34164115338727,
        40.00508823793574
       ],
       [
        116.34169999999999,
        40.00600000000001
       ],
       [
        116.34174544338194,
        40.00693181983166
       ],
       [
        116.34179088782655,
        40.007863639506205
       ],
       [
        116.34183633333386,
        40.00879545902365
       ],
       [
        116.34188177990399,
        40.009727278383956
       ],
       [
        116.34192722753704,
        40.01065909758717
       ],
       [
        116.34197267623303,
        40.01159091663325
       ],
       [
        116.34201812599208,
        40.01252273552222
       ],
       [
        116.34206357681428,
        40.01345455425404
       ],
       [
        116.34210902869968,
        40.01438637282874
       ],
       [
        116.34215448164841,
        40.015318191246315
       ],
       [
        116.34219993566047,
        40.016250009506756
       ],
       [
        116.34224539073604,
        40.017181827610045
       ],
       [
        116.34229084687513,
        40.01811364555622
       ],
       [
        116.34233630407786,
        40.019045463345236
       ],
       [
        116.34238176234429,
        40.01997728097712
       ],
       [
        116.3424272216745,
        40.020909098451845
       ],
       [
        116.3424726820686,
        40.02184091576943
       ],
       [
        116.34251814352665,
        40.02277273292986
       ],
       [
        116.34256360604874,
        40.02370454993314
       ],
       [
        116.34260906963493,
        40.024636366779255
       ],
       [
        116.34265453428533,
        40.02556818346821
       ],
       [
        116.34270000000001,
        40.0265
       ],
       [
        116.34322779522323,
        40.026500027493995
       ],
       [
        116.34323259033674,
        40.026000010806555
       ],
       [
        116.34299999999999,
        40.025999999999996
       ],
       [
        116.34300000162048,
        40.02507500139774
       ],
       [
        116.34300000307034,
        40.02415000264835
       ],
       [
        116.34300000434962,
        40.023225003751804
       ],
       [
        116.34300000545831,
        40.02230000470814
       ],
       [
        116.3430000063964,
        40.02137500551734
       ],
       [
        116.3430000071639,
        40.020450006179416
       ],
       [
        116.34300000776082,
        40.019525006694366
       ],
       [
        116.34300000818718,
        40.01860000706216
       ],
       [
        116.34300000844294,
        40.01767500728285
       ],
       [
        116.34300000852815,
        40.0167500073564
       ],
       [
        116.34300000844279,
        40.01582500728281
       ],
       [
        116.34300000818689,
        40.01490000706211
       ],
       [
        116.34300000776042,
        40.01397500669428
       ],
       [
        116.3430000071634,
        40.01305000617931
       ],
       [
        116.34300000639584,
        40.01212500551724
       ],
       [
        116.34300000545772,
        40.01120000470804
       ],
       [
        116.34300000434908,
        40.0102750037517
       ],
       [
        116.34300000306992,
        40.00935000264825
       ],
       [
        116.34300000162023,
        40.00842500139769
       ],
       [
        116.34299999999999,
        40.0075
       ],
       [
        116.34340991903215,
        40.0075000187298
       ],
       [
        116.343418860951,
        40.00656668941403
       ],
       [
        116.34342780245278,
        40.00563335994581
       ],
       [
        116.3434367435375,
        40.00470003032516
       ],
       [
        116.34344568420516,
        40.00376670055206
       ],
       [
        116.34345462445584,
        40.00283337062655
       ],
       [
        116.34346356428951,
        40.00190004054859
       ],
       [
        116.34347250370618,
        40.00096671031819
       ],
       [
        116.34348144270592,
        40.00003337993539
       ],
       [
        116.34349038128872,
        39.99910004940013
       ],
       [
        116.34349931945462,
        39.99816671871245
       ],
       [
        116.34350825720361,
        39.99723338787234
       ],
       [
        116.34351719453574,
        39.99630005687979
       ],
       [
        116.34352613145104,
        39.99536672573482
       ],
       [
        116.34353506794949,
        39.994433394437436
       ],
       [
        116.34354400403117,
        39.99350006298762
       ],
       [
        116.34200000000001,
        39.99349999999999
       ],
       [
        116.34200000099379,
        39.99237877500712
       ],
       [
        116.34200000173657,
        39.99125754979811
       ],
       [
        116.34200000222833,
        39.99013632437298
       ],
       [
        116.3420000024691,
        39.98901509873172
       ],
       [
        116.34060348636986,
        39.9890071621059
       ],
       [
        116.34064097509994,
        39.98958825834513
       ],
       [
        116.34069979792523,
        39.99050002313123
       ],
       [
        116.34075862214895,
        39.99141178775725
       ],
       [
        116.3408174477712,
        39.992323552223205
       ],
       [
        116.34087627479211,
        39.99323531652905
       ]
      ]
     ]
    ]
   },
   "properties": {
    "id": "LU-012",
    "layer": "LAND_USE",
    "source_type": "agent_generated_design",
    "confidence": "medium",
    "geometry_role": "design_proposal",
    "land_use_code": "05",
    "name_zh": "城市综合服务带",
    "area_sqm_declared": 1702115.12
   }
  },
  {
   "type": "Feature",
   "id": "LU-013",
   "geometry": {
    "type": "Polygon",
    "coordinates": [
     [
      [
       116.34756613340694,
       39.99350013048542
      ],
      [
       116.34622542340317,
       39.99350012349571
      ],
      [
       116.3448847136109,
       39.99350010099642
      ],
      [
       116.34354400403117,
       39.99350006298762
      ],
      [
       116.34353506794949,
       39.994433394437436
      ],
      [
       116.34352613145104,
       39.99536672573482
      ],
      [
       116.34351719453574,
       39.99630005687979
      ],
      [
       116.34350825720361,
       39.99723338787234
      ],
      [
       116.34349931945462,
       39.99816671871245
      ],
      [
       116.34349038128872,
       39.99910004940013
      ],
      [
       116.34348144270592,
       40.00003337993539
      ],
      [
       116.34347250370618,
       40.00096671031819
      ],
      [
       116.34346356428951,
       40.00190004054859
      ],
      [
       116.34345462445584,
       40.00283337062655
      ],
      [
       116.34344568420516,
       40.00376670055206
      ],
      [
       116.3434367435375,
       40.00470003032516
      ],
      [
       116.34342780245278,
       40.00563335994581
      ],
      [
       116.343418860951,
       40.00656668941403
      ],
      [
       116.34340991903215,
       40.0075000187298
      ],
      [
       116.34475090235802,
       40.007500069871064
      ],
      [
       116.34609188589697,
       40.00750010549513
      ],
      [
       116.34743286964803,
       40.00750012560202
      ],
      [
       116.34744175679968,
       40.00656679366114
      ],
      [
       116.3474506435368,
       40.00563346156785
      ],
      [
       116.3474595298594,
       40.00470012932214
      ],
      [
       116.34746841576754,
       40.00376679692401
      ],
      [
       116.34747730126121,
       40.00283346437347
      ],
      [
       116.34748618634043,
       40.00190013167051
      ],
      [
       116.3474950710052,
       40.00096679881514
      ],
      [
       116.34750395525559,
       40.00003346580736
      ],
      [
       116.34751283909162,
       39.99910013264717
      ],
      [
       116.34752172251328,
       39.99816679933457
      ],
      [
       116.34753060552059,
       39.99723346586955
      ],
      [
       116.3475394881136,
       39.99630013225212
      ],
      [
       116.34754837029233,
       39.995366798482294
      ],
      [
       116.34755725205677,
       39.99443346456006
      ],
      [
       116.34756613340694,
       39.99350013048542
      ]
     ]
    ]
   },
   "properties": {
    "id": "LU-013",
    "layer": "LAND_USE",
    "source_type": "agent_generated_design",
    "confidence": "medium",
    "geometry_role": "design_proposal",
    "land_use_code": "0701",
    "name_zh": "宜居生活社区",
    "area_sqm_declared": 534002.23
   }
  },
  {
   "type": "Feature",
   "id": "LU-014",
   "geometry": {
    "type": "Polygon",
    "coordinates": [
     [
      [
       116.34401733739308,
       39.94400009555534
      ],
      [
       116.34535708012089,
       39.94400013961723
      ],
      [
       116.34669682306138,
       39.94400016819661
      ],
      [
       116.34803656621342,
       39.94400018129346
      ],
      [
       116.34804605779458,
       39.94300019134388
      ],
      [
       116.34805554890154,
       39.94200020121939
      ],
      [
       116.34806503953436,
       39.94100021092004
      ],
      [
       116.3480745296931,
       39.94000022044576
      ],
      [
       116.34808401937774,
       39.93900022979663
      ],
      [
       116.3467443736872,
       39.93900022302761
      ],
      [
       116.34540472820801,
       39.93900020077877
      ],
      [
       116.34406508294116,
       39.939000163050146
      ],
      [
       116.34405553478561,
       39.940000149901
      ],
      [
       116.34404598615305,
       39.94100013657696
      ],
      [
       116.34403643704344,
       39.942000123078
      ],
      [
       116.34402688745679,
       39.94300010940413
      ],
      [
       116.34401733739308,
       39.94400009555534
      ]
     ]
    ]
   },
   "properties": {
    "id": "LU-014",
    "layer": "LAND_USE",
    "source_type": "agent_generated_design",
    "confidence": "medium",
    "geometry_role": "design_proposal",
    "land_use_code": "0701",
    "name_zh": "宜居生活社区",
    "area_sqm_declared": 190711.24
   }
  },
  {
   "type": "Feature",
   "id": "LU-015",
   "geometry": {
    "type": "Polygon",
    "coordinates": [
     [
      [
       116.34725662748718,
       40.026000123858886
      ],
      [
       116.34591528155781,
       40.02600010170208
      ],
      [
       116.34457393584064,
       40.02600006401796
      ],
      [
       116.34323259033674,
       40.026000010806555
      ],
      [
       116.34322779522323,
       40.026500027493995
      ],
      [
       116.34456915046535,
       40.0265000865494
      ],
      [
       116.34591050592094,
       40.026500130077245
      ],
      [
       116.34725186158894,
       40.02650015807753
      ],
      [
       116.34725662748718,
       40.026000123858886
      ]
     ]
    ]
   },
   "properties": {
    "id": "LU-015",
    "layer": "LAND_USE",
    "source_type": "agent_generated_design",
    "confidence": "medium",
    "geometry_role": "design_proposal",
    "land_use_code": "0701",
    "name_zh": "宜居生活社区",
    "area_sqm_declared": 19072.6
   }
  },
  {
   "type": "Feature",
   "id": "LU-016",
   "geometry": {
    "type": "Polygon",
    "coordinates": [
     [
      [
       116.3472749572821,
       39.983500130277925
      ],
      [
       116.34766126457434,
       39.98350013038419
      ],
      [
       116.3476699165345,
       39.982590404630116
      ],
      [
       116.34767856810139,
       39.98168067873124
      ],
      [
       116.34768721927495,
       39.98077095268757
      ],
      [
       116.34769587005529,
       39.97986122649915
      ],
      [
       116.34770452044238,
       39.978951500165934
      ],
      [
       116.34771317043626,
       39.97804177368794
      ],
      [
       116.34772182003695,
       39.97713204706517
      ],
      [
       116.34773046924445,
       39.97622232029762
      ],
      [
       116.34773911805878,
       39.975312593385304
      ],
      [
       116.34774776648,
       39.9744028663282
      ],
      [
       116.3477564145081,
       39.973493139126326
      ],
      [
       116.34776506214308,
       39.97258341177968
      ],
      [
       116.347773709385,
       39.97167368428828
      ],
      [
       116.34778235623385,
       39.9707639566521
      ],
      [
       116.34779100268969,
       39.96985422887115
      ],
      [
       116.34779964875248,
       39.96894450094541
      ],
      [
       116.3478082944223,
       39.96803477287492
      ],
      [
       116.34781693969913,
       39.96712504465966
      ],
      [
       116.34782558458299,
       39.96621531629964
      ],
      [
       116.34783422907392,
       39.96530558779485
      ],
      [
       116.34784287317196,
       39.964395859145284
      ],
      [
       116.34785151687707,
       39.96348613035096
      ],
      [
       116.3478601601893,
       39.96257640141187
      ],
      [
       116.3478688031087,
       39.96166667232803
      ],
      [
       116.34787744563525,
       39.960756943099426
      ],
      [
       116.34788608776896,
       39.95984721372605
      ],
      [
       116.34789472950989,
       39.95893748420792
      ],
      [
       116.34790337085803,
       39.95802775454503
      ],
      [
       116.34791201181342,
       39.95711802473738
      ],
      [
       116.34792065237608,
       39.956208294784986
      ],
      [
       116.34792929254601,
       39.955298564687816
      ],
      [
       116.34793793232325,
       39.95438883444591
      ],
      [
       116.3479465717078,
       39.953479104059234
      ],
      [
       116.34795521069971,
       39.95256937352781
      ],
      [
       116.34796384929896,
       39.95165964285164
      ],
      [
       116.34797248750559,
       39.950749912030695
      ],
      [
       116.34798112531962,
       39.94984018106503
      ],
      [
       116.3466412682363,
       39.949840167325156
      ],
      [
       116.34530141136457,
       39.9498401380996
      ],
      [
       116.34396155470556,
       39.94984009338833
      ],
      [
       116.34395279973299,
       39.95075651324258
      ],
      [
       116.34394404435956,
       39.95167293294995
      ],
      [
       116.34393528858527,
       39.95258935251038
      ],
      [
       116.3439265324101,
       39.95350577192393
      ],
      [
       116.34391777583399,
       39.95442219119055
      ],
      [
       116.34390901885698,
       39.95533861031027
      ],
      [
       116.34390026147899,
       39.95625502928309
      ],
      [
       116.34389150370002,
       39.95717144810899
      ],
      [
       116.34388274552008,
       39.95808786678798
      ],
      [
       116.34387398693913,
       39.959004285320034
      ],
      [
       116.34386522795712,
       39.95992070370519
      ],
      [
       116.34385646857409,
       39.96083712194342
      ],
      [
       116.34384770878995,
       39.96175354003474
      ],
      [
       116.34383894860473,
       39.96266995797914
      ],
      [
       116.3438301880184,
       39.963586375776615
      ],
      [
       116.34382142703092,
       39.96450279342718
      ],
      [
       116.34381266564229,
       39.965419210930825
      ],
      [
       116.34380390385249,
       39.96633562828756
      ],
      [
       116.34379514166149,
       39.967252045497354
      ],
      [
       116.34378637906924,
       39.96816846256023
      ],
      [
       116.3437776160758,
       39.96908487947618
      ],
      [
       116.34376885268107,
       39.97000129624521
      ],
      [
       116.34376008888505,
       39.970917712867305
      ],
      [
       116.34375132468774,
       39.97183412934248
      ],
      [
       116.34374256008911,
       39.97275054567072
      ],
      [
       116.34373379508915,
       39.97366696185204
      ],
      [
       116.34372502968782,
       39.97458337788645
      ],
      [
       116.3437162638851,
       39.9754997937739
      ],
      [
       116.343707497681,
       39.97641620951443
      ],
      [
       116.34491905245694,
       39.97642306296949
      ],
      [
       116.3461306076474,
       39.97642990376248
      ],
      [
       116.34734216325162,
       39.9764367318934
      ],
      [
       116.34733256385103,
       39.97744578933984
      ],
      [
       116.34732296396642,
       39.97845484660815
      ],
      [
       116.34731336359775,
       39.97946390369836
      ],
      [
       116.34730376274501,
       39.98047296061044
      ],
      [
       116.34729416140819,
       39.9814820173444
      ],
      [
       116.34728455958721,
       39.98249107390022
      ],
      [
       116.3472749572821,
       39.983500130277925
      ]
     ]
    ]
   },
   "properties": {
    "id": "LU-016",
    "layer": "LAND_USE",
    "source_type": "agent_generated_design",
    "confidence": "medium",
    "geometry_role": "design_proposal",
    "land_use_code": "0701",
    "name_zh": "宜居生活社区",
    "area_sqm_declared": 1039995.81
   }
  },
  {
   "type": "Feature",
   "id": "LU-017",
   "geometry": {
    "type": "Polygon",
    "coordinates": [
     [
      [
       116.35151509490892,
       39.94984014301717
      ],
      [
       116.3503371048842,
       39.949840167669876
      ],
      [
       116.3491591150209,
       39.949840180352496
      ],
      [
       116.34798112531962,
       39.94984018106503
      ],
      [
       116.34797248750559,
       39.950749912030695
      ],
      [
       116.34796384929896,
       39.95165964285164
      ],
      [
       116.34795521069971,
       39.95256937352781
      ],
      [
       116.3479465717078,
       39.953479104059234
      ],
      [
       116.34793793232325,
       39.95438883444591
      ],
      [
       116.34792929254601,
       39.955298564687816
      ],
      [
       116.34792065237608,
       39.956208294784986
      ],
      [
       116.34791201181342,
       39.95711802473738
      ],
      [
       116.34790337085803,
       39.95802775454503
      ],
      [
       116.34789472950989,
       39.95893748420792
      ],
      [
       116.34788608776896,
       39.95984721372605
      ],
      [
       116.34787744563525,
       39.960756943099426
      ],
      [
       116.3478688031087,
       39.96166667232803
      ],
      [
       116.3478601601893,
       39.96257640141187
      ],
      [
       116.34785151687707,
       39.96348613035096
      ],
      [
       116.34784287317196,
       39.964395859145284
      ],
      [
       116.34783422907392,
       39.96530558779485
      ],
      [
       116.34782558458299,
       39.96621531629964
      ],
      [
       116.34781693969913,
       39.96712504465966
      ],
      [
       116.3478082944223,
       39.96803477287492
      ],
      [
       116.34779964875248,
       39.96894450094541
      ],
      [
       116.34779100268969,
       39.96985422887115
      ],
      [
       116.34778235623385,
       39.9707639566521
      ],
      [
       116.347773709385,
       39.97167368428828
      ],
      [
       116.34776506214308,
       39.97258341177968
      ],
      [
       116.3477564145081,
       39.973493139126326
      ],
      [
       116.34774776648,
       39.9744028663282
      ],
      [
       116.34773911805878,
       39.975312593385304
      ],
      [
       116.34773046924445,
       39.97622232029762
      ],
      [
       116.34772182003695,
       39.97713204706517
      ],
      [
       116.34771317043626,
       39.97804177368794
      ],
      [
       116.34770452044238,
       39.978951500165934
      ],
      [
       116.34769587005529,
       39.97986122649915
      ],
      [
       116.34768721927495,
       39.98077095268757
      ],
      [
       116.34767856810139,
       39.98168067873124
      ],
      [
       116.3476699165345,
       39.982590404630116
      ],
      [
       116.34766126457434,
       39.98350013038419
      ],
      [
       116.34883983227755,
       39.98350012275223
      ],
      [
       116.35001840014269,
       39.983500103135974
      ],
      [
       116.35119696816908,
       39.98350007153543
      ],
      [
       116.35120557322587,
       39.98259034634321
      ],
      [
       116.35121417789148,
       39.981680621006234
      ],
      [
       116.35122278216596,
       39.98077089552448
      ],
      [
       116.3512313860493,
       39.97986116989799
      ],
      [
       116.35123998954158,
       39.97895144412673
      ],
      [
       116.35124859264275,
       39.97804171821069
      ],
      [
       116.35125719535284,
       39.977131992149914
      ],
      [
       116.3512657976719,
       39.97622226594436
      ],
      [
       116.35127439959992,
       39.975312539594064
      ],
      [
       116.35128300113696,
       39.974402813099005
      ],
      [
       116.351291602283,
       39.973493086459186
      ],
      [
       116.35130020303808,
       39.972583359674616
      ],
      [
       116.35130880340218,
       39.971673632745286
      ],
      [
       116.35131740337538,
       39.9707639056712
      ],
      [
       116.35132600295768,
       39.969854178452366
      ],
      [
       116.3513346021491,
       39.96894445108877
      ],
      [
       116.35134320094964,
       39.96803472358043
      ],
      [
       116.35135179935934,
       39.967124995927335
      ],
      [
       116.3513603973782,
       39.9662152681295
      ],
      [
       116.35136899500625,
       39.96530554018691
      ],
      [
       116.35137759224352,
       39.964395812099575
      ],
      [
       116.35138618909004,
       39.96348608386749
      ],
      [
       116.35139478554579,
       39.96257635549066
      ],
      [
       116.35140338161081,
       39.961666626969084
      ],
      [
       116.35141197728514,
       39.96075689830277
      ],
      [
       116.35142057256876,
       39.9598471694917
      ],
      [
       116.35142916746172,
       39.95893744053589
      ],
      [
       116.35143776196404,
       39.95802771143534
      ],
      [
       116.35144635607573,
       39.95711798219006
      ],
      [
       116.35145494979679,
       39.95620825280003
      ],
      [
       116.3514635431273,
       39.95529852326527
      ],
      [
       116.35147213606719,
       39.95438879358576
      ],
      [
       116.35148072861656,
       39.95347906376151
      ],
      [
       116.3514893207754,
       39.95256933379254
      ],
      [
       116.35149791254373,
       39.95165960367881
      ],
      [
       116.35150650392156,
       39.950749873420364
      ],
      [
       116.35151509490892,
       39.94984014301717
      ]
     ]
    ]
   },
   "properties": {
    "id": "LU-017",
    "layer": "LAND_USE",
    "source_type": "agent_generated_design",
    "confidence": "medium",
    "geometry_role": "design_proposal",
    "land_use_code": "0701",
    "name_zh": "宜居生活社区",
    "area_sqm_declared": 1128779.67
   }
  },
  {
   "type": "Feature",
   "id": "LU-018",
   "geometry": {
    "type": "Polygon",
    "coordinates": [
     [
      [
       116.35110235263407,
       39.99350007451925
      ],
      [
       116.34992361273018,
       39.99350010516315
      ],
      [
       116.34874487298757,
       39.99350012381854
      ],
      [
       116.34756613340694,
       39.99350013048542
      ],
      [
       116.34755725205677,
       39.99443346456006
      ],
      [
       116.34754837029233,
       39.995366798482294
      ],
      [
       116.3475394881136,
       39.99630013225212
      ],
      [
       116.34753060552059,
       39.99723346586955
      ],
      [
       116.34752172251328,
       39.99816679933457
      ],
      [
       116.34751283909162,
       39.99910013264717
      ],
      [
       116.34750395525559,
       40.00003346580736
      ],
      [
       116.3474950710052,
       40.00096679881514
      ],
      [
       116.34748618634043,
       40.00190013167051
      ],
      [
       116.34747730126121,
       40.00283346437347
      ],
      [
       116.34746841576754,
       40.00376679692401
      ],
      [
       116.3474595298594,
       40.00470012932214
      ],
      [
       116.3474506435368,
       40.00563346156785
      ],
      [
       116.34744175679968,
       40.00656679366114
      ],
      [
       116.34743286964803,
       40.00750012560202
      ],
      [
       116.34861184990507,
       40.0075001304613
      ],
      [
       116.34979083032454,
       40.007500123326196
      ],
      [
       116.3509698109057,
       40.00750010419664
      ],
      [
       116.35097864990628,
       40.00656676995158
      ],
      [
       116.35098748849457,
       40.005633435554145
      ],
      [
       116.35099632667058,
       40.00470010100429
      ],
      [
       116.35100516443437,
       40.00376676630204
      ],
      [
       116.35101400178593,
       40.0028334314474
      ],
      [
       116.35102283872529,
       40.00190009644036
      ],
      [
       116.35103167525247,
       40.000966761280914
      ],
      [
       116.35104051136747,
       40.000033425969086
      ],
      [
       116.35104934707036,
       39.99910009050485
      ],
      [
       116.35105818236114,
       39.99816675488823
      ],
      [
       116.35106701723984,
       39.99723341911922
      ],
      [
       116.35107585170643,
       39.99630008319781
      ],
      [
       116.351084685761,
       39.995366747124
      ],
      [
       116.35109351940355,
       39.99443341089783
      ],
      [
       116.35110235263407,
       39.99350007451925
      ]
     ]
    ]
   },
   "properties": {
    "id": "LU-018",
    "layer": "LAND_USE",
    "source_type": "agent_generated_design",
    "confidence": "medium",
    "geometry_role": "design_proposal",
    "land_use_code": "0701",
    "name_zh": "宜居生活社区",
    "area_sqm_declared": 469490.54
   }
  },
  {
   "type": "Feature",
   "id": "LU-019",
   "geometry": {
    "type": "Polygon",
    "coordinates": [
     [
      [
       116.34803656621342,
       39.94400018129346
      ],
      [
       116.34921445574734,
       39.94400018001824
      ],
      [
       116.35039234544331,
       39.94400016677539
      ],
      [
       116.35157023530063,
       39.94400014156491
      ],
      [
       116.35158038404008,
       39.94292508703963
      ],
      [
       116.35159053223447,
       39.94185003231225
      ],
      [
       116.35160067988384,
       39.940774977382766
      ],
      [
       116.35161082698824,
       39.939699922251165
      ],
      [
       116.35209633248834,
       39.93970263643847
      ],
      [
       116.35210295770703,
       39.93900015722488
      ],
      [
       116.35076331138868,
       39.939000196895286
      ],
      [
       116.34942366527858,
       39.939000221085855
      ],
      [
       116.34808401937774,
       39.93900022979663
      ],
      [
       116.3480745296931,
       39.94000022044576
      ],
      [
       116.34806503953436,
       39.94100021092004
      ],
      [
       116.34805554890154,
       39.94200020121939
      ],
      [
       116.34804605779458,
       39.94300019134388
      ],
      [
       116.34803656621342,
       39.94400018129346
      ]
     ]
    ]
   },
   "properties": {
    "id": "LU-019",
    "layer": "LAND_USE",
    "source_type": "agent_generated_design",
    "confidence": "medium",
    "geometry_role": "design_proposal",
    "land_use_code": "0701",
    "name_zh": "宜居生活社区",
    "area_sqm_declared": 170902.7
   }
  },
  {
   "type": "Feature",
   "id": "LU-020",
   "geometry": {
    "type": "Polygon",
    "coordinates": [
     [
      [
       116.35128066653812,
       40.0260000971655
      ],
      [
       116.34993931997836,
       40.02600012159061
      ],
      [
       116.3485979736277,
       40.026000130488406
      ],
      [
       116.34725662748718,
       40.026000123858886
      ],
      [
       116.34725186158894,
       40.02650015807753
      ],
      [
       116.34859321746836,
       40.026500170550236
      ],
      [
       116.34993457355816,
       40.026500167495364
      ],
      [
       116.35127592985724,
       40.026500148912895
      ],
      [
       116.35128066653812,
       40.0260000971655
      ]
     ]
    ]
   },
   "properties": {
    "id": "LU-020",
    "layer": "LAND_USE",
    "source_type": "agent_generated_design",
    "confidence": "medium",
    "geometry_role": "design_proposal",
    "land_use_code": "0701",
    "name_zh": "宜居生活社区",
    "area_sqm_declared": 19073.25
   }
  },
  {
   "type": "Feature",
   "id": "LU-021",
   "geometry": {
    "type": "Polygon",
    "coordinates": [
     [
      [
       116.35210295770703,
       39.93900015722488
      ],
      [
       116.35209633248834,
       39.93970263643847
      ],
      [
       116.35313175036984,
       39.93970841808372
      ],
      [
       116.35312164718567,
       39.94078133669034
      ],
      [
       116.35311154345996,
       39.94185425509566
      ],
      [
       116.35310143919266,
       39.94292717329969
      ],
      [
       116.35309133438375,
       39.944000091302414
      ],
      [
       116.35500000000002,
       39.944
      ],
      [
       116.3550000004635,
       39.94497333374052
      ],
      [
       116.35500000074161,
       39.94594666731817
      ],
      [
       116.35500000083434,
       39.94692000073293
      ],
      [
       116.35500000074164,
       39.94789333398482
      ],
      [
       116.35500000046353,
       39.94886666707385
      ],
      [
       116.35500000000002,
       39.94983999999999
      ],
      [
       116.35303632334586,
       39.94984009347134
      ],
      [
       116.35302781122523,
       39.950743592161544
      ],
      [
       116.35301929872038,
       39.951647090708974
      ],
      [
       116.35301078583126,
       39.95255058911367
      ],
      [
       116.35300227255789,
       39.95345408737562
      ],
      [
       116.35299375890021,
       39.95435758549481
      ],
      [
       116.35298524485819,
       39.95526108347126
      ],
      [
       116.35297673043189,
       39.95616458130492
      ],
      [
       116.35296821562119,
       39.957068078995846
      ],
      [
       116.35295970042614,
       39.95797157654401
      ],
      [
       116.35295118484672,
       39.95887507394942
      ],
      [
       116.35294266888286,
       39.95977857121207
      ],
      [
       116.35293415253459,
       39.96068206833197
      ],
      [
       116.35292563580184,
       39.9615855653091
      ],
      [
       116.35291711868466,
       39.96248906214347
      ],
      [
       116.35290860118296,
       39.963392558835075
      ],
      [
       116.35290008329677,
       39.964296055383926
      ],
      [
       116.35289156502607,
       39.96519955179
      ],
      [
       116.35288304637079,
       39.96610304805332
      ],
      [
       116.35287452733098,
       39.96700654417386
      ],
      [
       116.35286600790658,
       39.96791004015166
      ],
      [
       116.35285748809756,
       39.96881353598669
      ],
      [
       116.35284896790391,
       39.96971703167894
      ],
      [
       116.35284044732562,
       39.97062052722841
      ],
      [
       116.3528319263627,
       39.97152402263513
      ],
      [
       116.35282340501507,
       39.97242751789907
      ],
      [
       116.35281488328275,
       39.973331013020236
      ],
      [
       116.35280636116572,
       39.97423450799864
      ],
      [
       116.35279783866393,
       39.97513800283427
      ],
      [
       116.35278931577737,
       39.97604149752711
      ],
      [
       116.35278079250605,
       39.97694499207719
      ],
      [
       116.35277226884996,
       39.97784848648449
      ],
      [
       116.35276374480901,
       39.97875198074902
      ],
      [
       116.35275522038324,
       39.97965547487077
      ],
      [
       116.3527466955726,
       39.98055896884974
      ],
      [
       116.35273817037712,
       39.98146246268593
      ],
      [
       116.35272964479671,
       39.98236595637934
      ],
      [
       116.35391036526492,
       39.982372543897014
      ],
      [
       116.35398352295068,
       39.98145820133016
      ],
      [
       116.35405667852284,
       39.980543858557866
      ],
      [
       116.35412983198151,
       39.97962951558012
      ],
      [
       116.35420298332684,
       39.978715172396925
      ],
      [
       116.35427613255898,
       39.977800829008316
      ],
      [
       116.35434927967805,
       39.976886485414276
      ],
      [
       116.35442242468419,
       39.975972141614804
      ],
      [
       116.35449556757754,
       39.975057797609914
      ],
      [
       116.35456870835826,
       39.97414345339959
      ],
      [
       116.35464184702646,
       39.973229108983894
      ],
      [
       116.35471498358228,
       39.972314764362785
      ],
      [
       116.35478811802587,
       39.971400419536266
      ],
      [
       116.35486125035739,
       39.970486074504365
      ],
      [
       116.3549343805769,
       39.969571729267074
      ],
      [
       116.35500750868462,
       39.9686573838244
      ],
      [
       116.35508063468065,
       39.967743038176344
      ],
      [
       116.35515375856512,
       39.96682869232294
      ],
      [
       116.35522688033822,
       39.96591434626416
      ],
      [
       116.3553,
       39.965
      ],
      [
       116.35530000227723,
       39.964071430572744
      ],
      [
       116.35530000438574,
       39.963142860997245
      ],
      [
       116.35530000632552,
       39.96221429127349
      ],
      [
       116.3553000080966,
       39.96128572140149
      ],
      [
       116.35530000969894,
       39.96035715138122
      ],
      [
       116.35530001113261,
       39.95942858121271
      ],
      [
       116.35530001239758,
       39.958500010895946
      ],
      [
       116.35530001349383,
       39.95757144043094
      ],
      [
       116.3553000144214,
       39.95664286981769
      ],
      [
       116.35530001518028,
       39.95571429905619
      ],
      [
       116.3553000157705,
       39.95478572814643
      ],
      [
       116.35530001619203,
       39.95385715708844
      ],
      [
       116.35530001644487,
       39.9529285858822
      ],
      [
       116.35530001652907,
       39.95200001452774
      ],
      [
       116.35530001644456,
       39.95107144302502
      ],
      [
       116.35530001619145,
       39.95014287137405
      ],
      [
       116.35530001576966,
       39.949214299574855
      ],
      [
       116.35530001517921,
       39.94828572762741
      ],
      [
       116.35530001442011,
       39.94735715553172
      ],
      [
       116.35530001349238,
       39.9464285832878
      ],
      [
       116.35530001239603,
       39.94550001089566
      ],
      [
       116.35530001113104,
       39.94457143835525
      ],
      [
       116.35530000969739,
       39.94364286566663
      ],
      [
       116.35530000809516,
       39.94271429282977
      ],
      [
       116.35530000632427,
       39.94178571984467
      ],
      [
       116.35530000438479,
       39.94085714671135
      ],
      [
       116.35530000227669,
       39.93992857342979
      ],
      [
       116.3553,
       39.939
      ],
      [
       116.35370147870688,
       39.93900008963271
      ],
      [
       116.35210295770703,
       39.93900015722488
      ]
     ]
    ]
   },
   "properties": {
    "id": "LU-021",
    "layer": "LAND_USE",
    "source_type": "agent_generated_design",
    "confidence": "medium",
    "geometry_role": "design_proposal",
    "land_use_code": "0701",
    "name_zh": "宜居生活社区",
    "area_sqm_declared": 758695.94
   }
  }
 ]
}