{
 "type": "FeatureCollection",
 "features": [
  {
   "type": "Feature",
   "id": "GREEN-001",
   "properties": {
    "name_zh": "公园绿地绿地",
    "green_type": "park",
    "id": "GREEN-001",
    "layer": "GREEN_SPACE",
    "source_type": "agent_generated_design",
    "confidence": "medium",
    "geometry_role": "design_proposal"
   },
   "geometry": {
    "type": "Polygon",
    "coordinates": [
     [
      [
       116.34431884781033,
       40.02614040874291
      ],
      [
       116.342682002012,
       40.026131135262546
      ],
      [
       116.34270000000384,
       40.02650000000097
      ],
      [
       116.34736126205878,
       40.026500159677425
      ],
      [
       116.34736452648754,
       40.026157602365345
      ],
      [
       116.34431884781033,
       40.02614040874291
      ]
     ]
    ]
   }
  },
  {
   "type": "Feature",
   "id": "GREEN-002",
   "properties": {
    "name_zh": "防护绿地绿地",
    "green_type": "protective",
    "id": "GREEN-002",
    "layer": "GREEN_SPACE",
    "source_type": "agent_generated_design",
    "confidence": "medium",
    "geometry_role": "design_proposal"
   },
   "geometry": {
    "type": "Polygon",
    "coordinates": [
     [
      [
       116.3552836599356,
       40.02620193317169
      ],
      [
       116.3544457394848,
       40.02619726815023
      ],
      [
       116.35444288547006,
       40.02650004342803
      ],
      [
       116.35530000000092,
       40.02650000000004
      ],
      [
       116.3552836599356,
       40.02620193317169
      ]
     ]
    ]
   }
  },
  {
   "type": "Feature",
   "id": "GREEN-003",
   "properties": {
    "name_zh": "防护绿地绿地",
    "green_type": "protective",
    "id": "GREEN-003",
    "layer": "GREEN_SPACE",
    "source_type": "agent_generated_design",
    "confidence": "medium",
    "geometry_role": "design_proposal"
   },
   "geometry": {
    "type": "Polygon",
    "coordinates": [
     [
      [
       116.35445040824702,
       40.02570196094156
      ],
      [
       116.3552564977036,
       40.02570644881267
      ],
      [
       116.354771339532,
       40.01685528873598
      ],
      [
       116.35453378984687,
       40.01685396584607
      ],
      [
       116.35445040824702,
       40.02570196094156
      ]
     ]
    ]
   }
  },
  {
   "type": "Feature",
   "id": "GREEN-004",
   "properties": {
    "name_zh": "公园绿地绿地",
    "green_type": "park",
    "id": "GREEN-004",
    "layer": "GREEN_SPACE",
    "source_type": "agent_generated_design",
    "confidence": "medium",
    "geometry_role": "design_proposal"
   },
   "geometry": {
    "type": "Polygon",
    "coordinates": [
     [
      [
       116.342682002012,
       40.026131135262546
      ],
      [
       116.34431884781033,
       40.02614040874291
      ],
      [
       116.34432358979934,
       40.0256451025258
      ],
      [
       116.34440827919035,
       40.01679712514091
      ],
      [
       116.3444772098158,
       40.009592655064424
      ],
      [
       116.34226377197764,
       40.009580113693104
      ],
      [
       116.3421997733619,
       40.01624668238106
      ],
      [
       116.342682002012,
       40.026131135262546
      ]
     ]
    ]
   }
  },
  {
   "type": "Feature",
   "id": "GREEN-005",
   "properties": {
    "name_zh": "防护绿地绿地",
    "green_type": "protective",
    "id": "GREEN-005",
    "layer": "GREEN_SPACE",
    "source_type": "agent_generated_design",
    "confidence": "medium",
    "geometry_role": "design_proposal"
   },
   "geometry": {
    "type": "Polygon",
    "coordinates": [
     [
      [
       116.35456862416008,
       40.01315637766766
      ],
      [
       116.35453378984687,
       40.01685396584607
      ],
      [
       116.354771339532,
       40.01685528873598
      ],
      [
       116.35456862416008,
       40.01315637766766
      ]
     ]
    ]
   }
  },
  {
   "type": "Feature",
   "id": "GREEN-006",
   "properties": {
    "name_zh": "公园绿地绿地",
    "green_type": "park",
    "id": "GREEN-006",
    "layer": "GREEN_SPACE",
    "source_type": "agent_generated_design",
    "confidence": "medium",
    "geometry_role": "design_proposal"
   },
   "geometry": {
    "type": "Polygon",
    "coordinates": [
     [
      [
       116.3444772098158,
       40.009592655064424
      ],
      [
       116.34440827919035,
       40.01679712514091
      ],
      [
       116.3474535425254,
       40.016814313108036
      ],
      [
       116.34752215301943,
       40.009609838671864
      ],
      [
       116.3444772098158,
       40.009592655064424
      ]
     ]
    ]
   }
  },
  {
   "type": "Feature",
   "id": "GREEN-007",
   "properties": {
    "name_zh": "防护绿地绿地",
    "green_type": "protective",
    "id": "GREEN-007",
    "layer": "GREEN_SPACE",
    "source_type": "agent_generated_design",
    "confidence": "medium",
    "geometry_role": "design_proposal"
   },
   "geometry": {
    "type": "Polygon",
    "coordinates": [
     [
      [
       116.3421010033086,
       39.999695008813966
      ],
      [
       116.34129279816517,
       39.99969041811324
      ],
      [
       116.34169999999587,
       40.00599999999555
      ],
      [
       116.3421997733619,
       40.01624668238106
      ],
      [
       116.34226377197764,
       40.009580113693104
      ],
      [
       116.34200612321897,
       40.00957865110437
      ],
      [
       116.34209797824325,
       40.00001020495956
      ],
      [
       116.3421010033086,
       39.999695008813966
      ]
     ]
    ]
   }
  },
  {
   "type": "Feature",
   "id": "GREEN-008",
   "properties": {
    "name_zh": "公园绿地绿地",
    "green_type": "park",
    "id": "GREEN-008",
    "layer": "GREEN_SPACE",
    "source_type": "agent_generated_design",
    "confidence": "medium",
    "geometry_role": "design_proposal"
   },
   "geometry": {
    "type": "Polygon",
    "coordinates": [
     [
      [
       116.34761323814733,
       40.0000413820206
      ],
      [
       116.34456871994017,
       40.00002420420197
      ],
      [
       116.3444772098158,
       40.009592655064424
      ],
      [
       116.34752215301943,
       40.009609838671864
      ],
      [
       116.34761323814733,
       40.0000413820206
      ]
     ]
    ]
   }
  },
  {
   "type": "Feature",
   "id": "GREEN-009",
   "properties": {
    "name_zh": "防护绿地绿地",
    "green_type": "protective",
    "id": "GREEN-009",
    "layer": "GREEN_SPACE",
    "source_type": "agent_generated_design",
    "confidence": "medium",
    "geometry_role": "design_proposal"
   },
   "geometry": {
    "type": "Polygon",
    "coordinates": [
     [
      [
       116.34456871994017,
       40.00002420420197
      ],
      [
       116.34235559104084,
       40.00001166705558
      ],
      [
       116.34226377197764,
       40.009580113693104
      ],
      [
       116.3444772098158,
       40.009592655064424
      ],
      [
       116.34456871994017,
       40.00002420420197
      ]
     ]
    ]
   }
  },
  {
   "type": "Feature",
   "id": "GREEN-010",
   "properties": {
    "name_zh": "公园绿地绿地",
    "green_type": "park",
    "id": "GREEN-010",
    "layer": "GREEN_SPACE",
    "source_type": "agent_generated_design",
    "confidence": "medium",
    "geometry_role": "design_proposal"
   },
   "geometry": {
    "type": "Polygon",
    "coordinates": [
     [
      [
       116.34457173364689,
       39.999709007901004
      ],
      [
       116.34761623785764,
       39.999726185528964
      ],
      [
       116.34771927063962,
       39.988896924080365
      ],
      [
       116.34467524717218,
       39.988879753001974
      ],
      [
       116.34457173364689,
       39.999709007901004
      ]
     ]
    ]
   }
  },
  {
   "type": "Feature",
   "id": "GREEN-011",
   "properties": {
    "name_zh": "公园绿地绿地",
    "green_type": "park",
    "id": "GREEN-011",
    "layer": "GREEN_SPACE",
    "source_type": "agent_generated_design",
    "confidence": "medium",
    "geometry_role": "design_proposal"
   },
   "geometry": {
    "type": "Polygon",
    "coordinates": [
     [
      [
       116.34473547873532,
       39.9825758113874
      ],
      [
       116.34467524717218,
       39.988879753001974
      ],
      [
       116.34771927063962,
       39.988896924080365
      ],
      [
       116.34777922247193,
       39.98259297865408
      ],
      [
       116.34473547873532,
       39.9825758113874
      ]
     ]
    ]
   }
  },
  {
   "type": "Feature",
   "id": "GREEN-012",
   "properties": {
    "name_zh": "公园绿地绿地",
    "green_type": "park",
    "id": "GREEN-012",
    "layer": "GREEN_SPACE",
    "source_type": "agent_generated_design",
    "confidence": "medium",
    "geometry_role": "design_proposal"
   },
   "geometry": {
    "type": "Polygon",
    "coordinates": [
     [
      [
       116.347850797348,
       39.97506425757851
      ],
      [
       116.34480738757452,
       39.97504709486319
      ],
      [
       116.34473547873532,
       39.9825758113874
      ],
      [
       116.34777922247193,
       39.98259297865408
      ],
      [
       116.347850797348,
       39.97506425757851
      ]
     ]
    ]
   }
  },
  {
   "type": "Feature",
   "id": "GREEN-013",
   "properties": {
    "name_zh": "防护绿地绿地",
    "green_type": "protective",
    "id": "GREEN-013",
    "layer": "GREEN_SPACE",
    "source_type": "agent_generated_design",
    "confidence": "medium",
    "geometry_role": "design_proposal"
   },
   "geometry": {
    "type": "Polygon",
    "coordinates": [
     [
      [
       116.33970650484804,
       39.97476597851241
      ],
      [
       116.34025055523924,
       39.97476907638257
      ],
      [
       116.34043543633328,
       39.95553299718214
      ],
      [
       116.34024094406878,
       39.95553189045934
      ],
      [
       116.33970650484804,
       39.97476597851241
      ]
     ]
    ]
   }
  },
  {
   "type": "Feature",
   "id": "GREEN-014",
   "properties": {
    "name_zh": "公园绿地绿地",
    "green_type": "park",
    "id": "GREEN-014",
    "layer": "GREEN_SPACE",
    "source_type": "agent_generated_design",
    "confidence": "medium",
    "geometry_role": "design_proposal"
   },
   "geometry": {
    "type": "Polygon",
    "coordinates": [
     [
      [
       116.34480979553636,
       39.97479493672186
      ],
      [
       116.34785319412666,
       39.974812099284755
      ],
      [
       116.34803594510888,
       39.955575990944745
      ],
      [
       116.34499339922135,
       39.95555884000613
      ],
      [
       116.34480979553636,
       39.97479493672186
      ]
     ]
    ]
   }
  },
  {
   "type": "Feature",
   "id": "GREEN-015",
   "properties": {
    "name_zh": "防护绿地绿地",
    "green_type": "protective",
    "id": "GREEN-015",
    "layer": "GREEN_SPACE",
    "source_type": "agent_generated_design",
    "confidence": "medium",
    "geometry_role": "design_proposal"
   },
   "geometry": {
    "type": "Polygon",
    "coordinates": [
     [
      [
       116.35530001650845,
       39.95149629298113
      ],
      [
       116.35514856970367,
       39.951495450670244
      ],
      [
       116.35510987433052,
       39.95561555825774
      ],
      [
       116.35498464839091,
       39.96894321665998
      ],
      [
       116.35530000000077,
       39.965000000000096
      ],
      [
       116.35530001650845,
       39.95149629298113
      ]
     ]
    ]
   }
  },
  {
   "type": "Feature",
   "id": "GREEN-016",
   "properties": {
    "name_zh": "公园绿地绿地",
    "green_type": "park",
    "id": "GREEN-016",
    "layer": "GREEN_SPACE",
    "source_type": "agent_generated_design",
    "confidence": "medium",
    "geometry_role": "design_proposal"
   },
   "geometry": {
    "type": "Polygon",
    "coordinates": [
     [
      [
       116.34807506486645,
       39.9514558890992
      ],
      [
       116.34503270150886,
       39.9514387406495
      ],
      [
       116.34499339922135,
       39.95555884000613
      ],
      [
       116.34803594510888,
       39.955575990944745
      ],
      [
       116.34807506486645,
       39.9514558890992
      ]
     ]
    ]
   }
  },
  {
   "type": "Feature",
   "id": "GREEN-017",
   "properties": {
    "name_zh": "防护绿地绿地",
    "green_type": "protective",
    "id": "GREEN-017",
    "layer": "GREEN_SPACE",
    "source_type": "agent_generated_design",
    "confidence": "medium",
    "geometry_role": "design_proposal"
   },
   "geometry": {
    "type": "Polygon",
    "coordinates": [
     [
      [
       116.35515237537571,
       39.95109019402589
      ],
      [
       116.35530001645019,
       39.951091015165765
      ],
      [
       116.35530001266365,
       39.945709823718474
      ],
      [
       116.35520289894032,
       39.94570928363702
      ],
      [
       116.35515237537571,
       39.95109019402589
      ]
     ]
    ]
   }
  },
  {
   "type": "Feature",
   "id": "GREEN-018",
   "properties": {
    "name_zh": "公园绿地绿地",
    "green_type": "park",
    "id": "GREEN-018",
    "layer": "GREEN_SPACE",
    "source_type": "agent_generated_design",
    "confidence": "medium",
    "geometry_role": "design_proposal"
   },
   "geometry": {
    "type": "Polygon",
    "coordinates": [
     [
      [
       116.34513081452445,
       39.94114973639378
      ],
      [
       116.34508788286799,
       39.945652585173804
      ],
      [
       116.34812998994909,
       39.94566973012864
      ],
      [
       116.34817272221989,
       39.94116687862929
      ],
      [
       116.34513081452445,
       39.94114973639378
      ]
     ]
    ]
   }
  },
  {
   "type": "Feature",
   "id": "GREEN-019",
   "properties": {
    "name_zh": "公园绿地绿地",
    "green_type": "park",
    "id": "GREEN-019",
    "layer": "GREEN_SPACE",
    "source_type": "agent_generated_design",
    "confidence": "medium",
    "geometry_role": "design_proposal"
   },
   "geometry": {
    "type": "Polygon",
    "coordinates": [
     [
      [
       116.34514369213828,
       39.93979888106822
      ],
      [
       116.34513081452445,
       39.94114973639378
      ],
      [
       116.34817272221989,
       39.94116687862929
      ],
      [
       116.34818554002675,
       39.93981602248799
      ],
      [
       116.34514369213828,
       39.93979888106822
      ]
     ]
    ]
   }
  },
  {
   "type": "Feature",
   "id": "GREEN-020",
   "properties": {
    "name_zh": "防护绿地绿地",
    "green_type": "protective",
    "id": "GREEN-020",
    "layer": "GREEN_SPACE",
    "source_type": "agent_generated_design",
    "confidence": "medium",
    "geometry_role": "design_proposal"
   },
   "geometry": {
    "type": "Polygon",
    "coordinates": [
     [
      [
       116.34098329458764,
       39.94112623503369
      ],
      [
       116.34099625374566,
       39.939775380826475
      ],
      [
       116.34267511750127,
       39.939784911489426
      ],
      [
       116.34293250434978,
       39.93978637048734
      ],
      [
       116.34294002453356,
       39.93900011940257
      ],
      [
       116.34069999999726,
       39.93899999999678
      ],
      [
       116.34064102846195,
       39.94112428900131
      ],
      [
       116.34098329458764,
       39.94112623503369
      ]
     ]
    ]
   }
  },
  {
   "type": "Feature",
   "id": "GREEN-021",
   "properties": {
    "name_zh": "公园绿地绿地",
    "green_type": "park",
    "id": "GREEN-021",
    "layer": "GREEN_SPACE",
    "source_type": "agent_generated_design",
    "confidence": "medium",
    "geometry_role": "design_proposal"
   },
   "geometry": {
    "type": "Polygon",
    "coordinates": [
     [
      [
       116.34294002453356,
       39.93900011940257
      ],
      [
       116.34293250434978,
       39.93978637048734
      ],
      [
       116.34514369213828,
       39.93979888106822
      ],
      [
       116.34818554002675,
       39.93981602248799
      ],
      [
       116.34819328038243,
       39.939000229664956
      ],
      [
       116.34294002453356,
       39.93900011940257
      ]
     ]
    ]
   }
  }
 ],
 "name": "AI Pulse Belt green space (concept)"
}