{
 "type": "FeatureCollection",
 "features": [
  {
   "type": "Feature",
   "id": "PHASE-001",
   "properties": {
    "name_zh": "近期启动区",
    "phase_period": "2026-2030",
    "phase": "001",
    "id": "PHASE-001",
    "layer": "PHASE",
    "source_type": "agent_generated_design",
    "confidence": "low",
    "geometry_role": "design_proposal"
   },
   "geometry": {
    "type": "MultiPolygon",
    "coordinates": [
     [
      [
       [
        116.3552564977036,
        40.02570644881267
       ],
       [
        116.35393213998816,
        40.001540270103824
       ],
       [
        116.34140762572805,
        40.001469774148376
       ],
       [
        116.34169999999587,
        40.00599999999555
       ],
       [
        116.34265782684538,
        40.025635665104915
       ],
       [
        116.3552564977036,
        40.02570644881267
       ]
      ]
     ],
     [
      [
       [
        116.35383466608958,
        39.99976102247592
       ],
       [
        116.35329999999459,
        39.99000000000346
       ],
       [
        116.35388998927878,
        39.98262720315503
       ],
       [
        116.34018694730095,
        39.98255000786523
       ],
       [
        116.34129279816517,
        39.99969041811324
       ],
       [
        116.35383466608958,
        39.99976102247592
       ]
      ]
     ],
     [
      [
       [
        116.35530001524596,
        39.95561661583431
       ],
       [
        116.35530000861829,
        39.943007968394795
       ],
       [
        116.34059102936571,
        39.94292524128486
       ],
       [
        116.34024094406878,
        39.95553189045934
       ],
       [
        116.35530001524596,
        39.95561661583431
       ]
      ]
     ]
    ]
   }
  },
  {
   "type": "Feature",
   "id": "PHASE-002",
   "properties": {
    "name_zh": "中期推进区",
    "phase_period": "2030-2035",
    "phase": "002",
    "id": "PHASE-002",
    "layer": "PHASE",
    "source_type": "agent_generated_design",
    "confidence": "low",
    "geometry_role": "design_proposal"
   },
   "geometry": {
    "type": "MultiPolygon",
    "coordinates": [
     [
      [
       [
        116.35443014641969,
        39.97587561512781
       ],
       [
        116.35530000000077,
        39.965000000000096
       ],
       [
        116.35530001524596,
        39.95561661583431
       ],
       [
        116.34024094406878,
        39.95553189045934
       ],
       [
        116.3397061243252,
        39.97477966830514
       ],
       [
        116.33970348398273,
        39.97505402368266
       ],
       [
        116.33975113660111,
        39.97579293177547
       ],
       [
        116.35443014641969,
        39.97587561512781
       ]
      ]
     ],
     [
      [
       [
        116.35530000861829,
        39.943007968394795
       ],
       [
        116.35530000513998,
        39.94120673081519
       ],
       [
        116.34064102846195,
        39.94112428900131
       ],
       [
        116.34059102936571,
        39.94292524128486
       ],
       [
        116.35530000861829,
        39.943007968394795
       ]
      ]
     ]
    ]
   }
  },
  {
   "type": "Feature",
   "id": "PHASE-003",
   "properties": {
    "name_zh": "远期提升区",
    "phase_period": "2035-2040",
    "phase": "003",
    "id": "PHASE-003",
    "layer": "PHASE",
    "source_type": "agent_generated_design",
    "confidence": "low",
    "geometry_role": "design_proposal"
   },
   "geometry": {
    "type": "Polygon",
    "coordinates": [
     [
      [
       116.35530000513998,
       39.94120673081519
      ],
      [
       116.3552999999989,
       39.93900021401995
      ],
      [
       116.35526194286287,
       39.93900000239004
      ],
      [
       116.34069999999726,
       39.93899999999678
      ],
      [
       116.34064102846195,
       39.94112428900131
      ],
      [
       116.35530000513998,
       39.94120673081519
      ]
     ]
    ]
   }
  }
 ],
 "name": "AI Pulse Belt phasing (concept)"
}