{
 "type": "FeatureCollection",
 "features": [
  {
   "type": "Feature",
   "id": "PUBLIC-001",
   "properties": {
    "name_zh": "大钟寺站前广场",
    "public_type": "plaza",
    "id": "PUBLIC-001",
    "layer": "PUBLIC_SPACE",
    "source_type": "agent_generated_design",
    "confidence": "low",
    "geometry_role": "design_proposal"
   },
   "geometry": {
    "type": "Polygon",
    "coordinates": [
     [
      [
       116.34800956617191,
       39.94602930014159
      ],
      [
       116.3479993069711,
       39.94710998388065
      ],
      [
       116.34659522781935,
       39.94710207892437
      ],
      [
       116.34660550910948,
       39.946021395486234
      ],
      [
       116.34800956617191,
       39.94602930014159
      ]
     ]
    ]
   }
  },
  {
   "type": "Feature",
   "id": "PUBLIC-002",
   "properties": {
    "name_zh": "原点发布广场",
    "public_type": "plaza",
    "id": "PUBLIC-002",
    "layer": "PUBLIC_SPACE",
    "source_type": "agent_generated_design",
    "confidence": "low",
    "geometry_role": "design_proposal"
   },
   "geometry": {
    "type": "Polygon",
    "coordinates": [
     [
      [
       116.34985228597911,
       39.98620707375082
      ],
      [
       116.34984374871327,
       39.98710763761676
      ],
      [
       116.34867300019734,
       39.987101064517766
      ],
      [
       116.34868155283375,
       39.986200500860285
      ],
      [
       116.34985228597911,
       39.98620707375082
      ]
     ]
    ]
   }
  },
  {
   "type": "Feature",
   "id": "PUBLIC-003",
   "properties": {
    "name_zh": "众智园门户广场",
    "public_type": "plaza",
    "id": "PUBLIC-003",
    "layer": "PUBLIC_SPACE",
    "source_type": "agent_generated_design",
    "confidence": "low",
    "geometry_role": "design_proposal"
   },
   "geometry": {
    "type": "Polygon",
    "coordinates": [
     [
      [
       116.34995080720977,
       40.01903483537293
      ],
      [
       116.34994140670524,
       40.02002545000887
      ],
      [
       116.34865296471457,
       40.0200182151211
      ],
      [
       116.34866238384808,
       40.01902760073749
      ],
      [
       116.34995080720977,
       40.01903483537293
      ]
     ]
    ]
   }
  },
  {
   "type": "Feature",
   "id": "PUBLIC-004",
   "properties": {
    "name_zh": "五道口生活广场",
    "public_type": "plaza",
    "id": "PUBLIC-004",
    "layer": "PUBLIC_SPACE",
    "source_type": "agent_generated_design",
    "confidence": "low",
    "geometry_role": "design_proposal"
   },
   "geometry": {
    "type": "Polygon",
    "coordinates": [
     [
      [
       116.34884225453118,
       39.97543908297622
      ],
      [
       116.34883456200522,
       39.976249591809584
      ],
      [
       116.34778105530481,
       39.976243668706985
      ],
      [
       116.34778876027421,
       39.975433160042705
      ],
      [
       116.34884225453118,
       39.97543908297622
      ]
     ]
    ]
   }
  },
  {
   "type": "Feature",
   "id": "PUBLIC-005",
   "properties": {
    "name_zh": "清华东路西口广场",
    "public_type": "plaza",
    "id": "PUBLIC-005",
    "layer": "PUBLIC_SPACE",
    "source_type": "agent_generated_design",
    "confidence": "low",
    "geometry_role": "design_proposal"
   },
   "geometry": {
    "type": "Polygon",
    "coordinates": [
     [
      [
       116.34469248869787,
       39.99932693165993
      ],
      [
       116.3446856015178,
       40.000047380387365
      ],
      [
       116.34374882687264,
       40.0000420797586
      ],
      [
       116.34375572389627,
       39.99932163116564
      ],
      [
       116.34469248869787,
       39.99932693165993
      ]
     ]
    ]
   }
  },
  {
   "type": "Feature",
   "id": "PUBLIC-006",
   "properties": {
    "name_zh": "南部社区广场",
    "public_type": "plaza",
    "id": "PUBLIC-006",
    "layer": "PUBLIC_SPACE",
    "source_type": "agent_generated_design",
    "confidence": "low",
    "geometry_role": "design_proposal"
   },
   "geometry": {
    "type": "Polygon",
    "coordinates": [
     [
      [
       116.34905318295047,
       39.940856608882214
      ],
      [
       116.34904720915665,
       39.94148700844984
      ],
      [
       116.34822822979261,
       39.94148240722961
      ],
      [
       116.3482342111009,
       39.94085200776416
      ],
      [
       116.34905318295047,
       39.940856608882214
      ]
     ]
    ]
   }
  },
  {
   "type": "Feature",
   "id": "PUBLIC-007",
   "properties": {
    "name_zh": "五道口站导视节点",
    "public_type": "status_light_node",
    "id": "PUBLIC-007",
    "layer": "PUBLIC_SPACE",
    "source_type": "agent_generated_design",
    "confidence": "low",
    "geometry_role": "design_proposal"
   },
   "geometry": {
    "type": "Polygon",
    "coordinates": [
     [
      [
       116.34738529123597,
       39.976007281681674
      ],
      [
       116.34738340662447,
       39.976205405996836
      ],
      [
       116.34712588297585,
       39.97620395578885
      ],
      [
       116.34712776833088,
       39.97600583148381
      ],
      [
       116.34738529123597,
       39.976007281681674
      ]
     ]
    ]
   }
  },
  {
   "type": "Feature",
   "id": "PUBLIC-008",
   "properties": {
    "name_zh": "清华东路西口站导视节点",
    "public_type": "status_light_node",
    "id": "PUBLIC-008",
    "layer": "PUBLIC_SPACE",
    "source_type": "agent_generated_design",
    "confidence": "low",
    "geometry_role": "design_proposal"
   },
   "geometry": {
    "type": "Polygon",
    "coordinates": [
     [
      [
       116.34424193224945,
       39.9986849503512
      ],
      [
       116.34424003704058,
       39.99888307376444
      ],
      [
       116.34398242838662,
       39.99888161589092
      ],
      [
       116.3439843243399,
       39.99868349248785
      ],
      [
       116.34424193224945,
       39.9986849503512
      ]
     ]
    ]
   }
  },
  {
   "type": "Feature",
   "id": "PUBLIC-009",
   "properties": {
    "name_zh": "西土城站导视节点",
    "public_type": "status_light_node",
    "id": "PUBLIC-009",
    "layer": "PUBLIC_SPACE",
    "source_type": "agent_generated_design",
    "confidence": "low",
    "geometry_role": "design_proposal"
   },
   "geometry": {
    "type": "Polygon",
    "coordinates": [
     [
      [
       116.3500027629339,
       39.94684204234191
      ],
      [
       116.3500008878175,
       39.94704016776001
      ],
      [
       116.34974347342408,
       39.947038724237025
      ],
      [
       116.34974534928294,
       39.94684059882901
      ],
      [
       116.3500027629339,
       39.94684204234191
      ]
     ]
    ]
   }
  },
  {
   "type": "Feature",
   "id": "PUBLIC-010",
   "properties": {
    "name_zh": "知春路站导视节点",
    "public_type": "status_light_node",
    "id": "PUBLIC-010",
    "layer": "PUBLIC_SPACE",
    "source_type": "agent_generated_design",
    "confidence": "low",
    "geometry_role": "design_proposal"
   },
   "geometry": {
    "type": "Polygon",
    "coordinates": [
     [
      [
       116.34763697610323,
       39.94953060688423
      ],
      [
       116.34763509398317,
       39.94972873211695
      ],
      [
       116.34737766963363,
       39.94972728326077
      ],
      [
       116.34737955249625,
       39.949529158038125
      ],
      [
       116.34763697610323,
       39.94953060688423
      ]
     ]
    ]
   }
  },
  {
   "type": "Feature",
   "id": "PUBLIC-011",
   "properties": {
    "name_zh": "绿廊南段导视节点",
    "public_type": "status_light_node",
    "id": "PUBLIC-011",
    "layer": "PUBLIC_SPACE",
    "source_type": "agent_generated_design",
    "confidence": "low",
    "geometry_role": "design_proposal"
   },
   "geometry": {
    "type": "Polygon",
    "coordinates": [
     [
      [
       116.3486005437424,
       39.95774064401422
      ],
      [
       116.34859883475549,
       39.957920757641155
      ],
      [
       116.34836478465245,
       39.95791944224548
      ],
      [
       116.34836649425328,
       39.9577393286269
      ],
      [
       116.3486005437424,
       39.95774064401422
      ]
     ]
    ]
   }
  },
  {
   "type": "Feature",
   "id": "PUBLIC-012",
   "properties": {
    "name_zh": "绿廊北段导视节点",
    "public_type": "status_light_node",
    "id": "PUBLIC-012",
    "layer": "PUBLIC_SPACE",
    "source_type": "agent_generated_design",
    "confidence": "low",
    "geometry_role": "design_proposal"
   },
   "geometry": {
    "type": "Polygon",
    "coordinates": [
     [
      [
       116.34805288215011,
       40.01537671498506
      ],
      [
       116.34805116823404,
       40.015556826795915
      ],
      [
       116.34781692138698,
       40.015555508727566
      ],
      [
       116.34781863591877,
       40.01537539692506
      ],
      [
       116.34805288215011,
       40.01537671498506
      ]
     ]
    ]
   }
  },
  {
   "type": "Feature",
   "id": "PUBLIC-013",
   "properties": {
    "name_zh": "车路协同测试段节点",
    "public_type": "industry_test_node",
    "id": "PUBLIC-013",
    "layer": "PUBLIC_SPACE",
    "source_type": "agent_generated_design",
    "confidence": "low",
    "geometry_role": "design_proposal"
   },
   "geometry": {
    "type": "Polygon",
    "coordinates": [
     [
      [
       116.34853555331225,
       39.97075416787812
      ],
      [
       116.34853298838918,
       39.97102433770455
      ],
      [
       116.34818184621642,
       39.97102236370019
      ],
      [
       116.34818441252175,
       39.970752193892544
      ],
      [
       116.34853555331225,
       39.97075416787812
      ]
     ]
    ]
   }
  },
  {
   "type": "Feature",
   "id": "PUBLIC-014",
   "properties": {
    "name_zh": "低空配送航线验证节点",
    "public_type": "industry_test_node",
    "id": "PUBLIC-014",
    "layer": "PUBLIC_SPACE",
    "source_type": "agent_generated_design",
    "confidence": "low",
    "geometry_role": "design_proposal"
   },
   "geometry": {
    "type": "Polygon",
    "coordinates": [
     [
      [
       116.35070991608234,
       40.01309508325466
      ],
      [
       116.35070735588637,
       40.013365251218104
      ],
      [
       116.35035599667474,
       40.013363282080405
      ],
      [
       116.35035855825588,
       40.01309311413569
      ],
      [
       116.35070991608234,
       40.01309508325466
      ]
     ]
    ]
   }
  },
  {
   "type": "Feature",
   "id": "PUBLIC-015",
   "properties": {
    "name_zh": "多模态导视测评场节点",
    "public_type": "industry_test_node",
    "id": "PUBLIC-015",
    "layer": "PUBLIC_SPACE",
    "source_type": "agent_generated_design",
    "confidence": "low",
    "geometry_role": "design_proposal"
   },
   "geometry": {
    "type": "Polygon",
    "coordinates": [
     [
      [
       116.34844148348871,
       39.98066038649813
      ],
      [
       116.34843891729575,
       39.98093055585638
      ],
      [
       116.34808772442719,
       39.980928581163205
      ],
      [
       116.34809029200314,
       39.98065841182373
      ],
      [
       116.34844148348871,
       39.98066038649813
      ]
     ]
    ]
   }
  }
 ],
 "name": "AI Pulse Belt public space (concept)"
}