{
  "type": "FeatureCollection",
  "name": "building_footprints",
  "features": [
    {
      "type": "Feature",
      "id": "BLDG-001",
      "properties": {
        "id": "BLDG-001",
        "layer": "BUILDING_FOOTPRINT",
        "source_type": "agent_generated_design",
        "confidence": "medium",
        "geometry_role": "design_proposal",
        "building_type": "ai_r_and_d",
        "name_zh": "众智园AI研发中心",
        "area_sqm_declared": 68254.537
      },
      "geometry": {
        "type": "Polygon",
        "coordinates": [
          [
            [
              116.349,
              40.017
            ],
            [
              116.349,
              40.021
            ],
            [
              116.3508,
              40.021
            ],
            [
              116.3508,
              40.017
            ],
            [
              116.349,
              40.017
            ]
          ]
        ]
      }
    },
    {
      "type": "Feature",
      "id": "BLDG-002",
      "properties": {
        "id": "BLDG-002",
        "layer": "BUILDING_FOOTPRINT",
        "source_type": "agent_generated_design",
        "confidence": "medium",
        "geometry_role": "design_proposal",
        "building_type": "incubator",
        "name_zh": "众智园开源孵化器",
        "area_sqm_declared": 59719.5
      },
      "geometry": {
        "type": "Polygon",
        "coordinates": [
          [
            [
              116.3482,
              40.021
            ],
            [
              116.3482,
              40.0245
            ],
            [
              116.35,
              40.0245
            ],
            [
              116.35,
              40.021
            ],
            [
              116.3482,
              40.021
            ]
          ]
        ]
      }
    },
    {
      "type": "Feature",
      "id": "BLDG-003",
      "properties": {
        "id": "BLDG-003",
        "layer": "BUILDING_FOOTPRINT",
        "source_type": "agent_generated_design",
        "confidence": "medium",
        "geometry_role": "design_proposal",
        "building_type": "lab",
        "name_zh": "众智园全栈测试实验室",
        "area_sqm_declared": 34127.995
      },
      "geometry": {
        "type": "Polygon",
        "coordinates": [
          [
            [
              116.3508,
              40.016
            ],
            [
              116.3508,
              40.019
            ],
            [
              116.352,
              40.019
            ],
            [
              116.352,
              40.016
            ],
            [
              116.3508,
              40.016
            ]
          ]
        ]
      }
    },
    {
      "type": "Feature",
      "id": "BLDG-004",
      "properties": {
        "id": "BLDG-004",
        "layer": "BUILDING_FOOTPRINT",
        "source_type": "agent_generated_design",
        "confidence": "medium",
        "geometry_role": "design_proposal",
        "building_type": "office",
        "name_zh": "原点社区成果转化街",
        "area_sqm_declared": 51214.529
      },
      "geometry": {
        "type": "Polygon",
        "coordinates": [
          [
            [
              116.3488,
              39.9855
            ],
            [
              116.3488,
              39.9885
            ],
            [
              116.3506,
              39.9885
            ],
            [
              116.3506,
              39.9855
            ],
            [
              116.3488,
              39.9855
            ]
          ]
        ]
      }
    },
    {
      "type": "Feature",
      "id": "BLDG-005",
      "properties": {
        "id": "BLDG-005",
        "layer": "BUILDING_FOOTPRINT",
        "source_type": "agent_generated_design",
        "confidence": "medium",
        "geometry_role": "design_proposal",
        "building_type": "cultural",
        "name_zh": "原点社区成果发布厅",
        "area_sqm_declared": 51212.091
      },
      "geometry": {
        "type": "Polygon",
        "coordinates": [
          [
            [
              116.349,
              39.9888
            ],
            [
              116.349,
              39.9918
            ],
            [
              116.3508,
              39.9918
            ],
            [
              116.3508,
              39.9888
            ],
            [
              116.349,
              39.9888
            ]
          ]
        ]
      }
    },
    {
      "type": "Feature",
      "id": "BLDG-006",
      "properties": {
        "id": "BLDG-006",
        "layer": "BUILDING_FOOTPRINT",
        "source_type": "agent_generated_design",
        "confidence": "medium",
        "geometry_role": "design_proposal",
        "building_type": "talent_apartment",
        "name_zh": "原点社区人才公寓",
        "area_sqm_declared": 47422.042
      },
      "geometry": {
        "type": "Polygon",
        "coordinates": [
          [
            [
              116.35,
              39.984
            ],
            [
              116.35,
              39.9865
            ],
            [
              116.352,
              39.9865
            ],
            [
              116.352,
              39.984
            ],
            [
              116.35,
              39.984
            ]
          ]
        ]
      }
    },
    {
      "type": "Feature",
      "id": "BLDG-007",
      "properties": {
        "id": "BLDG-007",
        "layer": "BUILDING_FOOTPRINT",
        "source_type": "agent_generated_design",
        "confidence": "medium",
        "geometry_role": "design_proposal",
        "building_type": "mixed_use",
        "name_zh": "大钟寺智能消费综合体",
        "area_sqm_declared": 87779.556
      },
      "geometry": {
        "type": "Polygon",
        "coordinates": [
          [
            [
              116.3495,
              39.9448
            ],
            [
              116.3495,
              39.9485
            ],
            [
              116.352,
              39.9485
            ],
            [
              116.352,
              39.9448
            ],
            [
              116.3495,
              39.9448
            ]
          ]
        ]
      }
    },
    {
      "type": "Feature",
      "id": "BLDG-008",
      "properties": {
        "id": "BLDG-008",
        "layer": "BUILDING_FOOTPRINT",
        "source_type": "agent_generated_design",
        "confidence": "medium",
        "geometry_role": "design_proposal",
        "building_type": "cultural",
        "name_zh": "大钟寺AI文化展示馆",
        "area_sqm_declared": 51243.995
      },
      "geometry": {
        "type": "Polygon",
        "coordinates": [
          [
            [
              116.3522,
              39.9455
            ],
            [
              116.3522,
              39.9485
            ],
            [
              116.354,
              39.9485
            ],
            [
              116.354,
              39.9455
            ],
            [
              116.3522,
              39.9455
            ]
          ]
        ]
      }
    },
    {
      "type": "Feature",
      "id": "BLDG-009",
      "properties": {
        "id": "BLDG-009",
        "layer": "BUILDING_FOOTPRINT",
        "source_type": "agent_generated_design",
        "confidence": "medium",
        "geometry_role": "design_proposal",
        "building_type": "office",
        "name_zh": "中关村科技服务楼",
        "area_sqm_declared": 48391.914
      },
      "geometry": {
        "type": "Polygon",
        "coordinates": [
          [
            [
              116.3495,
              39.953
            ],
            [
              116.3495,
              39.956
            ],
            [
              116.3512,
              39.956
            ],
            [
              116.3512,
              39.953
            ],
            [
              116.3495,
              39.953
            ]
          ]
        ]
      }
    },
    {
      "type": "Feature",
      "id": "BLDG-010",
      "properties": {
        "id": "BLDG-010",
        "layer": "BUILDING_FOOTPRINT",
        "source_type": "agent_generated_design",
        "confidence": "medium",
        "geometry_role": "design_proposal",
        "building_type": "community_service",
        "name_zh": "AI健康服务综合体",
        "area_sqm_declared": 45606.279
      },
      "geometry": {
        "type": "Polygon",
        "coordinates": [
          [
            [
              116.3428,
              40.0035
            ],
            [
              116.3428,
              40.0
            ],
            [
              116.34131290322581,
              40.0
            ],
            [
              116.34153870967742,
              40.0035
            ],
            [
              116.3428,
              40.0035
            ]
          ]
        ]
      }
    },
    {
      "type": "Feature",
      "id": "BLDG-011",
      "properties": {
        "id": "BLDG-011",
        "layer": "BUILDING_FOOTPRINT",
        "source_type": "agent_generated_design",
        "confidence": "medium",
        "geometry_role": "design_proposal",
        "building_type": "residential",
        "name_zh": "京张人才社区",
        "area_sqm_declared": 42694.422
      },
      "geometry": {
        "type": "Polygon",
        "coordinates": [
          [
            [
              116.352,
              39.96
            ],
            [
              116.352,
              39.963
            ],
            [
              116.3535,
              39.963
            ],
            [
              116.3535,
              39.96
            ],
            [
              116.352,
              39.96
            ]
          ]
        ]
      }
    },
    {
      "type": "Feature",
      "id": "BLDG-012",
      "properties": {
        "id": "BLDG-012",
        "layer": "BUILDING_FOOTPRINT",
        "source_type": "agent_generated_design",
        "confidence": "medium",
        "geometry_role": "design_proposal",
        "building_type": "mobility_hub",
        "name_zh": "大钟寺站接驳中心",
        "area_sqm_declared": 30746.327
      },
      "geometry": {
        "type": "Polygon",
        "coordinates": [
          [
            [
              116.353,
              39.9458
            ],
            [
              116.353,
              39.9485
            ],
            [
              116.3542,
              39.9485
            ],
            [
              116.3542,
              39.9458
            ],
            [
              116.353,
              39.9458
            ]
          ]
        ]
      }
    }
  ]
}
