{
  "type": "FeatureCollection",
  "name": "green_space",
  "features": [
    {
      "type": "Feature",
      "id": "GREEN-001",
      "properties": {
        "id": "GREEN-001",
        "layer": "GREEN_SPACE",
        "source_type": "agent_generated_design",
        "confidence": "medium",
        "geometry_role": "design_proposal",
        "land_use_code": "1401",
        "name_zh": "京张智脉绿廊",
        "area_sqm_declared": 431788.117
      },
      "geometry": {
        "type": "Polygon",
        "coordinates": [
          [
            [
              116.348,
              39.939
            ],
            [
              116.3445,
              39.939
            ],
            [
              116.3445,
              39.952
            ],
            [
              116.348,
              39.952
            ],
            [
              116.348,
              39.939
            ]
          ]
        ]
      }
    },
    {
      "type": "Feature",
      "id": "GREEN-002",
      "properties": {
        "id": "GREEN-002",
        "layer": "GREEN_SPACE",
        "source_type": "agent_generated_design",
        "confidence": "medium",
        "geometry_role": "design_proposal",
        "land_use_code": "1401",
        "name_zh": "京张智脉绿廊",
        "area_sqm_declared": 1527216.874
      },
      "geometry": {
        "type": "Polygon",
        "coordinates": [
          [
            [
              116.3445,
              39.975
            ],
            [
              116.3445,
              39.998
            ],
            [
              116.348,
              39.998
            ],
            [
              116.348,
              39.975
            ],
            [
              116.348,
              39.952
            ],
            [
              116.3445,
              39.952
            ],
            [
              116.3445,
              39.975
            ]
          ]
        ]
      }
    },
    {
      "type": "Feature",
      "id": "GREEN-003",
      "properties": {
        "id": "GREEN-003",
        "layer": "GREEN_SPACE",
        "source_type": "agent_generated_design",
        "confidence": "medium",
        "geometry_role": "design_proposal",
        "land_use_code": "1401",
        "name_zh": "京张智脉绿廊",
        "area_sqm_declared": 945702.6
      },
      "geometry": {
        "type": "Polygon",
        "coordinates": [
          [
            [
              116.3445,
              40.015
            ],
            [
              116.3445,
              40.0265
            ],
            [
              116.348,
              40.0265
            ],
            [
              116.348,
              40.015
            ],
            [
              116.348,
              39.998
            ],
            [
              116.3445,
              39.998
            ],
            [
              116.3445,
              40.015
            ]
          ]
        ]
      }
    }
  ]
}
