{
  "type": "FeatureCollection",
  "name": "public_space",
  "features": [
    {
      "type": "Feature",
      "id": "PUBLIC-001",
      "properties": {
        "id": "PUBLIC-001",
        "layer": "PUBLIC_SPACE",
        "source_type": "agent_generated_design",
        "confidence": "medium",
        "geometry_role": "design_proposal",
        "name_zh": "原点社区公共广场",
        "area_sqm_declared": 167439.37
      },
      "geometry": {
        "type": "Polygon",
        "coordinates": [
          [
            [
              116.35373835616438,
              39.998
            ],
            [
              116.3533,
              39.99
            ],
            [
              116.3545,
              39.975
            ],
            [
              116.353,
              39.975
            ],
            [
              116.353,
              39.998
            ],
            [
              116.35373835616438,
              39.998
            ]
          ]
        ]
      }
    },
    {
      "type": "Feature",
      "id": "PUBLIC-002",
      "properties": {
        "id": "PUBLIC-002",
        "layer": "PUBLIC_SPACE",
        "source_type": "agent_generated_design",
        "confidence": "medium",
        "geometry_role": "design_proposal",
        "name_zh": "大钟寺站前广场",
        "area_sqm_declared": 103249.934
      },
      "geometry": {
        "type": "Polygon",
        "coordinates": [
          [
            [
              116.3473,
              39.9436
            ],
            [
              116.3473,
              39.9468
            ],
            [
              116.3507,
              39.9468
            ],
            [
              116.3507,
              39.9436
            ],
            [
              116.3473,
              39.9436
            ]
          ]
        ]
      }
    },
    {
      "type": "Feature",
      "id": "PUBLIC-003",
      "properties": {
        "id": "PUBLIC-003",
        "layer": "PUBLIC_SPACE",
        "source_type": "agent_generated_design",
        "confidence": "medium",
        "geometry_role": "design_proposal",
        "name_zh": "京张绿廊南活动场",
        "area_sqm_declared": 88818.269
      },
      "geometry": {
        "type": "Polygon",
        "coordinates": [
          [
            [
              116.3453,
              39.9488
            ],
            [
              116.3453,
              39.9527
            ],
            [
              116.3477,
              39.9527
            ],
            [
              116.3477,
              39.9488
            ],
            [
              116.3453,
              39.9488
            ]
          ]
        ]
      }
    },
    {
      "type": "Feature",
      "id": "PUBLIC-004",
      "properties": {
        "id": "PUBLIC-004",
        "layer": "PUBLIC_SPACE",
        "source_type": "agent_generated_design",
        "confidence": "medium",
        "geometry_role": "design_proposal",
        "name_zh": "原点社区发布广场",
        "area_sqm_declared": 88769.678
      },
      "geometry": {
        "type": "Polygon",
        "coordinates": [
          [
            [
              116.3453,
              39.9868
            ],
            [
              116.3453,
              39.9907
            ],
            [
              116.3477,
              39.9907
            ],
            [
              116.3477,
              39.9868
            ],
            [
              116.3453,
              39.9868
            ]
          ]
        ]
      }
    },
    {
      "type": "Feature",
      "id": "PUBLIC-005",
      "properties": {
        "id": "PUBLIC-005",
        "layer": "PUBLIC_SPACE",
        "source_type": "agent_generated_design",
        "confidence": "medium",
        "geometry_role": "design_proposal",
        "name_zh": "众智园测试展示广场",
        "area_sqm_declared": 88735.129
      },
      "geometry": {
        "type": "Polygon",
        "coordinates": [
          [
            [
              116.3453,
              40.0138
            ],
            [
              116.3453,
              40.0177
            ],
            [
              116.3477,
              40.0177
            ],
            [
              116.3477,
              40.0138
            ],
            [
              116.3453,
              40.0138
            ]
          ]
        ]
      }
    }
  ]
}
