{
  "type": "FeatureCollection",
  "name": "roads",
  "features": [
    {
      "type": "Feature",
      "id": "ROAD-001",
      "properties": {
        "id": "ROAD-001",
        "layer": "ROAD_CENTERLINE",
        "source_type": "agent_generated_design",
        "confidence": "medium",
        "geometry_role": "design_proposal",
        "road_class": "secondary",
        "name_zh": "南北主轴西线"
      },
      "geometry": {
        "type": "LineString",
        "coordinates": [
          [
            116.3453,
            39.9445
          ],
          [
            116.3453,
            40.0235
          ]
        ]
      }
    },
    {
      "type": "Feature",
      "id": "ROAD-002",
      "properties": {
        "id": "ROAD-002",
        "layer": "ROAD_CENTERLINE",
        "source_type": "agent_generated_design",
        "confidence": "medium",
        "geometry_role": "design_proposal",
        "road_class": "secondary",
        "name_zh": "南北主轴东线"
      },
      "geometry": {
        "type": "LineString",
        "coordinates": [
          [
            116.3473,
            39.9435
          ],
          [
            116.3473,
            40.0245
          ]
        ]
      }
    },
    {
      "type": "Feature",
      "id": "ROAD-003",
      "properties": {
        "id": "ROAD-003",
        "layer": "ROAD_CENTERLINE",
        "source_type": "agent_generated_design",
        "confidence": "medium",
        "geometry_role": "design_proposal",
        "road_class": "secondary",
        "name_zh": "大钟寺东西联络线"
      },
      "geometry": {
        "type": "LineString",
        "coordinates": [
          [
            116.3415,
            39.9493
          ],
          [
            116.3538,
            39.9493
          ]
        ]
      }
    },
    {
      "type": "Feature",
      "id": "ROAD-004",
      "properties": {
        "id": "ROAD-004",
        "layer": "ROAD_CENTERLINE",
        "source_type": "agent_generated_design",
        "confidence": "medium",
        "geometry_role": "design_proposal",
        "road_class": "secondary",
        "name_zh": "原点社区东西联络线"
      },
      "geometry": {
        "type": "LineString",
        "coordinates": [
          [
            116.3418,
            39.9888
          ],
          [
            116.3525,
            39.9888
          ]
        ]
      }
    },
    {
      "type": "Feature",
      "id": "ROAD-005",
      "properties": {
        "id": "ROAD-005",
        "layer": "ROAD_CENTERLINE",
        "source_type": "agent_generated_design",
        "confidence": "medium",
        "geometry_role": "design_proposal",
        "road_class": "secondary",
        "name_zh": "众智园东西联络线"
      },
      "geometry": {
        "type": "LineString",
        "coordinates": [
          [
            116.3428,
            40.0165
          ],
          [
            116.3538,
            40.0165
          ]
        ]
      }
    },
    {
      "type": "Feature",
      "id": "ROAD-006",
      "properties": {
        "id": "ROAD-006",
        "layer": "ROAD_CENTERLINE",
        "source_type": "agent_generated_design",
        "confidence": "medium",
        "geometry_role": "design_proposal",
        "road_class": "greenway",
        "name_zh": "京张智脉慢行绿道"
      },
      "geometry": {
        "type": "LineString",
        "coordinates": [
          [
            116.3462,
            39.9455
          ],
          [
            116.3462,
            40.0215
          ]
        ]
      }
    },
    {
      "type": "Feature",
      "id": "ROAD-007",
      "properties": {
        "id": "ROAD-007",
        "layer": "ROAD_CENTERLINE",
        "source_type": "agent_generated_design",
        "confidence": "medium",
        "geometry_role": "design_proposal",
        "road_class": "branch",
        "name_zh": "东翼城市支路"
      },
      "geometry": {
        "type": "LineString",
        "coordinates": [
          [
            116.3522,
            39.9455
          ],
          [
            116.3522,
            40.0195
          ]
        ]
      }
    },
    {
      "type": "Feature",
      "id": "ROAD-008",
      "properties": {
        "id": "ROAD-008",
        "layer": "ROAD_CENTERLINE",
        "source_type": "agent_generated_design",
        "confidence": "medium",
        "geometry_role": "design_proposal",
        "road_class": "branch",
        "name_zh": "西翼城市支路"
      },
      "geometry": {
        "type": "LineString",
        "coordinates": [
          [
            116.342,
            39.9455
          ],
          [
            116.342,
            40.01214999999997
          ]
        ]
      }
    },
    {
      "type": "Feature",
      "id": "ROAD-009",
      "properties": {
        "id": "ROAD-009",
        "layer": "ROAD_CENTERLINE",
        "source_type": "agent_generated_design",
        "confidence": "medium",
        "geometry_role": "design_proposal",
        "road_class": "cycleway",
        "name_zh": "小月河场景赋能翼绿道"
      },
      "geometry": {
        "type": "MultiLineString",
        "coordinates": [
          [
            [
              116.3536,
              39.946
            ],
            [
              116.3536,
              39.98625000000005
            ]
          ],
          [
            [
              116.3536,
              39.995474999999935
            ],
            [
              116.3536,
              40.0175
            ]
          ]
        ]
      }
    }
  ]
}
