{
  "type": "FeatureCollection",
  "metadata": {
    "crs": "EPSG:4326",
    "source_id": "DATA-SRC-MNR-LAND-USE-CLASSIFICATION-202311",
    "note": "用地代码依据官方land_use_codes.json，polygon为概念性"
  },
  "features": [
    {
      "type": "Feature",
      "id": "LU-001",
      "properties": {
        "id": "LU-001",
        "layer": "LAND_USE",
        "source_type": "agent_inferred_from_public_data",
        "confidence": "medium",
        "geometry_role": "provisional_constraint",
        "official_boundary": false,
        "boundary_precision": "provisional_rough",
        "source_id": "DATA-SRC-PROVISIONAL-BOUNDARIES-20260605",
        "land_use_code": "0802",
        "label_zh": "科研用地",
        "sub_label": "AI基础研究",
        "color": "#DDE8E2"
      },
      "geometry": {
        "type": "Polygon",
        "coordinates": [
          [
            [
              116.343,
              40.0075
            ],
            [
              116.354,
              40.0075
            ],
            [
              116.354,
              40.026
            ],
            [
              116.343,
              40.026
            ],
            [
              116.343,
              40.0075
            ]
          ]
        ]
      }
    },
    {
      "type": "Feature",
      "id": "LU-002",
      "properties": {
        "id": "LU-002",
        "layer": "LAND_USE",
        "source_type": "agent_inferred_from_public_data",
        "confidence": "medium",
        "geometry_role": "provisional_constraint",
        "official_boundary": false,
        "boundary_precision": "provisional_rough",
        "source_id": "DATA-SRC-PROVISIONAL-BOUNDARIES-20260605",
        "land_use_code": "0802",
        "label_zh": "科研用地",
        "sub_label": "技术加速",
        "color": "#D6E4F0",
        "conceptual": true
      },
      "geometry": {
        "type": "Polygon",
        "coordinates": [
          [
            [
              116.343,
              39.97
            ],
            [
              116.345,
              39.97
            ],
            [
              116.345,
              39.975
            ],
            [
              116.343,
              39.975
            ],
            [
              116.343,
              39.97
            ]
          ]
        ]
      }
    },
    {
      "type": "Feature",
      "id": "LU-003",
      "properties": {
        "id": "LU-003",
        "layer": "LAND_USE",
        "source_type": "agent_inferred_from_public_data",
        "confidence": "medium",
        "geometry_role": "provisional_constraint",
        "official_boundary": false,
        "boundary_precision": "provisional_rough",
        "source_id": "DATA-SRC-PROVISIONAL-BOUNDARIES-20260605",
        "land_use_code": "0803",
        "label_zh": "文化用地",
        "sub_label": "博物馆/展廊",
        "color": "#E8D8C8",
        "conceptual": true
      },
      "geometry": {
        "type": "Polygon",
        "coordinates": [
          [
            [
              116.343,
              39.97
            ],
            [
              116.345,
              39.97
            ],
            [
              116.345,
              39.975
            ],
            [
              116.343,
              39.975
            ],
            [
              116.343,
              39.97
            ]
          ]
        ]
      }
    },
    {
      "type": "Feature",
      "id": "LU-004",
      "properties": {
        "id": "LU-004",
        "layer": "LAND_USE",
        "source_type": "agent_inferred_from_public_data",
        "confidence": "medium",
        "geometry_role": "provisional_constraint",
        "official_boundary": false,
        "boundary_precision": "provisional_rough",
        "source_id": "DATA-SRC-PROVISIONAL-BOUNDARIES-20260605",
        "land_use_code": "05",
        "label_zh": "商业服务业用地",
        "sub_label": "智能街区",
        "color": "#E8D8C8"
      },
      "geometry": {
        "type": "Polygon",
        "coordinates": [
          [
            [
              116.342,
              39.9835
            ],
            [
              116.353,
              39.9835
            ],
            [
              116.353,
              39.9935
            ],
            [
              116.342,
              39.9935
            ],
            [
              116.342,
              39.9835
            ]
          ]
        ]
      }
    },
    {
      "type": "Feature",
      "id": "LU-005",
      "properties": {
        "id": "LU-005",
        "layer": "LAND_USE",
        "source_type": "agent_inferred_from_public_data",
        "confidence": "medium",
        "geometry_role": "provisional_constraint",
        "official_boundary": false,
        "boundary_precision": "provisional_rough",
        "source_id": "DATA-SRC-PROVISIONAL-BOUNDARIES-20260605",
        "land_use_code": "05",
        "label_zh": "商业服务业用地",
        "sub_label": "产业总部",
        "color": "#F0E5C9"
      },
      "geometry": {
        "type": "Polygon",
        "coordinates": [
          [
            [
              116.342,
              39.944
            ],
            [
              116.355,
              39.944
            ],
            [
              116.355,
              39.94984
            ],
            [
              116.342,
              39.94984
            ],
            [
              116.342,
              39.944
            ]
          ]
        ]
      }
    },
    {
      "type": "Feature",
      "id": "LU-006",
      "properties": {
        "id": "LU-006",
        "layer": "LAND_USE",
        "source_type": "agent_inferred_from_public_data",
        "confidence": "medium",
        "geometry_role": "provisional_constraint",
        "official_boundary": false,
        "boundary_precision": "provisional_rough",
        "source_id": "DATA-SRC-PROVISIONAL-BOUNDARIES-20260605",
        "land_use_code": "07",
        "label_zh": "居住用地",
        "sub_label": "人才公寓",
        "color": "#D4D4D4",
        "conceptual": true
      },
      "geometry": {
        "type": "Polygon",
        "coordinates": [
          [
            [
              116.343,
              39.97
            ],
            [
              116.345,
              39.97
            ],
            [
              116.345,
              39.975
            ],
            [
              116.343,
              39.975
            ],
            [
              116.343,
              39.97
            ]
          ]
        ]
      }
    },
    {
      "type": "Feature",
      "id": "LU-007",
      "properties": {
        "id": "LU-007",
        "layer": "LAND_USE",
        "source_type": "agent_inferred_from_public_data",
        "confidence": "medium",
        "geometry_role": "provisional_constraint",
        "official_boundary": false,
        "boundary_precision": "provisional_rough",
        "source_id": "DATA-SRC-PROVISIONAL-BOUNDARIES-20260605",
        "land_use_code": "1401",
        "label_zh": "公园绿地",
        "sub_label": "遗址公园带",
        "color": "#A8C8A8",
        "conceptual": true
      },
      "geometry": {
        "type": "Polygon",
        "coordinates": [
          [
            [
              116.343,
              39.97
            ],
            [
              116.345,
              39.97
            ],
            [
              116.345,
              39.975
            ],
            [
              116.343,
              39.975
            ],
            [
              116.343,
              39.97
            ]
          ]
        ]
      }
    },
    {
      "type": "Feature",
      "id": "LU-008",
      "properties": {
        "id": "LU-008",
        "layer": "LAND_USE",
        "source_type": "agent_inferred_from_public_data",
        "confidence": "medium",
        "geometry_role": "provisional_constraint",
        "official_boundary": false,
        "boundary_precision": "provisional_rough",
        "source_id": "DATA-SRC-PROVISIONAL-BOUNDARIES-20260605",
        "land_use_code": "1403",
        "label_zh": "广场用地",
        "sub_label": "公共节点",
        "color": "#E4DFC7",
        "conceptual": true
      },
      "geometry": {
        "type": "Polygon",
        "coordinates": [
          [
            [
              116.343,
              39.97
            ],
            [
              116.345,
              39.97
            ],
            [
              116.345,
              39.975
            ],
            [
              116.343,
              39.975
            ],
            [
              116.343,
              39.97
            ]
          ]
        ]
      }
    },
    {
      "type": "Feature",
      "id": "LU-009",
      "properties": {
        "id": "LU-009",
        "layer": "LAND_USE",
        "source_type": "agent_inferred_from_public_data",
        "confidence": "medium",
        "geometry_role": "provisional_constraint",
        "official_boundary": false,
        "boundary_precision": "provisional_rough",
        "source_id": "DATA-SRC-PROVISIONAL-BOUNDARIES-20260605",
        "land_use_code": "16",
        "label_zh": "留白用地",
        "sub_label": "战略预留",
        "color": "#E8E8E8",
        "conceptual": true
      },
      "geometry": {
        "type": "Polygon",
        "coordinates": [
          [
            [
              116.343,
              39.97
            ],
            [
              116.345,
              39.97
            ],
            [
              116.345,
              39.975
            ],
            [
              116.343,
              39.975
            ],
            [
              116.343,
              39.97
            ]
          ]
        ]
      }
    }
  ]
}