{
  "type": "FeatureCollection",
  "name": "land_use_topology_partition",
  "features": [
    {
      "type": "Feature",
      "id": "LU-001",
      "properties": {
        "id": "LU-001",
        "layer": "LAND_USE",
        "source_type": "agent_generated_design",
        "confidence": "high",
        "geometry_role": "design_proposal",
        "land_use_code": "0802",
        "name_zh": "AI研发创新与全栈自主创新用地",
        "area_sqm_declared": 2674562.492
      },
      "geometry": {
        "type": "Polygon",
        "coordinates": [
          [
            [
              116.3407,
              39.939
            ],
            [
              116.3397,
              39.975
            ],
            [
              116.3417,
              40.006
            ],
            [
              116.3427,
              40.0265
            ],
            [
              116.344068,
              40.0265
            ],
            [
              116.344068,
              39.939
            ],
            [
              116.3407,
              39.939
            ]
          ]
        ]
      }
    },
    {
      "type": "Feature",
      "id": "LU-002",
      "properties": {
        "id": "LU-002",
        "layer": "LAND_USE",
        "source_type": "agent_generated_design",
        "confidence": "high",
        "geometry_role": "design_proposal",
        "land_use_code": "1401",
        "name_zh": "京张绿意无界公园与开敞空间",
        "area_sqm_declared": 2589339.239
      },
      "geometry": {
        "type": "Polygon",
        "coordinates": [
          [
            [
              116.344068,
              39.939
            ],
            [
              116.344068,
              40.0265
            ],
            [
              116.347188,
              40.0265
            ],
            [
              116.347188,
              39.939
            ],
            [
              116.344068,
              39.939
            ]
          ]
        ]
      }
    },
    {
      "type": "Feature",
      "id": "LU-003",
      "properties": {
        "id": "LU-003",
        "layer": "LAND_USE",
        "source_type": "agent_generated_design",
        "confidence": "high",
        "geometry_role": "design_proposal",
        "land_use_code": "05",
        "name_zh": "AI产业服务与商业总部用地",
        "area_sqm_declared": 3366138.181
      },
      "geometry": {
        "type": "Polygon",
        "coordinates": [
          [
            [
              116.347188,
              39.939
            ],
            [
              116.347188,
              40.0265
            ],
            [
              116.351244,
              40.0265
            ],
            [
              116.351244,
              39.939
            ],
            [
              116.347188,
              39.939
            ]
          ]
        ]
      }
    },
    {
      "type": "Feature",
      "id": "LU-004",
      "properties": {
        "id": "LU-004",
        "layer": "LAND_USE",
        "source_type": "agent_generated_design",
        "confidence": "high",
        "geometry_role": "design_proposal",
        "land_use_code": "0702",
        "name_zh": "AI原点国际人才社区与高品质生活配套用地",
        "area_sqm_declared": 3366135.0
      },
      "geometry": {
        "type": "Polygon",
        "coordinates": [
          [
            [
              116.351244,
              39.939
            ],
            [
              116.351244,
              40.0265
            ],
            [
              116.3553,
              40.0265
            ],
            [
              116.3553,
              39.939
            ],
            [
              116.351244,
              39.939
            ]
          ]
        ]
      }
    }
  ]
}