{
  "type": "FeatureCollection",
  "name": "civic_weave_green_network",
  "features": [
    {
      "type": "Feature",
      "id": "GREEN-001",
      "properties": {
        "id": "GREEN-001",
        "layer": "GREEN_SPACE",
        "source_type": "agent_generated_design",
        "confidence": "medium",
        "geometry_role": "design_proposal",
        "design_revision": "v1.1-visual-qa",
        "land_use_code": "1401",
        "name_zh": "京张公共证据花园",
        "design_role": "heritage_green_spine",
        "area_sqm_declared": 1388568.257
      },
      "geometry": {
        "type": "Polygon",
        "coordinates": [
          [
            [
              116.34654559145002,
              39.96349830877825
            ],
            [
              116.34794654435588,
              39.977507837836676
            ],
            [
              116.34684692740605,
              39.9910031367664
            ],
            [
              116.34804698319066,
              40.00450376434328
            ],
            [
              116.34704768505102,
              40.01699499108867
            ],
            [
              116.34765196886123,
              40.025857820304914
            ],
            [
              116.34934803113877,
              40.02574217969508
            ],
            [
              116.34875231494897,
              40.01700500891133
            ],
            [
              116.34975301680934,
              40.00449623565672
            ],
            [
              116.34855307259396,
              39.9909968632336
            ],
            [
              116.34965345564412,
              39.97749216216332
            ],
            [
              116.34825440854996,
              39.96350169122176
            ],
            [
              116.34955280695537,
              39.951017091169696
            ],
            [
              116.34884828413527,
              39.9399460182823
            ],
            [
              116.34715171586473,
              39.940053981717696
            ],
            [
              116.34784719304461,
              39.950982908830305
            ],
            [
              116.34654559145002,
              39.96349830877825
            ]
          ]
        ]
      }
    },
    {
      "type": "Feature",
      "id": "GREEN-002",
      "properties": {
        "id": "GREEN-002",
        "layer": "GREEN_SPACE",
        "source_type": "agent_generated_design",
        "confidence": "medium",
        "geometry_role": "design_proposal",
        "design_revision": "v1.1-visual-qa",
        "land_use_code": "1401",
        "name_zh": "城市采用花园",
        "design_role": "key_area_civic_garden",
        "area_sqm_declared": 71509.727
      },
      "geometry": {
        "type": "Polygon",
        "coordinates": [
          [
            [
              116.34974253632635,
              39.94684807343249
            ],
            [
              116.34972021718463,
              39.946697610000875
            ],
            [
              116.3496832575204,
              39.94655005875026
            ],
            [
              116.3496320132754,
              39.946406840679835
            ],
            [
              116.34956697795974,
              39.94626933505792
            ],
            [
              116.34948877789907,
              39.946138866138824
            ],
            [
              116.34939816620272,
              39.94601669040955
            ],
            [
              116.34929601551084,
              39.94590398448916
            ],
            [
              116.34918330959046,
              39.94580183379729
            ],
            [
              116.34906113386118,
              39.94571122210093
            ],
            [
              116.34893066494209,
              39.94563302204026
            ],
            [
              116.34879315932017,
              39.94556798672461
            ],
            [
              116.34864994124975,
              39.94551674247962
            ],
            [
              116.34850238999913,
              39.945479782815376
            ],
            [
              116.34835192656752,
              39.94545746367366
            ],
            [
              116.3482,
              39.94545
            ],
            [
              116.3480480734325,
              39.94545746367366
            ],
            [
              116.34789761000089,
              39.945479782815376
            ],
            [
              116.34775005875026,
              39.94551674247962
            ],
            [
              116.34760684067984,
              39.94556798672461
            ],
            [
              116.34746933505792,
              39.94563302204026
            ],
            [
              116.34733886613883,
              39.94571122210093
            ],
            [
              116.34721669040955,
              39.94580183379729
            ],
            [
              116.34710398448917,
              39.94590398448916
            ],
            [
              116.3470018337973,
              39.94601669040955
            ],
            [
              116.34691122210094,
              39.946138866138824
            ],
            [
              116.34683302204027,
              39.94626933505792
            ],
            [
              116.34676798672461,
              39.946406840679835
            ],
            [
              116.34671674247961,
              39.94655005875026
            ],
            [
              116.34667978281539,
              39.946697610000875
            ],
            [
              116.34665746367367,
              39.94684807343249
            ],
            [
              116.34665000000001,
              39.947
            ],
            [
              116.34665746367367,
              39.947151926567514
            ],
            [
              116.34667978281539,
              39.94730238999913
            ],
            [
              116.34671674247961,
              39.947449941249744
            ],
            [
              116.34676798672461,
              39.94759315932017
            ],
            [
              116.34683302204027,
              39.947730664942085
            ],
            [
              116.34691122210094,
              39.94786113386118
            ],
            [
              116.3470018337973,
              39.947983309590455
            ],
            [
              116.34710398448917,
              39.94809601551084
            ],
            [
              116.34721669040955,
              39.948198166202715
            ],
            [
              116.34733886613883,
              39.94828877789907
            ],
            [
              116.34746933505792,
              39.94836697795974
            ],
            [
              116.34760684067984,
              39.948432013275394
            ],
            [
              116.34775005875026,
              39.94848325752039
            ],
            [
              116.34789761000089,
              39.94852021718463
            ],
            [
              116.3480480734325,
              39.94854253632634
            ],
            [
              116.3482,
              39.948550000000004
            ],
            [
              116.34835192656752,
              39.94854253632634
            ],
            [
              116.34850238999913,
              39.94852021718463
            ],
            [
              116.34864994124975,
              39.94848325752039
            ],
            [
              116.34879315932017,
              39.948432013275394
            ],
            [
              116.34893066494209,
              39.94836697795974
            ],
            [
              116.34906113386118,
              39.94828877789907
            ],
            [
              116.34918330959046,
              39.948198166202715
            ],
            [
              116.34929601551084,
              39.94809601551084
            ],
            [
              116.34939816620272,
              39.947983309590455
            ],
            [
              116.34948877789907,
              39.94786113386118
            ],
            [
              116.34956697795974,
              39.947730664942085
            ],
            [
              116.3496320132754,
              39.94759315932017
            ],
            [
              116.3496832575204,
              39.947449941249744
            ],
            [
              116.34972021718463,
              39.94730238999913
            ],
            [
              116.34974253632635,
              39.947151926567514
            ],
            [
              116.34975,
              39.947
            ],
            [
              116.34974253632635,
              39.94684807343249
            ]
          ]
        ]
      }
    },
    {
      "type": "Feature",
      "id": "GREEN-003",
      "properties": {
        "id": "GREEN-003",
        "layer": "GREEN_SPACE",
        "source_type": "agent_generated_design",
        "confidence": "medium",
        "geometry_role": "design_proposal",
        "design_revision": "v1.1-visual-qa",
        "land_use_code": "1401",
        "name_zh": "开源转译花园",
        "design_role": "key_area_civic_garden",
        "area_sqm_declared": 71467.006
      },
      "geometry": {
        "type": "Polygon",
        "coordinates": [
          [
            [
              116.34974253632635,
              39.98834807343249
            ],
            [
              116.34972021718463,
              39.988197610000874
            ],
            [
              116.3496832575204,
              39.98805005875026
            ],
            [
              116.3496320132754,
              39.987906840679834
            ],
            [
              116.34956697795974,
              39.98776933505792
            ],
            [
              116.34948877789907,
              39.98763886613882
            ],
            [
              116.34939816620272,
              39.98751669040955
            ],
            [
              116.34929601551084,
              39.98740398448916
            ],
            [
              116.34918330959046,
              39.98730183379729
            ],
            [
              116.34906113386118,
              39.98721122210093
            ],
            [
              116.34893066494209,
              39.98713302204026
            ],
            [
              116.34879315932017,
              39.98706798672461
            ],
            [
              116.34864994124975,
              39.98701674247962
            ],
            [
              116.34850238999913,
              39.986979782815375
            ],
            [
              116.34835192656752,
              39.98695746367366
            ],
            [
              116.3482,
              39.98695
            ],
            [
              116.3480480734325,
              39.98695746367366
            ],
            [
              116.34789761000089,
              39.986979782815375
            ],
            [
              116.34775005875026,
              39.98701674247962
            ],
            [
              116.34760684067984,
              39.98706798672461
            ],
            [
              116.34746933505792,
              39.98713302204026
            ],
            [
              116.34733886613883,
              39.98721122210093
            ],
            [
              116.34721669040955,
              39.98730183379729
            ],
            [
              116.34710398448917,
              39.98740398448916
            ],
            [
              116.3470018337973,
              39.98751669040955
            ],
            [
              116.34691122210094,
              39.98763886613882
            ],
            [
              116.34683302204027,
              39.98776933505792
            ],
            [
              116.34676798672461,
              39.987906840679834
            ],
            [
              116.34671674247961,
              39.98805005875026
            ],
            [
              116.34667978281539,
              39.988197610000874
            ],
            [
              116.34665746367367,
              39.98834807343249
            ],
            [
              116.34665000000001,
              39.9885
            ],
            [
              116.34665746367367,
              39.98865192656751
            ],
            [
              116.34667978281539,
              39.98880238999913
            ],
            [
              116.34671674247961,
              39.98894994124974
            ],
            [
              116.34676798672461,
              39.98909315932017
            ],
            [
              116.34683302204027,
              39.989230664942085
            ],
            [
              116.34691122210094,
              39.98936113386118
            ],
            [
              116.3470018337973,
              39.989483309590454
            ],
            [
              116.34710398448917,
              39.98959601551084
            ],
            [
              116.34721669040955,
              39.989698166202714
            ],
            [
              116.34733886613883,
              39.98978877789907
            ],
            [
              116.34746933505792,
              39.98986697795974
            ],
            [
              116.34760684067984,
              39.98993201327539
            ],
            [
              116.34775005875026,
              39.989983257520386
            ],
            [
              116.34789761000089,
              39.99002021718463
            ],
            [
              116.3480480734325,
              39.99004253632634
            ],
            [
              116.3482,
              39.990050000000004
            ],
            [
              116.34835192656752,
              39.99004253632634
            ],
            [
              116.34850238999913,
              39.99002021718463
            ],
            [
              116.34864994124975,
              39.989983257520386
            ],
            [
              116.34879315932017,
              39.98993201327539
            ],
            [
              116.34893066494209,
              39.98986697795974
            ],
            [
              116.34906113386118,
              39.98978877789907
            ],
            [
              116.34918330959046,
              39.989698166202714
            ],
            [
              116.34929601551084,
              39.98959601551084
            ],
            [
              116.34939816620272,
              39.989483309590454
            ],
            [
              116.34948877789907,
              39.98936113386118
            ],
            [
              116.34956697795974,
              39.989230664942085
            ],
            [
              116.3496320132754,
              39.98909315932017
            ],
            [
              116.3496832575204,
              39.98894994124974
            ],
            [
              116.34972021718463,
              39.98880238999913
            ],
            [
              116.34974253632635,
              39.98865192656751
            ],
            [
              116.34975,
              39.9885
            ],
            [
              116.34974253632635,
              39.98834807343249
            ]
          ]
        ]
      }
    },
    {
      "type": "Feature",
      "id": "GREEN-004",
      "properties": {
        "id": "GREEN-004",
        "layer": "GREEN_SPACE",
        "source_type": "agent_generated_design",
        "confidence": "medium",
        "geometry_role": "design_proposal",
        "design_revision": "v1.1-visual-qa",
        "land_use_code": "1401",
        "name_zh": "安全验证花园",
        "design_role": "key_area_civic_garden",
        "area_sqm_declared": 71438.161
      },
      "geometry": {
        "type": "Polygon",
        "coordinates": [
          [
            [
              116.34974253632635,
              40.01634807343249
            ],
            [
              116.34972021718463,
              40.01619761000087
            ],
            [
              116.3496832575204,
              40.01605005875026
            ],
            [
              116.3496320132754,
              40.01590684067983
            ],
            [
              116.34956697795974,
              40.01576933505792
            ],
            [
              116.34948877789907,
              40.01563886613882
            ],
            [
              116.34939816620272,
              40.01551669040955
            ],
            [
              116.34929601551084,
              40.01540398448916
            ],
            [
              116.34918330959046,
              40.01530183379729
            ],
            [
              116.34906113386118,
              40.01521122210093
            ],
            [
              116.34893066494209,
              40.01513302204026
            ],
            [
              116.34879315932017,
              40.01506798672461
            ],
            [
              116.34864994124975,
              40.01501674247962
            ],
            [
              116.34850238999913,
              40.014979782815374
            ],
            [
              116.34835192656752,
              40.01495746367366
            ],
            [
              116.3482,
              40.01495
            ],
            [
              116.3480480734325,
              40.01495746367366
            ],
            [
              116.34789761000089,
              40.014979782815374
            ],
            [
              116.34775005875026,
              40.01501674247962
            ],
            [
              116.34760684067984,
              40.01506798672461
            ],
            [
              116.34746933505792,
              40.01513302204026
            ],
            [
              116.34733886613883,
              40.01521122210093
            ],
            [
              116.34721669040955,
              40.01530183379729
            ],
            [
              116.34710398448917,
              40.01540398448916
            ],
            [
              116.3470018337973,
              40.01551669040955
            ],
            [
              116.34691122210094,
              40.01563886613882
            ],
            [
              116.34683302204027,
              40.01576933505792
            ],
            [
              116.34676798672461,
              40.01590684067983
            ],
            [
              116.34671674247961,
              40.01605005875026
            ],
            [
              116.34667978281539,
              40.01619761000087
            ],
            [
              116.34665746367367,
              40.01634807343249
            ],
            [
              116.34665000000001,
              40.0165
            ],
            [
              116.34665746367367,
              40.01665192656751
            ],
            [
              116.34667978281539,
              40.01680238999913
            ],
            [
              116.34671674247961,
              40.01694994124974
            ],
            [
              116.34676798672461,
              40.01709315932017
            ],
            [
              116.34683302204027,
              40.01723066494208
            ],
            [
              116.34691122210094,
              40.01736113386118
            ],
            [
              116.3470018337973,
              40.01748330959045
            ],
            [
              116.34710398448917,
              40.01759601551084
            ],
            [
              116.34721669040955,
              40.01769816620271
            ],
            [
              116.34733886613883,
              40.01778877789907
            ],
            [
              116.34746933505792,
              40.01786697795974
            ],
            [
              116.34760684067984,
              40.01793201327539
            ],
            [
              116.34775005875026,
              40.017983257520385
            ],
            [
              116.34789761000089,
              40.01802021718463
            ],
            [
              116.3480480734325,
              40.01804253632634
            ],
            [
              116.3482,
              40.01805
            ],
            [
              116.34835192656752,
              40.01804253632634
            ],
            [
              116.34850238999913,
              40.01802021718463
            ],
            [
              116.34864994124975,
              40.017983257520385
            ],
            [
              116.34879315932017,
              40.01793201327539
            ],
            [
              116.34893066494209,
              40.01786697795974
            ],
            [
              116.34906113386118,
              40.01778877789907
            ],
            [
              116.34918330959046,
              40.01769816620271
            ],
            [
              116.34929601551084,
              40.01759601551084
            ],
            [
              116.34939816620272,
              40.01748330959045
            ],
            [
              116.34948877789907,
              40.01736113386118
            ],
            [
              116.34956697795974,
              40.01723066494208
            ],
            [
              116.3496320132754,
              40.01709315932017
            ],
            [
              116.3496832575204,
              40.01694994124974
            ],
            [
              116.34972021718463,
              40.01680238999913
            ],
            [
              116.34974253632635,
              40.01665192656751
            ],
            [
              116.34975,
              40.0165
            ],
            [
              116.34974253632635,
              40.01634807343249
            ]
          ]
        ]
      }
    }
  ]
}
