{
  "type": "FeatureCollection",
  "name": "civic_weave_topology_partition",
  "features": [
    {
      "type": "Feature",
      "id": "LU-001",
      "properties": {
        "id": "LU-001",
        "layer": "LAND_USE",
        "source_type": "agent_generated_design",
        "confidence": "medium",
        "geometry_role": "design_proposal",
        "design_revision": "v1.1-visual-qa",
        "land_use_code": "05",
        "name_zh": "创新服务与城市会客",
        "design_note": "概念性用地织补单元；待官方控规、权属和现状底数补齐后深化。",
        "area_sqm_declared": 383218.165
      },
      "geometry": {
        "type": "Polygon",
        "coordinates": [
          [
            [
              116.3407,
              39.939
            ],
            [
              116.34040833333333,
              39.9495
            ],
            [
              116.3444,
              39.9495
            ],
            [
              116.3444,
              39.939
            ],
            [
              116.3407,
              39.939
            ]
          ]
        ]
      }
    },
    {
      "type": "Feature",
      "id": "LU-002",
      "properties": {
        "id": "LU-002",
        "layer": "LAND_USE",
        "source_type": "agent_generated_design",
        "confidence": "medium",
        "geometry_role": "design_proposal",
        "design_revision": "v1.1-visual-qa",
        "land_use_code": "0802",
        "name_zh": "科研验证与开放实验",
        "design_note": "概念性用地织补单元；待官方控规、权属和现状底数补齐后深化。",
        "area_sqm_declared": 358722.738
      },
      "geometry": {
        "type": "Polygon",
        "coordinates": [
          [
            [
              116.3444,
              39.939
            ],
            [
              116.3444,
              39.9495
            ],
            [
              116.348,
              39.9495
            ],
            [
              116.348,
              39.939
            ],
            [
              116.3444,
              39.939
            ]
          ]
        ]
      }
    },
    {
      "type": "Feature",
      "id": "LU-003",
      "properties": {
        "id": "LU-003",
        "layer": "LAND_USE",
        "source_type": "agent_generated_design",
        "confidence": "medium",
        "geometry_role": "design_proposal",
        "design_revision": "v1.1-visual-qa",
        "land_use_code": "0803",
        "name_zh": "文化展示与城市议场",
        "design_note": "概念性用地织补单元；待官方控规、权属和现状底数补齐后深化。",
        "area_sqm_declared": 368686.943
      },
      "geometry": {
        "type": "Polygon",
        "coordinates": [
          [
            [
              116.348,
              39.939
            ],
            [
              116.348,
              39.9495
            ],
            [
              116.3517,
              39.9495
            ],
            [
              116.3517,
              39.939
            ],
            [
              116.348,
              39.939
            ]
          ]
        ]
      }
    },
    {
      "type": "Feature",
      "id": "LU-004",
      "properties": {
        "id": "LU-004",
        "layer": "LAND_USE",
        "source_type": "agent_generated_design",
        "confidence": "medium",
        "geometry_role": "design_proposal",
        "design_revision": "v1.1-visual-qa",
        "land_use_code": "0701",
        "name_zh": "人才生活与混合居住",
        "design_note": "概念性用地织补单元；待官方控规、权属和现状底数补齐后深化。",
        "area_sqm_declared": 358722.126
      },
      "geometry": {
        "type": "Polygon",
        "coordinates": [
          [
            [
              116.3517,
              39.939
            ],
            [
              116.3517,
              39.9495
            ],
            [
              116.3553,
              39.9495
            ],
            [
              116.3553,
              39.939
            ],
            [
              116.3517,
              39.939
            ]
          ]
        ]
      }
    },
    {
      "type": "Feature",
      "id": "LU-005",
      "properties": {
        "id": "LU-005",
        "layer": "LAND_USE",
        "source_type": "agent_generated_design",
        "confidence": "medium",
        "geometry_role": "design_proposal",
        "design_revision": "v1.1-visual-qa",
        "land_use_code": "1401",
        "name_zh": "遗产公园与连续绿地",
        "design_note": "概念性用地织补单元；待官方控规、权属和现状底数补齐后深化。",
        "area_sqm_declared": 494024.029
      },
      "geometry": {
        "type": "Polygon",
        "coordinates": [
          [
            [
              116.34006111111111,
              39.962
            ],
            [
              116.3444,
              39.962
            ],
            [
              116.3444,
              39.9495
            ],
            [
              116.34040833333333,
              39.9495
            ],
            [
              116.34006111111111,
              39.962
            ]
          ]
        ]
      }
    },
    {
      "type": "Feature",
      "id": "LU-006",
      "properties": {
        "id": "LU-006",
        "layer": "LAND_USE",
        "source_type": "agent_generated_design",
        "confidence": "medium",
        "geometry_role": "design_proposal",
        "design_revision": "v1.1-visual-qa",
        "land_use_code": "1401",
        "name_zh": "遗产公园与连续绿地",
        "design_note": "概念性用地织补单元；待官方控规、权属和现状底数补齐后深化。",
        "area_sqm_declared": 426980.21
      },
      "geometry": {
        "type": "Polygon",
        "coordinates": [
          [
            [
              116.3444,
              39.9495
            ],
            [
              116.3444,
              39.962
            ],
            [
              116.348,
              39.962
            ],
            [
              116.348,
              39.9495
            ],
            [
              116.3444,
              39.9495
            ]
          ]
        ]
      }
    },
    {
      "type": "Feature",
      "id": "LU-007",
      "properties": {
        "id": "LU-007",
        "layer": "LAND_USE",
        "source_type": "agent_generated_design",
        "confidence": "medium",
        "geometry_role": "design_proposal",
        "design_revision": "v1.1-visual-qa",
        "land_use_code": "1401",
        "name_zh": "遗产公园与连续绿地",
        "design_note": "概念性用地织补单元；待官方控规、权属和现状底数补齐后深化。",
        "area_sqm_declared": 438840.396
      },
      "geometry": {
        "type": "Polygon",
        "coordinates": [
          [
            [
              116.348,
              39.9495
            ],
            [
              116.348,
              39.962
            ],
            [
              116.3517,
              39.962
            ],
            [
              116.3517,
              39.9495
            ],
            [
              116.348,
              39.9495
            ]
          ]
        ]
      }
    },
    {
      "type": "Feature",
      "id": "LU-008",
      "properties": {
        "id": "LU-008",
        "layer": "LAND_USE",
        "source_type": "agent_generated_design",
        "confidence": "medium",
        "geometry_role": "design_proposal",
        "design_revision": "v1.1-visual-qa",
        "land_use_code": "0702",
        "name_zh": "社区服务与公共协商",
        "design_note": "概念性用地织补单元；待官方控规、权属和现状底数补齐后深化。",
        "area_sqm_declared": 426979.482
      },
      "geometry": {
        "type": "Polygon",
        "coordinates": [
          [
            [
              116.3553,
              39.9495
            ],
            [
              116.3517,
              39.9495
            ],
            [
              116.3517,
              39.962
            ],
            [
              116.3553,
              39.962
            ],
            [
              116.3553,
              39.9495
            ]
          ]
        ]
      }
    },
    {
      "type": "Feature",
      "id": "LU-009",
      "properties": {
        "id": "LU-009",
        "layer": "LAND_USE",
        "source_type": "agent_generated_design",
        "confidence": "medium",
        "geometry_role": "design_proposal",
        "design_revision": "v1.1-visual-qa",
        "land_use_code": "0701",
        "name_zh": "人才生活与混合居住",
        "design_note": "概念性用地织补单元；待官方控规、权属和现状底数补齐后深化。",
        "area_sqm_declared": 601646.137
      },
      "geometry": {
        "type": "Polygon",
        "coordinates": [
          [
            [
              116.33976451612902,
              39.976
            ],
            [
              116.3444,
              39.976
            ],
            [
              116.3444,
              39.962
            ],
            [
              116.34006111111111,
              39.962
            ],
            [
              116.3397,
              39.975
            ],
            [
              116.33976451612902,
              39.976
            ]
          ]
        ]
      }
    },
    {
      "type": "Feature",
      "id": "LU-010",
      "properties": {
        "id": "LU-010",
        "layer": "LAND_USE",
        "source_type": "agent_generated_design",
        "confidence": "medium",
        "geometry_role": "design_proposal",
        "design_revision": "v1.1-visual-qa",
        "land_use_code": "05",
        "name_zh": "创新服务与城市会客",
        "design_note": "概念性用地织补单元；待官方控规、权属和现状底数补齐后深化。",
        "area_sqm_declared": 478126.618
      },
      "geometry": {
        "type": "Polygon",
        "coordinates": [
          [
            [
              116.3444,
              39.962
            ],
            [
              116.3444,
              39.976
            ],
            [
              116.348,
              39.976
            ],
            [
              116.348,
              39.962
            ],
            [
              116.3444,
              39.962
            ]
          ]
        ]
      }
    },
    {
      "type": "Feature",
      "id": "LU-011",
      "properties": {
        "id": "LU-011",
        "layer": "LAND_USE",
        "source_type": "agent_generated_design",
        "confidence": "medium",
        "geometry_role": "design_proposal",
        "design_revision": "v1.1-visual-qa",
        "land_use_code": "0802",
        "name_zh": "科研验证与开放实验",
        "design_note": "概念性用地织补单元；待官方控规、权属和现状底数补齐后深化。",
        "area_sqm_declared": 491407.493
      },
      "geometry": {
        "type": "Polygon",
        "coordinates": [
          [
            [
              116.348,
              39.962
            ],
            [
              116.348,
              39.976
            ],
            [
              116.3517,
              39.976
            ],
            [
              116.3517,
              39.962
            ],
            [
              116.348,
              39.962
            ]
          ]
        ]
      }
    },
    {
      "type": "Feature",
      "id": "LU-012",
      "properties": {
        "id": "LU-012",
        "layer": "LAND_USE",
        "source_type": "agent_generated_design",
        "confidence": "medium",
        "geometry_role": "design_proposal",
        "design_revision": "v1.1-visual-qa",
        "land_use_code": "0803",
        "name_zh": "文化展示与城市议场",
        "design_note": "概念性用地织补单元；待官方控规、权属和现状底数补齐后深化。",
        "area_sqm_declared": 432214.845
      },
      "geometry": {
        "type": "Polygon",
        "coordinates": [
          [
            [
              116.3553,
              39.962
            ],
            [
              116.3517,
              39.962
            ],
            [
              116.3517,
              39.976
            ],
            [
              116.35442,
              39.976
            ],
            [
              116.3553,
              39.965
            ],
            [
              116.3553,
              39.962
            ]
          ]
        ]
      }
    },
    {
      "type": "Feature",
      "id": "LU-013",
      "properties": {
        "id": "LU-013",
        "layer": "LAND_USE",
        "source_type": "agent_generated_design",
        "confidence": "medium",
        "geometry_role": "design_proposal",
        "design_revision": "v1.1-visual-qa",
        "land_use_code": "0702",
        "name_zh": "社区服务与公共协商",
        "design_note": "概念性用地织补单元；待官方控规、权属和现状底数补齐后深化。",
        "area_sqm_declared": 573188.363
      },
      "geometry": {
        "type": "Polygon",
        "coordinates": [
          [
            [
              116.3407,
              39.9905
            ],
            [
              116.3444,
              39.9905
            ],
            [
              116.3444,
              39.976
            ],
            [
              116.33976451612902,
              39.976
            ],
            [
              116.3407,
              39.9905
            ]
          ]
        ]
      }
    },
    {
      "type": "Feature",
      "id": "LU-014",
      "properties": {
        "id": "LU-014",
        "layer": "LAND_USE",
        "source_type": "agent_generated_design",
        "confidence": "medium",
        "geometry_role": "design_proposal",
        "design_revision": "v1.1-visual-qa",
        "land_use_code": "1401",
        "name_zh": "遗产公园与连续绿地",
        "design_note": "概念性用地织补单元；待官方控规、权属和现状底数补齐后深化。",
        "area_sqm_declared": 495100.934
      },
      "geometry": {
        "type": "Polygon",
        "coordinates": [
          [
            [
              116.3444,
              39.976
            ],
            [
              116.3444,
              39.9905
            ],
            [
              116.348,
              39.9905
            ],
            [
              116.348,
              39.976
            ],
            [
              116.3444,
              39.976
            ]
          ]
        ]
      }
    },
    {
      "type": "Feature",
      "id": "LU-015",
      "properties": {
        "id": "LU-015",
        "layer": "LAND_USE",
        "source_type": "agent_generated_design",
        "confidence": "medium",
        "geometry_role": "design_proposal",
        "design_revision": "v1.1-visual-qa",
        "land_use_code": "0804",
        "name_zh": "近校共学与成果转译",
        "design_note": "概念性用地织补单元；待官方控规、权属和现状底数补齐后深化。",
        "area_sqm_declared": 508853.303
      },
      "geometry": {
        "type": "Polygon",
        "coordinates": [
          [
            [
              116.348,
              39.976
            ],
            [
              116.348,
              39.9905
            ],
            [
              116.3517,
              39.9905
            ],
            [
              116.3517,
              39.976
            ],
            [
              116.348,
              39.976
            ]
          ]
        ]
      }
    },
    {
      "type": "Feature",
      "id": "LU-016",
      "properties": {
        "id": "LU-016",
        "layer": "LAND_USE",
        "source_type": "agent_generated_design",
        "confidence": "medium",
        "geometry_role": "design_proposal",
        "design_revision": "v1.1-visual-qa",
        "land_use_code": "1403",
        "name_zh": "公共广场与选择展示",
        "design_note": "概念性用地织补单元；待官方控规、权属和现状底数补齐后深化。",
        "area_sqm_declared": 294477.062
      },
      "geometry": {
        "type": "Polygon",
        "coordinates": [
          [
            [
              116.3533,
              39.99
            ],
            [
              116.35442,
              39.976
            ],
            [
              116.3517,
              39.976
            ],
            [
              116.3517,
              39.9905
            ],
            [
              116.35332739726027,
              39.9905
            ],
            [
              116.3533,
              39.99
            ]
          ]
        ]
      }
    },
    {
      "type": "Feature",
      "id": "LU-017",
      "properties": {
        "id": "LU-017",
        "layer": "LAND_USE",
        "source_type": "agent_generated_design",
        "confidence": "medium",
        "geometry_role": "design_proposal",
        "design_revision": "v1.1-visual-qa",
        "land_use_code": "0803",
        "name_zh": "文化展示与城市议场",
        "design_note": "概念性用地织补单元；待官方控规、权属和现状底数补齐后深化。",
        "area_sqm_declared": 417920.878
      },
      "geometry": {
        "type": "Polygon",
        "coordinates": [
          [
            [
              116.34157096774194,
              40.004
            ],
            [
              116.3444,
              40.004
            ],
            [
              116.3444,
              39.9905
            ],
            [
              116.3407,
              39.9905
            ],
            [
              116.34157096774194,
              40.004
            ]
          ]
        ]
      }
    },
    {
      "type": "Feature",
      "id": "LU-018",
      "properties": {
        "id": "LU-018",
        "layer": "LAND_USE",
        "source_type": "agent_generated_design",
        "confidence": "medium",
        "geometry_role": "design_proposal",
        "design_revision": "v1.1-visual-qa",
        "land_use_code": "1401",
        "name_zh": "遗产公园与连续绿地",
        "design_note": "概念性用地织补单元；待官方控规、权属和现状底数补齐后深化。",
        "area_sqm_declared": 460863.049
      },
      "geometry": {
        "type": "Polygon",
        "coordinates": [
          [
            [
              116.3444,
              39.9905
            ],
            [
              116.3444,
              40.004
            ],
            [
              116.348,
              40.004
            ],
            [
              116.348,
              39.9905
            ],
            [
              116.3444,
              39.9905
            ]
          ]
        ]
      }
    },
    {
      "type": "Feature",
      "id": "LU-019",
      "properties": {
        "id": "LU-019",
        "layer": "LAND_USE",
        "source_type": "agent_generated_design",
        "confidence": "medium",
        "geometry_role": "design_proposal",
        "design_revision": "v1.1-visual-qa",
        "land_use_code": "1401",
        "name_zh": "遗产公园与连续绿地",
        "design_note": "概念性用地织补单元；待官方控规、权属和现状底数补齐后深化。",
        "area_sqm_declared": 473664.395
      },
      "geometry": {
        "type": "Polygon",
        "coordinates": [
          [
            [
              116.348,
              39.9905
            ],
            [
              116.348,
              40.004
            ],
            [
              116.3517,
              40.004
            ],
            [
              116.3517,
              39.9905
            ],
            [
              116.348,
              39.9905
            ]
          ]
        ]
      }
    },
    {
      "type": "Feature",
      "id": "LU-020",
      "properties": {
        "id": "LU-020",
        "layer": "LAND_USE",
        "source_type": "agent_generated_design",
        "confidence": "medium",
        "geometry_role": "design_proposal",
        "design_revision": "v1.1-visual-qa",
        "land_use_code": "0802",
        "name_zh": "科研验证与开放实验",
        "design_note": "概念性用地织补单元；待官方控规、权属和现状底数补齐后深化。",
        "area_sqm_declared": 255679.302
      },
      "geometry": {
        "type": "Polygon",
        "coordinates": [
          [
            [
              116.35332739726027,
              39.9905
            ],
            [
              116.3517,
              39.9905
            ],
            [
              116.3517,
              40.004
            ],
            [
              116.35406712328768,
              40.004
            ],
            [
              116.35332739726027,
              39.9905
            ]
          ]
        ]
      }
    },
    {
      "type": "Feature",
      "id": "LU-021",
      "properties": {
        "id": "LU-021",
        "layer": "LAND_USE",
        "source_type": "agent_generated_design",
        "confidence": "medium",
        "geometry_role": "design_proposal",
        "design_revision": "v1.1-visual-qa",
        "land_use_code": "1403",
        "name_zh": "公共广场与选择展示",
        "design_note": "概念性用地织补单元；待官方控规、权属和现状底数补齐后深化。",
        "area_sqm_declared": 285286.804
      },
      "geometry": {
        "type": "Polygon",
        "coordinates": [
          [
            [
              116.3417,
              40.006
            ],
            [
              116.34218780487805,
              40.016
            ],
            [
              116.3444,
              40.016
            ],
            [
              116.3444,
              40.004
            ],
            [
              116.34157096774194,
              40.004
            ],
            [
              116.3417,
              40.006
            ]
          ]
        ]
      }
    },
    {
      "type": "Feature",
      "id": "LU-022",
      "properties": {
        "id": "LU-022",
        "layer": "LAND_USE",
        "source_type": "agent_generated_design",
        "confidence": "medium",
        "geometry_role": "design_proposal",
        "design_revision": "v1.1-visual-qa",
        "land_use_code": "0702",
        "name_zh": "社区服务与公共协商",
        "design_note": "概念性用地织补单元；待官方控规、权属和现状底数补齐后深化。",
        "area_sqm_declared": 409580.742
      },
      "geometry": {
        "type": "Polygon",
        "coordinates": [
          [
            [
              116.3444,
              40.004
            ],
            [
              116.3444,
              40.016
            ],
            [
              116.348,
              40.016
            ],
            [
              116.348,
              40.004
            ],
            [
              116.3444,
              40.004
            ]
          ]
        ]
      }
    },
    {
      "type": "Feature",
      "id": "LU-023",
      "properties": {
        "id": "LU-023",
        "layer": "LAND_USE",
        "source_type": "agent_generated_design",
        "confidence": "medium",
        "geometry_role": "design_proposal",
        "design_revision": "v1.1-visual-qa",
        "land_use_code": "1401",
        "name_zh": "遗产公园与连续绿地",
        "design_note": "概念性用地织补单元；待官方控规、权属和现状底数补齐后深化。",
        "area_sqm_declared": 420957.625
      },
      "geometry": {
        "type": "Polygon",
        "coordinates": [
          [
            [
              116.348,
              40.004
            ],
            [
              116.348,
              40.016
            ],
            [
              116.3517,
              40.016
            ],
            [
              116.3517,
              40.004
            ],
            [
              116.348,
              40.004
            ]
          ]
        ]
      }
    },
    {
      "type": "Feature",
      "id": "LU-024",
      "properties": {
        "id": "LU-024",
        "layer": "LAND_USE",
        "source_type": "agent_generated_design",
        "confidence": "medium",
        "geometry_role": "design_proposal",
        "design_revision": "v1.1-visual-qa",
        "land_use_code": "0804",
        "name_zh": "近校共学与成果转译",
        "design_note": "概念性用地织补单元；待官方控规、权属和现状底数补齐后深化。",
        "area_sqm_declared": 306714.329
      },
      "geometry": {
        "type": "Polygon",
        "coordinates": [
          [
            [
              116.35406712328768,
              40.004
            ],
            [
              116.3517,
              40.004
            ],
            [
              116.3517,
              40.016
            ],
            [
              116.35472465753425,
              40.016
            ],
            [
              116.35406712328768,
              40.004
            ]
          ]
        ]
      }
    },
    {
      "type": "Feature",
      "id": "LU-025",
      "properties": {
        "id": "LU-025",
        "layer": "LAND_USE",
        "source_type": "agent_generated_design",
        "confidence": "medium",
        "geometry_role": "design_proposal",
        "design_revision": "v1.1-visual-qa",
        "land_use_code": "0802",
        "name_zh": "科研验证与开放实验",
        "design_note": "概念性用地织补单元；待官方控规、权属和现状底数补齐后深化。",
        "area_sqm_declared": 194701.667
      },
      "geometry": {
        "type": "Polygon",
        "coordinates": [
          [
            [
              116.3444,
              40.0265
            ],
            [
              116.3444,
              40.016
            ],
            [
              116.34218780487805,
              40.016
            ],
            [
              116.3427,
              40.0265
            ],
            [
              116.3444,
              40.0265
            ]
          ]
        ]
      }
    },
    {
      "type": "Feature",
      "id": "LU-026",
      "properties": {
        "id": "LU-026",
        "layer": "LAND_USE",
        "source_type": "agent_generated_design",
        "confidence": "medium",
        "geometry_role": "design_proposal",
        "design_revision": "v1.1-visual-qa",
        "land_use_code": "0803",
        "name_zh": "文化展示与城市议场",
        "design_note": "概念性用地织补单元；待官方控规、权属和现状底数补齐后深化。",
        "area_sqm_declared": 358324.997
      },
      "geometry": {
        "type": "Polygon",
        "coordinates": [
          [
            [
              116.348,
              40.0265
            ],
            [
              116.348,
              40.016
            ],
            [
              116.3444,
              40.016
            ],
            [
              116.3444,
              40.0265
            ],
            [
              116.348,
              40.0265
            ]
          ]
        ]
      }
    },
    {
      "type": "Feature",
      "id": "LU-027",
      "properties": {
        "id": "LU-027",
        "layer": "LAND_USE",
        "source_type": "agent_generated_design",
        "confidence": "medium",
        "geometry_role": "design_proposal",
        "design_revision": "v1.1-visual-qa",
        "land_use_code": "0701",
        "name_zh": "人才生活与混合居住",
        "design_note": "概念性用地织补单元；待官方控规、权属和现状底数补齐后深化。",
        "area_sqm_declared": 368278.155
      },
      "geometry": {
        "type": "Polygon",
        "coordinates": [
          [
            [
              116.3517,
              40.0265
            ],
            [
              116.3517,
              40.016
            ],
            [
              116.348,
              40.016
            ],
            [
              116.348,
              40.0265
            ],
            [
              116.3517,
              40.0265
            ]
          ]
        ]
      }
    },
    {
      "type": "Feature",
      "id": "LU-028",
      "properties": {
        "id": "LU-028",
        "layer": "LAND_USE",
        "source_type": "agent_generated_design",
        "confidence": "medium",
        "geometry_role": "design_proposal",
        "design_revision": "v1.1-visual-qa",
        "land_use_code": "05",
        "name_zh": "创新服务与城市会客",
        "design_note": "概念性用地织补单元；待官方控规、权属和现状底数补齐后深化。",
        "area_sqm_declared": 329689.104
      },
      "geometry": {
        "type": "Polygon",
        "coordinates": [
          [
            [
              116.35472465753425,
              40.016
            ],
            [
              116.3517,
              40.016
            ],
            [
              116.3517,
              40.0265
            ],
            [
              116.3553,
              40.0265
            ],
            [
              116.35472465753425,
              40.016
            ]
          ]
        ]
      }
    }
  ]
}
