{
  "type": "FeatureCollection",
  "name": "civic_weave_reversible_phasing",
  "features": [
    {
      "type": "Feature",
      "id": "PHASE-001",
      "properties": {
        "id": "PHASE-001",
        "layer": "PHASE",
        "source_type": "agent_generated_design",
        "confidence": "medium",
        "geometry_role": "design_proposal",
        "design_revision": "v1.1-visual-qa",
        "phase": "phase_1",
        "name_zh": "先织公共接口",
        "trigger": "依赖正式边界、现场核查和专业审查逐项放行",
        "area_sqm_declared": 4124934.629
      },
      "geometry": {
        "type": "Polygon",
        "coordinates": [
          [
            [
              116.3407,
              39.939
            ],
            [
              116.33989444444444,
              39.968
            ],
            [
              116.35506,
              39.968
            ],
            [
              116.3553,
              39.965
            ],
            [
              116.3553,
              39.939
            ],
            [
              116.3407,
              39.939
            ]
          ]
        ]
      }
    },
    {
      "type": "Feature",
      "id": "PHASE-002",
      "properties": {
        "id": "PHASE-002",
        "layer": "PHASE",
        "source_type": "agent_generated_design",
        "confidence": "medium",
        "geometry_role": "design_proposal",
        "design_revision": "v1.1-visual-qa",
        "phase": "phase_2",
        "name_zh": "再织三区协作",
        "trigger": "依赖正式边界、现场核查和专业审查逐项放行",
        "area_sqm_declared": 4614399.242
      },
      "geometry": {
        "type": "Polygon",
        "coordinates": [
          [
            [
              116.3533,
              39.99
            ],
            [
              116.35506,
              39.968
            ],
            [
              116.33989444444444,
              39.968
            ],
            [
              116.3397,
              39.975
            ],
            [
              116.34157096774194,
              40.004
            ],
            [
              116.35406712328768,
              40.004
            ],
            [
              116.3533,
              39.99
            ]
          ]
        ]
      }
    },
    {
      "type": "Feature",
      "id": "PHASE-003",
      "properties": {
        "id": "PHASE-003",
        "layer": "PHASE",
        "source_type": "agent_generated_design",
        "confidence": "medium",
        "geometry_role": "design_proposal",
        "design_revision": "v1.1-visual-qa",
        "phase": "phase_3",
        "name_zh": "形成长期议织网络",
        "trigger": "依赖正式边界、现场核查和专业审查逐项放行",
        "area_sqm_declared": 2673530.438
      },
      "geometry": {
        "type": "Polygon",
        "coordinates": [
          [
            [
              116.35406712328768,
              40.004
            ],
            [
              116.34157096774194,
              40.004
            ],
            [
              116.3417,
              40.006
            ],
            [
              116.3427,
              40.0265
            ],
            [
              116.3553,
              40.0265
            ],
            [
              116.35406712328768,
              40.004
            ]
          ]
        ]
      }
    }
  ]
}
