{
  "type": "FeatureCollection",
  "name": "civic_weave_public_deliberation_spaces",
  "features": [
    {
      "type": "Feature",
      "id": "PUBLIC-001",
      "properties": {
        "id": "PUBLIC-001",
        "layer": "PUBLIC_SPACE",
        "source_type": "agent_generated_design",
        "confidence": "medium",
        "geometry_role": "design_proposal",
        "design_revision": "v1.1-visual-qa",
        "name_zh": "大钟寺选择大厅",
        "design_role": "civic_deliberation_node",
        "access_principle": "public, non-digital alternative, human review",
        "area_sqm_declared": 10012.996
      },
      "geometry": {
        "type": "Polygon",
        "coordinates": [
          [
            [
              116.34777720714148,
              39.9459431500586
            ],
            [
              116.34776885546263,
              39.94588684761323
            ],
            [
              116.34775502539472,
              39.94583163488719
            ],
            [
              116.34773585012886,
              39.945778043609224
            ],
            [
              116.34771151433333,
              39.94572658989264
            ],
            [
              116.34768225237514,
              39.94567776926485
            ],
            [
              116.34764834606295,
              39.94563205189518
            ],
            [
              116.34761012193309,
              39.94558987806691
            ],
            [
              116.34756794810481,
              39.945551653937045
            ],
            [
              116.34752223073515,
              39.94551774762486
            ],
            [
              116.34747341010736,
              39.94548848566668
            ],
            [
              116.34742195639078,
              39.94546414987114
            ],
            [
              116.34736836511281,
              39.94544497460527
            ],
            [
              116.34731315238677,
              39.945431144537366
            ],
            [
              116.34725684994139,
              39.94542279285853
            ],
            [
              116.3472,
              39.94542
            ],
            [
              116.34714315005861,
              39.94542279285853
            ],
            [
              116.34708684761323,
              39.945431144537366
            ],
            [
              116.34703163488719,
              39.94544497460527
            ],
            [
              116.34697804360923,
              39.94546414987114
            ],
            [
              116.34692658989265,
              39.94548848566668
            ],
            [
              116.34687776926485,
              39.94551774762486
            ],
            [
              116.34683205189519,
              39.945551653937045
            ],
            [
              116.34678987806691,
              39.94558987806691
            ],
            [
              116.34675165393705,
              39.94563205189518
            ],
            [
              116.34671774762487,
              39.94567776926485
            ],
            [
              116.34668848566668,
              39.94572658989264
            ],
            [
              116.34666414987115,
              39.945778043609224
            ],
            [
              116.34664497460528,
              39.94583163488719
            ],
            [
              116.34663114453737,
              39.94588684761323
            ],
            [
              116.34662279285853,
              39.9459431500586
            ],
            [
              116.34662,
              39.946
            ],
            [
              116.34662279285853,
              39.94605684994139
            ],
            [
              116.34663114453737,
              39.946113152386765
            ],
            [
              116.34664497460528,
              39.946168365112804
            ],
            [
              116.34666414987115,
              39.94622195639077
            ],
            [
              116.34668848566668,
              39.94627341010736
            ],
            [
              116.34671774762487,
              39.94632223073515
            ],
            [
              116.34675165393705,
              39.946367948104815
            ],
            [
              116.34678987806691,
              39.946410121933084
            ],
            [
              116.34683205189519,
              39.94644834606295
            ],
            [
              116.34687776926485,
              39.946482252375134
            ],
            [
              116.34692658989265,
              39.94651151433332
            ],
            [
              116.34697804360923,
              39.94653585012885
            ],
            [
              116.34703163488719,
              39.94655502539472
            ],
            [
              116.34708684761323,
              39.94656885546263
            ],
            [
              116.34714315005861,
              39.946577207141466
            ],
            [
              116.3472,
              39.94658
            ],
            [
              116.34725684994139,
              39.946577207141466
            ],
            [
              116.34731315238677,
              39.94656885546263
            ],
            [
              116.34736836511281,
              39.94655502539472
            ],
            [
              116.34742195639078,
              39.94653585012885
            ],
            [
              116.34747341010736,
              39.94651151433332
            ],
            [
              116.34752223073515,
              39.946482252375134
            ],
            [
              116.34756794810481,
              39.94644834606295
            ],
            [
              116.34761012193309,
              39.946410121933084
            ],
            [
              116.34764834606295,
              39.946367948104815
            ],
            [
              116.34768225237514,
              39.94632223073515
            ],
            [
              116.34771151433333,
              39.94627341010736
            ],
            [
              116.34773585012886,
              39.94622195639077
            ],
            [
              116.34775502539472,
              39.946168365112804
            ],
            [
              116.34776885546263,
              39.946113152386765
            ],
            [
              116.34777720714148,
              39.94605684994139
            ],
            [
              116.34778,
              39.946
            ],
            [
              116.34777720714148,
              39.9459431500586
            ]
          ]
        ]
      }
    },
    {
      "type": "Feature",
      "id": "PUBLIC-002",
      "properties": {
        "id": "PUBLIC-002",
        "layer": "PUBLIC_SPACE",
        "source_type": "agent_generated_design",
        "confidence": "medium",
        "geometry_role": "design_proposal",
        "design_revision": "v1.1-visual-qa",
        "name_zh": "算法收据驿站",
        "design_role": "civic_deliberation_node",
        "access_principle": "public, non-digital alternative, human review",
        "area_sqm_declared": 12191.444
      },
      "geometry": {
        "type": "Polygon",
        "coordinates": [
          [
            [
              116.35143691822508,
              39.94793726903019
            ],
            [
              116.35142770257947,
              39.94787514219391
            ],
            [
              116.35141244181487,
              39.94781421780656
            ],
            [
              116.35139128290082,
              39.94775508260329
            ],
            [
              116.35136442960919,
              39.947698306088434
            ],
            [
              116.35133214055188,
              39.94764443505087
            ],
            [
              116.35129472669016,
              39.94759398829814
            ],
            [
              116.35125254833997,
              39.94754745166004
            ],
            [
              116.35120601170188,
              39.94750527330985
            ],
            [
              116.35115556494914,
              39.947467859448125
            ],
            [
              116.35110169391157,
              39.947435570390816
            ],
            [
              116.35104491739672,
              39.947408717099194
            ],
            [
              116.35098578219345,
              39.947387558185135
            ],
            [
              116.35092485780609,
              39.94737229742054
            ],
            [
              116.35086273096982,
              39.94736308177493
            ],
            [
              116.3508,
              39.94736
            ],
            [
              116.35073726903019,
              39.94736308177493
            ],
            [
              116.35067514219392,
              39.94737229742054
            ],
            [
              116.35061421780657,
              39.947387558185135
            ],
            [
              116.3505550826033,
              39.947408717099194
            ],
            [
              116.35049830608844,
              39.947435570390816
            ],
            [
              116.35044443505087,
              39.947467859448125
            ],
            [
              116.35039398829814,
              39.94750527330985
            ],
            [
              116.35034745166004,
              39.94754745166004
            ],
            [
              116.35030527330986,
              39.94759398829814
            ],
            [
              116.35026785944814,
              39.94764443505087
            ],
            [
              116.35023557039082,
              39.947698306088434
            ],
            [
              116.35020871709919,
              39.94775508260329
            ],
            [
              116.35018755818514,
              39.94781421780656
            ],
            [
              116.35017229742054,
              39.94787514219391
            ],
            [
              116.35016308177494,
              39.94793726903019
            ],
            [
              116.35016,
              39.948
            ],
            [
              116.35016308177494,
              39.94806273096981
            ],
            [
              116.35017229742054,
              39.94812485780609
            ],
            [
              116.35018755818514,
              39.94818578219344
            ],
            [
              116.35020871709919,
              39.948244917396714
            ],
            [
              116.35023557039082,
              39.94830169391157
            ],
            [
              116.35026785944814,
              39.94835556494913
            ],
            [
              116.35030527330986,
              39.94840601170186
            ],
            [
              116.35034745166004,
              39.94845254833996
            ],
            [
              116.35039398829814,
              39.94849472669015
            ],
            [
              116.35044443505087,
              39.948532140551876
            ],
            [
              116.35049830608844,
              39.948564429609185
            ],
            [
              116.3505550826033,
              39.94859128290081
            ],
            [
              116.35061421780657,
              39.948612441814866
            ],
            [
              116.35067514219392,
              39.94862770257946
            ],
            [
              116.35073726903019,
              39.94863691822507
            ],
            [
              116.3508,
              39.94864
            ],
            [
              116.35086273096982,
              39.94863691822507
            ],
            [
              116.35092485780609,
              39.94862770257946
            ],
            [
              116.35098578219345,
              39.948612441814866
            ],
            [
              116.35104491739672,
              39.94859128290081
            ],
            [
              116.35110169391157,
              39.948564429609185
            ],
            [
              116.35115556494914,
              39.948532140551876
            ],
            [
              116.35120601170188,
              39.94849472669015
            ],
            [
              116.35125254833997,
              39.94845254833996
            ],
            [
              116.35129472669016,
              39.94840601170186
            ],
            [
              116.35133214055188,
              39.94835556494913
            ],
            [
              116.35136442960919,
              39.94830169391157
            ],
            [
              116.35139128290082,
              39.948244917396714
            ],
            [
              116.35141244181487,
              39.94818578219344
            ],
            [
              116.35142770257947,
              39.94812485780609
            ],
            [
              116.35143691822508,
              39.94806273096981
            ],
            [
              116.35144000000001,
              39.948
            ],
            [
              116.35143691822508,
              39.94793726903019
            ]
          ]
        ]
      }
    },
    {
      "type": "Feature",
      "id": "PUBLIC-003",
      "properties": {
        "id": "PUBLIC-003",
        "layer": "PUBLIC_SPACE",
        "source_type": "agent_generated_design",
        "confidence": "medium",
        "geometry_role": "design_proposal",
        "design_revision": "v1.1-visual-qa",
        "name_zh": "无障碍路线陪审点",
        "design_role": "civic_deliberation_node",
        "access_principle": "public, non-digital alternative, human review",
        "area_sqm_declared": 8047.225
      },
      "geometry": {
        "type": "Polygon",
        "coordinates": [
          [
            [
              116.34651749605787,
              39.95694903108703
            ],
            [
              116.34651000834582,
              39.95689855303255
            ],
            [
              116.34649760897459,
              39.95684905196783
            ],
            [
              116.34648041735691,
              39.95680100461517
            ],
            [
              116.34645859905747,
              39.95675487369685
            ],
            [
              116.3464323641984,
              39.95671110347883
            ],
            [
              116.34640196543575,
              39.95667011549224
            ],
            [
              116.34636769552623,
              39.956632304473786
            ],
            [
              116.34632988450777,
              39.95659803456425
            ],
            [
              116.34628889652117,
              39.956567635801605
            ],
            [
              116.34624512630316,
              39.95654140094254
            ],
            [
              116.34619899538484,
              39.9565195826431
            ],
            [
              116.34615094803218,
              39.95650239102542
            ],
            [
              116.34610144696745,
              39.95648999165419
            ],
            [
              116.34605096891298,
              39.956482503942134
            ],
            [
              116.346,
              39.95648
            ],
            [
              116.34594903108703,
              39.956482503942134
            ],
            [
              116.34589855303255,
              39.95648999165419
            ],
            [
              116.34584905196783,
              39.95650239102542
            ],
            [
              116.34580100461517,
              39.9565195826431
            ],
            [
              116.34575487369685,
              39.95654140094254
            ],
            [
              116.34571110347883,
              39.956567635801605
            ],
            [
              116.34567011549224,
              39.95659803456425
            ],
            [
              116.34563230447378,
              39.956632304473786
            ],
            [
              116.34559803456426,
              39.95667011549224
            ],
            [
              116.3455676358016,
              39.95671110347883
            ],
            [
              116.34554140094254,
              39.95675487369685
            ],
            [
              116.34551958264309,
              39.95680100461517
            ],
            [
              116.34550239102542,
              39.95684905196783
            ],
            [
              116.34548999165419,
              39.95689855303255
            ],
            [
              116.34548250394214,
              39.95694903108703
            ],
            [
              116.34548000000001,
              39.957
            ],
            [
              116.34548250394214,
              39.957050968912974
            ],
            [
              116.34548999165419,
              39.95710144696745
            ],
            [
              116.34550239102542,
              39.95715094803217
            ],
            [
              116.34551958264309,
              39.95719899538483
            ],
            [
              116.34554140094254,
              39.95724512630315
            ],
            [
              116.3455676358016,
              39.95728889652117
            ],
            [
              116.34559803456426,
              39.957329884507764
            ],
            [
              116.34563230447378,
              39.957367695526216
            ],
            [
              116.34567011549224,
              39.95740196543575
            ],
            [
              116.34571110347883,
              39.9574323641984
            ],
            [
              116.34575487369685,
              39.95745859905746
            ],
            [
              116.34580100461517,
              39.957480417356905
            ],
            [
              116.34584905196783,
              39.957497608974585
            ],
            [
              116.34589855303255,
              39.957510008345814
            ],
            [
              116.34594903108703,
              39.95751749605787
            ],
            [
              116.346,
              39.95752
            ],
            [
              116.34605096891298,
              39.95751749605787
            ],
            [
              116.34610144696745,
              39.957510008345814
            ],
            [
              116.34615094803218,
              39.957497608974585
            ],
            [
              116.34619899538484,
              39.957480417356905
            ],
            [
              116.34624512630316,
              39.95745859905746
            ],
            [
              116.34628889652117,
              39.9574323641984
            ],
            [
              116.34632988450777,
              39.95740196543575
            ],
            [
              116.34636769552623,
              39.957367695526216
            ],
            [
              116.34640196543575,
              39.957329884507764
            ],
            [
              116.3464323641984,
              39.95728889652117
            ],
            [
              116.34645859905747,
              39.95724512630315
            ],
            [
              116.34648041735691,
              39.95719899538483
            ],
            [
              116.34649760897459,
              39.95715094803217
            ],
            [
              116.34651000834582,
              39.95710144696745
            ],
            [
              116.34651749605787,
              39.957050968912974
            ],
            [
              116.34652,
              39.957
            ],
            [
              116.34651749605787,
              39.95694903108703
            ]
          ]
        ]
      }
    },
    {
      "type": "Feature",
      "id": "PUBLIC-004",
      "properties": {
        "id": "PUBLIC-004",
        "layer": "PUBLIC_SPACE",
        "source_type": "agent_generated_design",
        "confidence": "medium",
        "geometry_role": "design_proposal",
        "design_revision": "v1.1-visual-qa",
        "name_zh": "社区服务比较台",
        "design_role": "civic_deliberation_node",
        "access_principle": "public, non-digital alternative, human review",
        "area_sqm_declared": 10009.818
      },
      "geometry": {
        "type": "Polygon",
        "coordinates": [
          [
            [
              116.35107720714147,
              39.96794315005861
            ],
            [
              116.35106885546263,
              39.96788684761324
            ],
            [
              116.35105502539471,
              39.9678316348872
            ],
            [
              116.35103585012885,
              39.96777804360923
            ],
            [
              116.35101151433332,
              39.96772658989264
            ],
            [
              116.35098225237513,
              39.96767776926485
            ],
            [
              116.35094834606295,
              39.96763205189519
            ],
            [
              116.35091012193308,
              39.96758987806692
            ],
            [
              116.3508679481048,
              39.96755165393705
            ],
            [
              116.35082223073515,
              39.96751774762487
            ],
            [
              116.35077341010735,
              39.967488485666685
            ],
            [
              116.35072195639077,
              39.96746414987115
            ],
            [
              116.35066836511281,
              39.96744497460528
            ],
            [
              116.35061315238677,
              39.96743114453737
            ],
            [
              116.35055684994138,
              39.967422792858535
            ],
            [
              116.3505,
              39.967420000000004
            ],
            [
              116.35044315005861,
              39.967422792858535
            ],
            [
              116.35038684761322,
              39.96743114453737
            ],
            [
              116.35033163488718,
              39.96744497460528
            ],
            [
              116.35027804360922,
              39.96746414987115
            ],
            [
              116.35022658989264,
              39.967488485666685
            ],
            [
              116.35017776926485,
              39.96751774762487
            ],
            [
              116.35013205189519,
              39.96755165393705
            ],
            [
              116.35008987806691,
              39.96758987806692
            ],
            [
              116.35005165393704,
              39.96763205189519
            ],
            [
              116.35001774762486,
              39.96767776926485
            ],
            [
              116.34998848566667,
              39.96772658989264
            ],
            [
              116.34996414987114,
              39.96777804360923
            ],
            [
              116.34994497460528,
              39.9678316348872
            ],
            [
              116.34993114453736,
              39.96788684761324
            ],
            [
              116.34992279285852,
              39.96794315005861
            ],
            [
              116.34992,
              39.968
            ],
            [
              116.34992279285852,
              39.9680568499414
            ],
            [
              116.34993114453736,
              39.96811315238677
            ],
            [
              116.34994497460528,
              39.96816836511281
            ],
            [
              116.34996414987114,
              39.96822195639078
            ],
            [
              116.34998848566667,
              39.968273410107365
            ],
            [
              116.35001774762486,
              39.968322230735154
            ],
            [
              116.35005165393704,
              39.96836794810482
            ],
            [
              116.35008987806691,
              39.96841012193309
            ],
            [
              116.35013205189519,
              39.96844834606296
            ],
            [
              116.35017776926485,
              39.96848225237514
            ],
            [
              116.35022658989264,
              39.96851151433332
            ],
            [
              116.35027804360922,
              39.96853585012886
            ],
            [
              116.35033163488718,
              39.96855502539473
            ],
            [
              116.35038684761322,
              39.968568855462635
            ],
            [
              116.35044315005861,
              39.96857720714147
            ],
            [
              116.3505,
              39.96858
            ],
            [
              116.35055684994138,
              39.96857720714147
            ],
            [
              116.35061315238677,
              39.968568855462635
            ],
            [
              116.35066836511281,
              39.96855502539473
            ],
            [
              116.35072195639077,
              39.96853585012886
            ],
            [
              116.35077341010735,
              39.96851151433332
            ],
            [
              116.35082223073515,
              39.96848225237514
            ],
            [
              116.3508679481048,
              39.96844834606296
            ],
            [
              116.35091012193308,
              39.96841012193309
            ],
            [
              116.35094834606295,
              39.96836794810482
            ],
            [
              116.35098225237513,
              39.968322230735154
            ],
            [
              116.35101151433332,
              39.968273410107365
            ],
            [
              116.35103585012885,
              39.96822195639078
            ],
            [
              116.35105502539471,
              39.96816836511281
            ],
            [
              116.35106885546263,
              39.96811315238677
            ],
            [
              116.35107720714147,
              39.9680568499414
            ],
            [
              116.35108,
              39.968
            ],
            [
              116.35107720714147,
              39.96794315005861
            ]
          ]
        ]
      }
    },
    {
      "type": "Feature",
      "id": "PUBLIC-005",
      "properties": {
        "id": "PUBLIC-005",
        "layer": "PUBLIC_SPACE",
        "source_type": "agent_generated_design",
        "confidence": "medium",
        "geometry_role": "design_proposal",
        "design_revision": "v1.1-visual-qa",
        "name_zh": "原点开源议场",
        "design_role": "civic_deliberation_node",
        "access_principle": "public, non-digital alternative, human review",
        "area_sqm_declared": 12184.96
      },
      "geometry": {
        "type": "Polygon",
        "coordinates": [
          [
            [
              116.34813691822507,
              39.98493726903019
            ],
            [
              116.34812770257946,
              39.98487514219391
            ],
            [
              116.34811244181486,
              39.98481421780656
            ],
            [
              116.34809128290081,
              39.984755082603286
            ],
            [
              116.34806442960918,
              39.98469830608843
            ],
            [
              116.34803214055187,
              39.98464443505087
            ],
            [
              116.34799472669015,
              39.98459398829814
            ],
            [
              116.34795254833996,
              39.98454745166004
            ],
            [
              116.34790601170187,
              39.98450527330985
            ],
            [
              116.34785556494913,
              39.984467859448124
            ],
            [
              116.34780169391156,
              39.984435570390815
            ],
            [
              116.34774491739671,
              39.98440871709919
            ],
            [
              116.34768578219344,
              39.984387558185134
            ],
            [
              116.34762485780608,
              39.98437229742054
            ],
            [
              116.34756273096981,
              39.98436308177493
            ],
            [
              116.3475,
              39.98436
            ],
            [
              116.34743726903018,
              39.98436308177493
            ],
            [
              116.34737514219391,
              39.98437229742054
            ],
            [
              116.34731421780656,
              39.984387558185134
            ],
            [
              116.34725508260328,
              39.98440871709919
            ],
            [
              116.34719830608843,
              39.984435570390815
            ],
            [
              116.34714443505086,
              39.984467859448124
            ],
            [
              116.34709398829813,
              39.98450527330985
            ],
            [
              116.34704745166003,
              39.98454745166004
            ],
            [
              116.34700527330985,
              39.98459398829814
            ],
            [
              116.34696785944813,
              39.98464443505087
            ],
            [
              116.34693557039081,
              39.98469830608843
            ],
            [
              116.34690871709918,
              39.984755082603286
            ],
            [
              116.34688755818513,
              39.98481421780656
            ],
            [
              116.34687229742053,
              39.98487514219391
            ],
            [
              116.34686308177493,
              39.98493726903019
            ],
            [
              116.34685999999999,
              39.985
            ],
            [
              116.34686308177493,
              39.98506273096981
            ],
            [
              116.34687229742053,
              39.98512485780609
            ],
            [
              116.34688755818513,
              39.98518578219344
            ],
            [
              116.34690871709918,
              39.98524491739671
            ],
            [
              116.34693557039081,
              39.985301693911566
            ],
            [
              116.34696785944813,
              39.98535556494913
            ],
            [
              116.34700527330985,
              39.98540601170186
            ],
            [
              116.34704745166003,
              39.98545254833996
            ],
            [
              116.34709398829813,
              39.98549472669015
            ],
            [
              116.34714443505086,
              39.985532140551875
            ],
            [
              116.34719830608843,
              39.985564429609184
            ],
            [
              116.34725508260328,
              39.985591282900806
            ],
            [
              116.34731421780656,
              39.985612441814865
            ],
            [
              116.34737514219391,
              39.98562770257946
            ],
            [
              116.34743726903018,
              39.98563691822507
            ],
            [
              116.3475,
              39.98564
            ],
            [
              116.34756273096981,
              39.98563691822507
            ],
            [
              116.34762485780608,
              39.98562770257946
            ],
            [
              116.34768578219344,
              39.985612441814865
            ],
            [
              116.34774491739671,
              39.985591282900806
            ],
            [
              116.34780169391156,
              39.985564429609184
            ],
            [
              116.34785556494913,
              39.985532140551875
            ],
            [
              116.34790601170187,
              39.98549472669015
            ],
            [
              116.34795254833996,
              39.98545254833996
            ],
            [
              116.34799472669015,
              39.98540601170186
            ],
            [
              116.34803214055187,
              39.98535556494913
            ],
            [
              116.34806442960918,
              39.985301693911566
            ],
            [
              116.34809128290081,
              39.98524491739671
            ],
            [
              116.34811244181486,
              39.98518578219344
            ],
            [
              116.34812770257946,
              39.98512485780609
            ],
            [
              116.34813691822507,
              39.98506273096981
            ],
            [
              116.34814,
              39.985
            ],
            [
              116.34813691822507,
              39.98493726903019
            ]
          ]
        ]
      }
    },
    {
      "type": "Feature",
      "id": "PUBLIC-006",
      "properties": {
        "id": "PUBLIC-006",
        "layer": "PUBLIC_SPACE",
        "source_type": "agent_generated_design",
        "confidence": "medium",
        "geometry_role": "design_proposal",
        "design_revision": "v1.1-visual-qa",
        "name_zh": "模型说明书长廊",
        "design_role": "civic_deliberation_node",
        "access_principle": "public, non-digital alternative, human review",
        "area_sqm_declared": 8043.392
      },
      "geometry": {
        "type": "Polygon",
        "coordinates": [
          [
            [
              116.35151749605787,
              39.98994903108703
            ],
            [
              116.35151000834581,
              39.98989855303255
            ],
            [
              116.35149760897458,
              39.98984905196783
            ],
            [
              116.35148041735691,
              39.989801004615174
            ],
            [
              116.35145859905747,
              39.98975487369685
            ],
            [
              116.3514323641984,
              39.98971110347883
            ],
            [
              116.35140196543574,
              39.98967011549224
            ],
            [
              116.35136769552622,
              39.98963230447379
            ],
            [
              116.35132988450776,
              39.98959803456425
            ],
            [
              116.35128889652117,
              39.989567635801606
            ],
            [
              116.35124512630316,
              39.98954140094254
            ],
            [
              116.35119899538483,
              39.9895195826431
            ],
            [
              116.35115094803217,
              39.98950239102542
            ],
            [
              116.35110144696745,
              39.98948999165419
            ],
            [
              116.35105096891297,
              39.989482503942135
            ],
            [
              116.351,
              39.98948
            ],
            [
              116.35094903108703,
              39.989482503942135
            ],
            [
              116.35089855303255,
              39.98948999165419
            ],
            [
              116.35084905196783,
              39.98950239102542
            ],
            [
              116.35080100461516,
              39.9895195826431
            ],
            [
              116.35075487369684,
              39.98954140094254
            ],
            [
              116.35071110347883,
              39.989567635801606
            ],
            [
              116.35067011549224,
              39.98959803456425
            ],
            [
              116.35063230447378,
              39.98963230447379
            ],
            [
              116.35059803456426,
              39.98967011549224
            ],
            [
              116.3505676358016,
              39.98971110347883
            ],
            [
              116.35054140094253,
              39.98975487369685
            ],
            [
              116.35051958264309,
              39.989801004615174
            ],
            [
              116.35050239102542,
              39.98984905196783
            ],
            [
              116.35048999165419,
              39.98989855303255
            ],
            [
              116.35048250394213,
              39.98994903108703
            ],
            [
              116.35048,
              39.99
            ],
            [
              116.35048250394213,
              39.990050968912975
            ],
            [
              116.35048999165419,
              39.99010144696745
            ],
            [
              116.35050239102542,
              39.99015094803217
            ],
            [
              116.35051958264309,
              39.99019899538483
            ],
            [
              116.35054140094253,
              39.99024512630315
            ],
            [
              116.3505676358016,
              39.99028889652117
            ],
            [
              116.35059803456426,
              39.990329884507766
            ],
            [
              116.35063230447378,
              39.99036769552622
            ],
            [
              116.35067011549224,
              39.99040196543575
            ],
            [
              116.35071110347883,
              39.9904323641984
            ],
            [
              116.35075487369684,
              39.99045859905746
            ],
            [
              116.35080100461516,
              39.990480417356906
            ],
            [
              116.35084905196783,
              39.990497608974586
            ],
            [
              116.35089855303255,
              39.990510008345815
            ],
            [
              116.35094903108703,
              39.99051749605787
            ],
            [
              116.351,
              39.990520000000004
            ],
            [
              116.35105096891297,
              39.99051749605787
            ],
            [
              116.35110144696745,
              39.990510008345815
            ],
            [
              116.35115094803217,
              39.990497608974586
            ],
            [
              116.35119899538483,
              39.990480417356906
            ],
            [
              116.35124512630316,
              39.99045859905746
            ],
            [
              116.35128889652117,
              39.9904323641984
            ],
            [
              116.35132988450776,
              39.99040196543575
            ],
            [
              116.35136769552622,
              39.99036769552622
            ],
            [
              116.35140196543574,
              39.990329884507766
            ],
            [
              116.3514323641984,
              39.99028889652117
            ],
            [
              116.35145859905747,
              39.99024512630315
            ],
            [
              116.35148041735691,
              39.99019899538483
            ],
            [
              116.35149760897458,
              39.99015094803217
            ],
            [
              116.35151000834581,
              39.99010144696745
            ],
            [
              116.35151749605787,
              39.990050968912975
            ],
            [
              116.35152,
              39.99
            ],
            [
              116.35151749605787,
              39.98994903108703
            ]
          ]
        ]
      }
    },
    {
      "type": "Feature",
      "id": "PUBLIC-007",
      "properties": {
        "id": "PUBLIC-007",
        "layer": "PUBLIC_SPACE",
        "source_type": "agent_generated_design",
        "confidence": "medium",
        "geometry_role": "design_proposal",
        "design_revision": "v1.1-visual-qa",
        "name_zh": "教育共学工作台",
        "design_role": "civic_deliberation_node",
        "access_principle": "public, non-digital alternative, human review",
        "area_sqm_declared": 10005.434
      },
      "geometry": {
        "type": "Polygon",
        "coordinates": [
          [
            [
              116.34557720714147,
              39.998443150058606
            ],
            [
              116.34556885546263,
              39.99838684761323
            ],
            [
              116.34555502539472,
              39.998331634887194
            ],
            [
              116.34553585012885,
              39.998278043609226
            ],
            [
              116.34551151433332,
              39.99822658989264
            ],
            [
              116.34548225237513,
              39.99817776926485
            ],
            [
              116.34544834606295,
              39.99813205189518
            ],
            [
              116.34541012193309,
              39.998089878066914
            ],
            [
              116.34536794810481,
              39.99805165393705
            ],
            [
              116.34532223073515,
              39.998017747624864
            ],
            [
              116.34527341010735,
              39.99798848566668
            ],
            [
              116.34522195639077,
              39.997964149871144
            ],
            [
              116.34516836511281,
              39.997944974605275
            ],
            [
              116.34511315238677,
              39.99793114453737
            ],
            [
              116.34505684994139,
              39.99792279285853
            ],
            [
              116.345,
              39.99792
            ],
            [
              116.34494315005861,
              39.99792279285853
            ],
            [
              116.34488684761322,
              39.99793114453737
            ],
            [
              116.34483163488719,
              39.997944974605275
            ],
            [
              116.34477804360922,
              39.997964149871144
            ],
            [
              116.34472658989264,
              39.99798848566668
            ],
            [
              116.34467776926485,
              39.998017747624864
            ],
            [
              116.34463205189519,
              39.99805165393705
            ],
            [
              116.34458987806691,
              39.998089878066914
            ],
            [
              116.34455165393705,
              39.99813205189518
            ],
            [
              116.34451774762486,
              39.99817776926485
            ],
            [
              116.34448848566667,
              39.99822658989264
            ],
            [
              116.34446414987114,
              39.998278043609226
            ],
            [
              116.34444497460528,
              39.998331634887194
            ],
            [
              116.34443114453737,
              39.99838684761323
            ],
            [
              116.34442279285852,
              39.998443150058606
            ],
            [
              116.34442,
              39.9985
            ],
            [
              116.34442279285852,
              39.998556849941394
            ],
            [
              116.34443114453737,
              39.99861315238677
            ],
            [
              116.34444497460528,
              39.998668365112806
            ],
            [
              116.34446414987114,
              39.998721956390774
            ],
            [
              116.34448848566667,
              39.99877341010736
            ],
            [
              116.34451774762486,
              39.99882223073515
            ],
            [
              116.34455165393705,
              39.99886794810482
            ],
            [
              116.34458987806691,
              39.998910121933086
            ],
            [
              116.34463205189519,
              39.99894834606295
            ],
            [
              116.34467776926485,
              39.998982252375136
            ],
            [
              116.34472658989264,
              39.99901151433332
            ],
            [
              116.34477804360922,
              39.999035850128855
            ],
            [
              116.34483163488719,
              39.999055025394725
            ],
            [
              116.34488684761322,
              39.99906885546263
            ],
            [
              116.34494315005861,
              39.99907720714147
            ],
            [
              116.345,
              39.99908
            ],
            [
              116.34505684994139,
              39.99907720714147
            ],
            [
              116.34511315238677,
              39.99906885546263
            ],
            [
              116.34516836511281,
              39.999055025394725
            ],
            [
              116.34522195639077,
              39.999035850128855
            ],
            [
              116.34527341010735,
              39.99901151433332
            ],
            [
              116.34532223073515,
              39.998982252375136
            ],
            [
              116.34536794810481,
              39.99894834606295
            ],
            [
              116.34541012193309,
              39.998910121933086
            ],
            [
              116.34544834606295,
              39.99886794810482
            ],
            [
              116.34548225237513,
              39.99882223073515
            ],
            [
              116.34551151433332,
              39.99877341010736
            ],
            [
              116.34553585012885,
              39.998721956390774
            ],
            [
              116.34555502539472,
              39.998668365112806
            ],
            [
              116.34556885546263,
              39.99861315238677
            ],
            [
              116.34557720714147,
              39.998556849941394
            ],
            [
              116.34558,
              39.9985
            ],
            [
              116.34557720714147,
              39.998443150058606
            ]
          ]
        ]
      }
    },
    {
      "type": "Feature",
      "id": "PUBLIC-008",
      "properties": {
        "id": "PUBLIC-008",
        "layer": "PUBLIC_SPACE",
        "source_type": "agent_generated_design",
        "confidence": "medium",
        "geometry_role": "design_proposal",
        "design_revision": "v1.1-visual-qa",
        "name_zh": "清河环境证据窗",
        "design_role": "civic_deliberation_node",
        "access_principle": "public, non-digital alternative, human review",
        "area_sqm_declared": 12181.176
      },
      "geometry": {
        "type": "Polygon",
        "coordinates": [
          [
            [
              116.35113691822507,
              40.006437269030194
            ],
            [
              116.35112770257946,
              40.00637514219391
            ],
            [
              116.35111244181486,
              40.00631421780656
            ],
            [
              116.35109128290081,
              40.00625508260329
            ],
            [
              116.35106442960918,
              40.006198306088436
            ],
            [
              116.35103214055187,
              40.00614443505087
            ],
            [
              116.35099472669015,
              40.00609398829814
            ],
            [
              116.35095254833996,
              40.006047451660045
            ],
            [
              116.35090601170187,
              40.00600527330985
            ],
            [
              116.35085556494913,
              40.00596785944813
            ],
            [
              116.35080169391156,
              40.00593557039082
            ],
            [
              116.35074491739671,
              40.005908717099196
            ],
            [
              116.35068578219344,
              40.00588755818514
            ],
            [
              116.35062485780608,
              40.005872297420545
            ],
            [
              116.35056273096981,
              40.00586308177493
            ],
            [
              116.3505,
              40.005860000000006
            ],
            [
              116.35043726903018,
              40.00586308177493
            ],
            [
              116.35037514219391,
              40.005872297420545
            ],
            [
              116.35031421780656,
              40.00588755818514
            ],
            [
              116.35025508260328,
              40.005908717099196
            ],
            [
              116.35019830608843,
              40.00593557039082
            ],
            [
              116.35014443505086,
              40.00596785944813
            ],
            [
              116.35009398829813,
              40.00600527330985
            ],
            [
              116.35004745166003,
              40.006047451660045
            ],
            [
              116.35000527330985,
              40.00609398829814
            ],
            [
              116.34996785944813,
              40.00614443505087
            ],
            [
              116.34993557039081,
              40.006198306088436
            ],
            [
              116.34990871709918,
              40.00625508260329
            ],
            [
              116.34988755818513,
              40.00631421780656
            ],
            [
              116.34987229742053,
              40.00637514219391
            ],
            [
              116.34986308177493,
              40.006437269030194
            ],
            [
              116.34985999999999,
              40.0065
            ],
            [
              116.34986308177493,
              40.00656273096981
            ],
            [
              116.34987229742053,
              40.006624857806095
            ],
            [
              116.34988755818513,
              40.00668578219344
            ],
            [
              116.34990871709918,
              40.006744917396716
            ],
            [
              116.34993557039081,
              40.00680169391157
            ],
            [
              116.34996785944813,
              40.006855564949134
            ],
            [
              116.35000527330985,
              40.006906011701865
            ],
            [
              116.35004745166003,
              40.00695254833996
            ],
            [
              116.35009398829813,
              40.00699472669015
            ],
            [
              116.35014443505086,
              40.00703214055188
            ],
            [
              116.35019830608843,
              40.00706442960919
            ],
            [
              116.35025508260328,
              40.00709128290081
            ],
            [
              116.35031421780656,
              40.00711244181487
            ],
            [
              116.35037514219391,
              40.00712770257946
            ],
            [
              116.35043726903018,
              40.00713691822507
            ],
            [
              116.3505,
              40.00714
            ],
            [
              116.35056273096981,
              40.00713691822507
            ],
            [
              116.35062485780608,
              40.00712770257946
            ],
            [
              116.35068578219344,
              40.00711244181487
            ],
            [
              116.35074491739671,
              40.00709128290081
            ],
            [
              116.35080169391156,
              40.00706442960919
            ],
            [
              116.35085556494913,
              40.00703214055188
            ],
            [
              116.35090601170187,
              40.00699472669015
            ],
            [
              116.35095254833996,
              40.00695254833996
            ],
            [
              116.35099472669015,
              40.006906011701865
            ],
            [
              116.35103214055187,
              40.006855564949134
            ],
            [
              116.35106442960918,
              40.00680169391157
            ],
            [
              116.35109128290081,
              40.006744917396716
            ],
            [
              116.35111244181486,
              40.00668578219344
            ],
            [
              116.35112770257946,
              40.006624857806095
            ],
            [
              116.35113691822507,
              40.00656273096981
            ],
            [
              116.35114,
              40.0065
            ],
            [
              116.35113691822507,
              40.006437269030194
            ]
          ]
        ]
      }
    },
    {
      "type": "Feature",
      "id": "PUBLIC-009",
      "properties": {
        "id": "PUBLIC-009",
        "layer": "PUBLIC_SPACE",
        "source_type": "agent_generated_design",
        "confidence": "medium",
        "geometry_role": "design_proposal",
        "design_revision": "v1.1-visual-qa",
        "name_zh": "众智园验证议场",
        "design_role": "civic_deliberation_node",
        "access_principle": "public, non-digital alternative, human review",
        "area_sqm_declared": 8040.848
      },
      "geometry": {
        "type": "Polygon",
        "coordinates": [
          [
            [
              116.34771749605787,
              40.01194903108703
            ],
            [
              116.34771000834581,
              40.01189855303255
            ],
            [
              116.34769760897458,
              40.01184905196783
            ],
            [
              116.34768041735691,
              40.01180100461517
            ],
            [
              116.34765859905747,
              40.01175487369685
            ],
            [
              116.3476323641984,
              40.01171110347883
            ],
            [
              116.34760196543574,
              40.01167011549224
            ],
            [
              116.34756769552622,
              40.011632304473785
            ],
            [
              116.34752988450776,
              40.01159803456425
            ],
            [
              116.34748889652117,
              40.011567635801605
            ],
            [
              116.34744512630316,
              40.01154140094254
            ],
            [
              116.34739899538484,
              40.011519582643096
            ],
            [
              116.34735094803217,
              40.01150239102542
            ],
            [
              116.34730144696745,
              40.01148999165419
            ],
            [
              116.34725096891297,
              40.01148250394213
            ],
            [
              116.3472,
              40.01148
            ],
            [
              116.34714903108703,
              40.01148250394213
            ],
            [
              116.34709855303255,
              40.01148999165419
            ],
            [
              116.34704905196783,
              40.01150239102542
            ],
            [
              116.34700100461517,
              40.011519582643096
            ],
            [
              116.34695487369684,
              40.01154140094254
            ],
            [
              116.34691110347883,
              40.011567635801605
            ],
            [
              116.34687011549224,
              40.01159803456425
            ],
            [
              116.34683230447378,
              40.011632304473785
            ],
            [
              116.34679803456426,
              40.01167011549224
            ],
            [
              116.3467676358016,
              40.01171110347883
            ],
            [
              116.34674140094253,
              40.01175487369685
            ],
            [
              116.34671958264309,
              40.01180100461517
            ],
            [
              116.34670239102542,
              40.01184905196783
            ],
            [
              116.34668999165419,
              40.01189855303255
            ],
            [
              116.34668250394213,
              40.01194903108703
            ],
            [
              116.34668,
              40.012
            ],
            [
              116.34668250394213,
              40.01205096891297
            ],
            [
              116.34668999165419,
              40.01210144696745
            ],
            [
              116.34670239102542,
              40.01215094803217
            ],
            [
              116.34671958264309,
              40.01219899538483
            ],
            [
              116.34674140094253,
              40.01224512630315
            ],
            [
              116.3467676358016,
              40.01228889652117
            ],
            [
              116.34679803456426,
              40.012329884507764
            ],
            [
              116.34683230447378,
              40.012367695526216
            ],
            [
              116.34687011549224,
              40.01240196543575
            ],
            [
              116.34691110347883,
              40.012432364198396
            ],
            [
              116.34695487369684,
              40.01245859905746
            ],
            [
              116.34700100461517,
              40.012480417356905
            ],
            [
              116.34704905196783,
              40.012497608974584
            ],
            [
              116.34709855303255,
              40.012510008345814
            ],
            [
              116.34714903108703,
              40.01251749605787
            ],
            [
              116.3472,
              40.01252
            ],
            [
              116.34725096891297,
              40.01251749605787
            ],
            [
              116.34730144696745,
              40.012510008345814
            ],
            [
              116.34735094803217,
              40.012497608974584
            ],
            [
              116.34739899538484,
              40.012480417356905
            ],
            [
              116.34744512630316,
              40.01245859905746
            ],
            [
              116.34748889652117,
              40.012432364198396
            ],
            [
              116.34752988450776,
              40.01240196543575
            ],
            [
              116.34756769552622,
              40.012367695526216
            ],
            [
              116.34760196543574,
              40.012329884507764
            ],
            [
              116.3476323641984,
              40.01228889652117
            ],
            [
              116.34765859905747,
              40.01224512630315
            ],
            [
              116.34768041735691,
              40.01219899538483
            ],
            [
              116.34769760897458,
              40.01215094803217
            ],
            [
              116.34771000834581,
              40.01210144696745
            ],
            [
              116.34771749605787,
              40.01205096891297
            ],
            [
              116.34772,
              40.012
            ],
            [
              116.34771749605787,
              40.01194903108703
            ]
          ]
        ]
      }
    },
    {
      "type": "Feature",
      "id": "PUBLIC-010",
      "properties": {
        "id": "PUBLIC-010",
        "layer": "PUBLIC_SPACE",
        "source_type": "agent_generated_design",
        "confidence": "medium",
        "geometry_role": "design_proposal",
        "design_revision": "v1.1-visual-qa",
        "name_zh": "红队公开课",
        "design_role": "civic_deliberation_node",
        "access_principle": "public, non-digital alternative, human review",
        "area_sqm_declared": 10002.751
      },
      "geometry": {
        "type": "Polygon",
        "coordinates": [
          [
            [
              116.35157720714147,
              40.01694315005861
            ],
            [
              116.35156885546263,
              40.016886847613236
            ],
            [
              116.35155502539472,
              40.0168316348872
            ],
            [
              116.35153585012885,
              40.01677804360923
            ],
            [
              116.35151151433332,
              40.01672658989264
            ],
            [
              116.35148225237513,
              40.01667776926485
            ],
            [
              116.35144834606295,
              40.016632051895186
            ],
            [
              116.35141012193309,
              40.01658987806692
            ],
            [
              116.35136794810481,
              40.01655165393705
            ],
            [
              116.35132223073515,
              40.01651774762487
            ],
            [
              116.35127341010735,
              40.016488485666684
            ],
            [
              116.35122195639077,
              40.01646414987115
            ],
            [
              116.35116836511281,
              40.01644497460528
            ],
            [
              116.35111315238677,
              40.01643114453737
            ],
            [
              116.35105684994139,
              40.016422792858535
            ],
            [
              116.351,
              40.016420000000004
            ],
            [
              116.35094315005861,
              40.016422792858535
            ],
            [
              116.35088684761322,
              40.01643114453737
            ],
            [
              116.35083163488719,
              40.01644497460528
            ],
            [
              116.35077804360922,
              40.01646414987115
            ],
            [
              116.35072658989264,
              40.016488485666684
            ],
            [
              116.35067776926485,
              40.01651774762487
            ],
            [
              116.35063205189519,
              40.01655165393705
            ],
            [
              116.35058987806691,
              40.01658987806692
            ],
            [
              116.35055165393705,
              40.016632051895186
            ],
            [
              116.35051774762486,
              40.01667776926485
            ],
            [
              116.35048848566667,
              40.01672658989264
            ],
            [
              116.35046414987114,
              40.01677804360923
            ],
            [
              116.35044497460528,
              40.0168316348872
            ],
            [
              116.35043114453737,
              40.016886847613236
            ],
            [
              116.35042279285852,
              40.01694315005861
            ],
            [
              116.35042,
              40.017
            ],
            [
              116.35042279285852,
              40.0170568499414
            ],
            [
              116.35043114453737,
              40.01711315238677
            ],
            [
              116.35044497460528,
              40.01716836511281
            ],
            [
              116.35046414987114,
              40.01722195639078
            ],
            [
              116.35048848566667,
              40.017273410107364
            ],
            [
              116.35051774762486,
              40.017322230735154
            ],
            [
              116.35055165393705,
              40.01736794810482
            ],
            [
              116.35058987806691,
              40.01741012193309
            ],
            [
              116.35063205189519,
              40.017448346062956
            ],
            [
              116.35067776926485,
              40.01748225237514
            ],
            [
              116.35072658989264,
              40.01751151433332
            ],
            [
              116.35077804360922,
              40.01753585012886
            ],
            [
              116.35083163488719,
              40.01755502539473
            ],
            [
              116.35088684761322,
              40.017568855462635
            ],
            [
              116.35094315005861,
              40.01757720714147
            ],
            [
              116.351,
              40.01758
            ],
            [
              116.35105684994139,
              40.01757720714147
            ],
            [
              116.35111315238677,
              40.017568855462635
            ],
            [
              116.35116836511281,
              40.01755502539473
            ],
            [
              116.35122195639077,
              40.01753585012886
            ],
            [
              116.35127341010735,
              40.01751151433332
            ],
            [
              116.35132223073515,
              40.01748225237514
            ],
            [
              116.35136794810481,
              40.017448346062956
            ],
            [
              116.35141012193309,
              40.01741012193309
            ],
            [
              116.35144834606295,
              40.01736794810482
            ],
            [
              116.35148225237513,
              40.017322230735154
            ],
            [
              116.35151151433332,
              40.017273410107364
            ],
            [
              116.35153585012885,
              40.01722195639078
            ],
            [
              116.35155502539472,
              40.01716836511281
            ],
            [
              116.35156885546263,
              40.01711315238677
            ],
            [
              116.35157720714147,
              40.0170568499414
            ],
            [
              116.35158,
              40.017
            ],
            [
              116.35157720714147,
              40.01694315005861
            ]
          ]
        ]
      }
    },
    {
      "type": "Feature",
      "id": "PUBLIC-011",
      "properties": {
        "id": "PUBLIC-011",
        "layer": "PUBLIC_SPACE",
        "source_type": "agent_generated_design",
        "confidence": "medium",
        "geometry_role": "design_proposal",
        "design_revision": "v1.1-visual-qa",
        "name_zh": "标准共创桌",
        "design_role": "civic_deliberation_node",
        "access_principle": "public, non-digital alternative, human review",
        "area_sqm_declared": 12178.557
      },
      "geometry": {
        "type": "Polygon",
        "coordinates": [
          [
            [
              116.34563691822507,
              40.021437269030194
            ],
            [
              116.34562770257946,
              40.02137514219391
            ],
            [
              116.34561244181486,
              40.02131421780656
            ],
            [
              116.34559128290081,
              40.02125508260329
            ],
            [
              116.34556442960918,
              40.021198306088436
            ],
            [
              116.34553214055187,
              40.02114443505087
            ],
            [
              116.34549472669015,
              40.02109398829814
            ],
            [
              116.34545254833996,
              40.021047451660046
            ],
            [
              116.34540601170187,
              40.021005273309854
            ],
            [
              116.34535556494913,
              40.02096785944813
            ],
            [
              116.34530169391157,
              40.02093557039082
            ],
            [
              116.34524491739671,
              40.020908717099196
            ],
            [
              116.34518578219344,
              40.02088755818514
            ],
            [
              116.34512485780608,
              40.020872297420546
            ],
            [
              116.34506273096981,
              40.020863081774934
            ],
            [
              116.345,
              40.020860000000006
            ],
            [
              116.34493726903018,
              40.020863081774934
            ],
            [
              116.34487514219391,
              40.020872297420546
            ],
            [
              116.34481421780656,
              40.02088755818514
            ],
            [
              116.34475508260329,
              40.020908717099196
            ],
            [
              116.34469830608843,
              40.02093557039082
            ],
            [
              116.34464443505087,
              40.02096785944813
            ],
            [
              116.34459398829813,
              40.021005273309854
            ],
            [
              116.34454745166003,
              40.021047451660046
            ],
            [
              116.34450527330985,
              40.02109398829814
            ],
            [
              116.34446785944813,
              40.02114443505087
            ],
            [
              116.34443557039081,
              40.021198306088436
            ],
            [
              116.34440871709918,
              40.02125508260329
            ],
            [
              116.34438755818513,
              40.02131421780656
            ],
            [
              116.34437229742053,
              40.02137514219391
            ],
            [
              116.34436308177493,
              40.021437269030194
            ],
            [
              116.34436,
              40.0215
            ],
            [
              116.34436308177493,
              40.02156273096981
            ],
            [
              116.34437229742053,
              40.021624857806096
            ],
            [
              116.34438755818513,
              40.021685782193444
            ],
            [
              116.34440871709918,
              40.02174491739672
            ],
            [
              116.34443557039081,
              40.02180169391157
            ],
            [
              116.34446785944813,
              40.021855564949135
            ],
            [
              116.34450527330985,
              40.021906011701866
            ],
            [
              116.34454745166003,
              40.02195254833996
            ],
            [
              116.34459398829813,
              40.02199472669015
            ],
            [
              116.34464443505087,
              40.02203214055188
            ],
            [
              116.34469830608843,
              40.02206442960919
            ],
            [
              116.34475508260329,
              40.02209128290081
            ],
            [
              116.34481421780656,
              40.02211244181487
            ],
            [
              116.34487514219391,
              40.02212770257946
            ],
            [
              116.34493726903018,
              40.02213691822507
            ],
            [
              116.345,
              40.02214
            ],
            [
              116.34506273096981,
              40.02213691822507
            ],
            [
              116.34512485780608,
              40.02212770257946
            ],
            [
              116.34518578219344,
              40.02211244181487
            ],
            [
              116.34524491739671,
              40.02209128290081
            ],
            [
              116.34530169391157,
              40.02206442960919
            ],
            [
              116.34535556494913,
              40.02203214055188
            ],
            [
              116.34540601170187,
              40.02199472669015
            ],
            [
              116.34545254833996,
              40.02195254833996
            ],
            [
              116.34549472669015,
              40.021906011701866
            ],
            [
              116.34553214055187,
              40.021855564949135
            ],
            [
              116.34556442960918,
              40.02180169391157
            ],
            [
              116.34559128290081,
              40.02174491739672
            ],
            [
              116.34561244181486,
              40.021685782193444
            ],
            [
              116.34562770257946,
              40.021624857806096
            ],
            [
              116.34563691822507,
              40.02156273096981
            ],
            [
              116.34564,
              40.0215
            ],
            [
              116.34563691822507,
              40.021437269030194
            ]
          ]
        ]
      }
    },
    {
      "type": "Feature",
      "id": "PUBLIC-012",
      "properties": {
        "id": "PUBLIC-012",
        "layer": "PUBLIC_SPACE",
        "source_type": "agent_generated_design",
        "confidence": "medium",
        "geometry_role": "design_proposal",
        "design_revision": "v1.1-visual-qa",
        "name_zh": "百年贡献索引",
        "design_role": "civic_deliberation_node",
        "access_principle": "public, non-digital alternative, human review",
        "area_sqm_declared": 8039.454
      },
      "geometry": {
        "type": "Polygon",
        "coordinates": [
          [
            [
              116.34901749605787,
              40.02394903108703
            ],
            [
              116.34901000834581,
              40.02389855303255
            ],
            [
              116.34899760897459,
              40.02384905196783
            ],
            [
              116.34898041735691,
              40.02380100461517
            ],
            [
              116.34895859905747,
              40.02375487369685
            ],
            [
              116.3489323641984,
              40.02371110347883
            ],
            [
              116.34890196543574,
              40.02367011549224
            ],
            [
              116.34886769552622,
              40.023632304473786
            ],
            [
              116.34882988450777,
              40.02359803456425
            ],
            [
              116.34878889652117,
              40.023567635801605
            ],
            [
              116.34874512630316,
              40.02354140094254
            ],
            [
              116.34869899538484,
              40.0235195826431
            ],
            [
              116.34865094803217,
              40.02350239102542
            ],
            [
              116.34860144696745,
              40.02348999165419
            ],
            [
              116.34855096891297,
              40.023482503942134
            ],
            [
              116.3485,
              40.02348
            ],
            [
              116.34844903108703,
              40.023482503942134
            ],
            [
              116.34839855303255,
              40.02348999165419
            ],
            [
              116.34834905196783,
              40.02350239102542
            ],
            [
              116.34830100461517,
              40.0235195826431
            ],
            [
              116.34825487369685,
              40.02354140094254
            ],
            [
              116.34821110347883,
              40.023567635801605
            ],
            [
              116.34817011549224,
              40.02359803456425
            ],
            [
              116.34813230447378,
              40.023632304473786
            ],
            [
              116.34809803456426,
              40.02367011549224
            ],
            [
              116.3480676358016,
              40.02371110347883
            ],
            [
              116.34804140094253,
              40.02375487369685
            ],
            [
              116.34801958264309,
              40.02380100461517
            ],
            [
              116.34800239102542,
              40.02384905196783
            ],
            [
              116.34798999165419,
              40.02389855303255
            ],
            [
              116.34798250394213,
              40.02394903108703
            ],
            [
              116.34798,
              40.024
            ],
            [
              116.34798250394213,
              40.024050968912974
            ],
            [
              116.34798999165419,
              40.02410144696745
            ],
            [
              116.34800239102542,
              40.02415094803217
            ],
            [
              116.34801958264309,
              40.02419899538483
            ],
            [
              116.34804140094253,
              40.02424512630315
            ],
            [
              116.3480676358016,
              40.02428889652117
            ],
            [
              116.34809803456426,
              40.024329884507765
            ],
            [
              116.34813230447378,
              40.024367695526216
            ],
            [
              116.34817011549224,
              40.02440196543575
            ],
            [
              116.34821110347883,
              40.0244323641984
            ],
            [
              116.34825487369685,
              40.02445859905746
            ],
            [
              116.34830100461517,
              40.024480417356905
            ],
            [
              116.34834905196783,
              40.024497608974585
            ],
            [
              116.34839855303255,
              40.024510008345814
            ],
            [
              116.34844903108703,
              40.02451749605787
            ],
            [
              116.3485,
              40.02452
            ],
            [
              116.34855096891297,
              40.02451749605787
            ],
            [
              116.34860144696745,
              40.024510008345814
            ],
            [
              116.34865094803217,
              40.024497608974585
            ],
            [
              116.34869899538484,
              40.024480417356905
            ],
            [
              116.34874512630316,
              40.02445859905746
            ],
            [
              116.34878889652117,
              40.0244323641984
            ],
            [
              116.34882988450777,
              40.02440196543575
            ],
            [
              116.34886769552622,
              40.024367695526216
            ],
            [
              116.34890196543574,
              40.024329884507765
            ],
            [
              116.3489323641984,
              40.02428889652117
            ],
            [
              116.34895859905747,
              40.02424512630315
            ],
            [
              116.34898041735691,
              40.02419899538483
            ],
            [
              116.34899760897459,
              40.02415094803217
            ],
            [
              116.34901000834581,
              40.02410144696745
            ],
            [
              116.34901749605787,
              40.024050968912974
            ],
            [
              116.34902,
              40.024
            ],
            [
              116.34901749605787,
              40.02394903108703
            ]
          ]
        ]
      }
    }
  ]
}
