{
  "type": "FeatureCollection",
  "name": "green_space",
  "features": [
    {
      "type": "Feature",
      "id": "GREEN-001",
      "properties": {
        "id": "GREEN-001",
        "layer": "GREEN_SPACE",
        "source_type": "agent_generated_design",
        "confidence": "medium",
        "geometry_role": "design_proposal",
        "name_zh": "百年智轨蓝绿里程带",
        "land_use_code": "1401",
        "program": "heritage_green_spine",
        "area_sqm_declared": 1759123.704
      },
      "geometry": {
        "type": "Polygon",
        "coordinates": [
          [
            [
              116.34803560082361,
              39.94733825341595
            ],
            [
              116.34726016172019,
              39.93979510329497
            ],
            [
              116.347248725719,
              39.93972673111353
            ],
            [
              116.34722863864151,
              39.939659550999345
            ],
            [
              116.34720009396108,
              39.939594209929425
            ],
            [
              116.34716336659976,
              39.93953133716814
            ],
            [
              116.34711881027978,
              39.939471538207165
            ],
            [
              116.3470668541164,
              39.93941538893467
            ],
            [
              116.34700799848474,
              39.93936343008942
            ],
            [
              116.34694281020062,
              39.93931616205362
            ],
            [
              116.34687191706148,
              39.93927404003428
            ],
            [
              116.34679600180061,
              39.93923746967971
            ],
            [
              116.34671579551227,
              39.93920680317334
            ],
            [
              116.3466320706111,
              39.939182335842254
            ],
            [
              116.34654563339417,
              39.93916430331343
            ],
            [
              116.34645731627651,
              39.93915287924474
            ],
            [
              116.3463679697755,
              39.939148173652725
            ],
            [
              116.34627845432067,
              39.93915023185323
            ],
            [
              116.34618963196846,
              39.939159034025074
            ],
            [
              116.34610235810119,
              39.93917449540083
            ],
            [
              116.34601747319006,
              39.939196467083185
            ],
            [
              116.34593579470202,
              39.93922473747874
            ],
            [
              116.34585810922783,
              39.93925903433545
            ],
            [
              116.3457851649076,
              39.93929902736439
            ],
            [
              116.3457176642261,
              39.93934433142024
            ],
            [
              116.34565625724795,
              39.93939451021006
            ],
            [
              116.3456015353572,
              39.93944908049468
            ],
            [
              116.34555402556195,
              39.939507516742204
            ],
            [
              116.34551418541882,
              39.93956925618868
            ],
            [
              116.34548239862582,
              39.93963370425766
            ],
            [
              116.34545897132669,
              39.93970024028577
            ],
            [
              116.3454441291617,
              39.939768223499925
            ],
            [
              116.34543801509386,
              39.939836999188124
            ],
            [
              116.34544068803098,
              39.939905905004444
            ],
            [
              116.34620347797139,
              39.94732793575324
            ],
            [
              116.3404696871439,
              39.9472954586045
            ],
            [
              116.34044868321297,
              39.948051857772676
            ],
            [
              116.34628128206919,
              39.94808489331029
            ],
            [
              116.34768454923767,
              39.961734607088154
            ],
            [
              116.34572502816857,
              39.983564346623595
            ],
            [
              116.34572507095535,
              39.98366163559851
            ],
            [
              116.34600365866689,
              39.986733756074074
            ],
            [
              116.34045479665468,
              39.986702313720585
            ],
            [
              116.34050361751565,
              39.987459105090274
            ],
            [
              116.34607229995343,
              39.98749065707785
            ],
            [
              116.34762829369178,
              40.00464427205501
            ],
            [
              116.34678731900927,
              40.015636435493974
            ],
            [
              116.34216873104536,
              40.01561030969963
            ],
            [
              116.34220564394224,
              40.01636702911372
            ],
            [
              116.346729454965,
              40.01639261931236
            ],
            [
              116.3460261537715,
              40.02558209635257
            ],
            [
              116.34602528480391,
              40.02565102863184
            ],
            [
              116.34603320865311,
              40.0257196944625
            ],
            [
              116.34604984903426,
              40.025787432553535
            ],
            [
              116.34607504571603,
              40.02585359054658
            ],
            [
              116.34610855606311,
              40.02591753129879
            ],
            [
              116.34615005737177,
              40.02597863901895
            ],
            [
              116.34619914997707,
              40.026036325198184
            ],
            [
              116.34625536110121,
              40.02609003427792
            ],
            [
              116.34631814940632,
              40.02613924900059
            ],
            [
              116.34638691020743,
              40.02618349539148
            ],
            [
              116.34646098129609,
              40.026222347323724
            ],
            [
              116.34653964931782,
              40.02625543062252
            ],
            [
              116.34662215664251,
              40.02628242666906
            ],
            [
              116.34670770866143,
              40.026303075469265
            ],
            [
              116.34679548144027,
              40.02631717815798
            ],
            [
              116.34688462965508,
              40.026324598914385
            ],
            [
              116.34697429473405,
              40.02632526627018
            ],
            [
              116.34706361312695,
              40.026319173797965
            ],
            [
              116.34715172462279,
              40.02630638017312
            ],
            [
              116.34723778063494,
              40.026287008608705
            ],
            [
              116.34732095237456,
              40.02626124566877
            ],
            [
              116.34740043883302,
              40.026229339471286
            ],
            [
              116.34747547449699,
              40.02619159729849
            ],
            [
              116.34754533672113,
              40.02614838263729
            ],
            [
              116.34760935268807,
              40.026100111678254
            ],
            [
              116.3476669058883,
              40.026047249307155
            ],
            [
              116.34771744205746,
              40.025990304627456
            ],
            [
              116.34776047451393,
              40.025929826056974
            ],
            [
              116.3477955888457,
              40.025866396046
            ],
            [
              116.34782244690076,
              40.025800625467575
            ],
            [
              116.34784079004281,
              40.025733147734265
            ],
            [
              116.34785044164158,
              40.02566461269774
            ],
            [
              116.34855902253331,
              40.01640291861512
            ],
            [
              116.35474844461646,
              40.01643754696618
            ],
            [
              116.35470697099615,
              40.0156808058307
            ],
            [
              116.34861686640578,
              40.01564673372285
            ],
            [
              116.349455474475,
              40.00468167078167
            ],
            [
              116.34945483300635,
              40.00459152600111
            ],
            [
              116.34790410219051,
              39.98750097753044
            ],
            [
              116.35349748589276,
              39.98753231171916
            ],
            [
              116.35355799860153,
              39.986776135328725
            ],
            [
              116.34783544066298,
              39.9867440774504
            ],
            [
              116.34755137751704,
              39.98361250141844
            ],
            [
              116.34951061320032,
              39.96177945385319
            ],
            [
              116.34951276886375,
              39.96172754486374
            ],
            [
              116.349509934682,
              39.961675655188394
            ],
            [
              116.34811342514269,
              39.94809520990469
            ],
            [
              116.35530001506774,
              39.94813539724424
            ],
            [
              116.3553000144398,
              39.9473788781956
            ],
            [
              116.34803560082361,
              39.94733825341595
            ]
          ]
        ]
      }
    }
  ]
}
