{
  "type": "FeatureCollection",
  "name": "phasing",
  "features": [
    {
      "type": "Feature",
      "id": "PHASE-001",
      "properties": {
        "id": "PHASE-001",
        "layer": "PHASE",
        "source_type": "agent_generated_design",
        "confidence": "medium",
        "geometry_role": "design_proposal",
        "name_zh": "近期原型验证",
        "phase": "phase_1",
        "implementation_status": "conceptual_sequence",
        "area_sqm_declared": 4145970.725
      },
      "geometry": {
        "type": "Polygon",
        "coordinates": [
          [
            [
              116.34070000000001,
              39.93899999999999
            ],
            [
              116.33989166606412,
              39.968103687635235
            ],
            [
              116.3550449694261,
              39.968188989207874
            ],
            [
              116.3553,
              39.965
            ],
            [
              116.3553,
              39.939
            ],
            [
              116.34070000000001,
              39.93899999999999
            ]
          ]
        ]
      }
    },
    {
      "type": "Feature",
      "id": "PHASE-002",
      "properties": {
        "id": "PHASE-002",
        "layer": "PHASE",
        "source_type": "agent_generated_design",
        "confidence": "medium",
        "geometry_role": "design_proposal",
        "name_zh": "中期三庭联网",
        "phase": "phase_2",
        "implementation_status": "conceptual_sequence",
        "area_sqm_declared": 3801720.759
      },
      "geometry": {
        "type": "Polygon",
        "coordinates": [
          [
            [
              116.3533,
              39.989999999999995
            ],
            [
              116.3550449694261,
              39.968188989207874
            ],
            [
              116.33989166606412,
              39.968103687635235
            ],
            [
              116.3397,
              39.975
            ],
            [
              116.34113861172393,
              39.99730103000567
            ],
            [
              116.35370378140554,
              39.99737177997888
            ],
            [
              116.3533,
              39.989999999999995
            ]
          ]
        ]
      }
    },
    {
      "type": "Feature",
      "id": "PHASE-003",
      "properties": {
        "id": "PHASE-003",
        "layer": "PHASE",
        "source_type": "agent_generated_design",
        "confidence": "medium",
        "geometry_role": "design_proposal",
        "name_zh": "长期全球社区运营",
        "phase": "phase_3",
        "implementation_status": "conceptual_sequence",
        "area_sqm_declared": 3465133.902
      },
      "geometry": {
        "type": "Polygon",
        "coordinates": [
          [
            [
              116.3553,
              40.0265
            ],
            [
              116.35370378140554,
              39.99737177997888
            ],
            [
              116.34113861172393,
              39.99730103000567
            ],
            [
              116.34169999999999,
              40.00600000000001
            ],
            [
              116.34270000000001,
              40.0265
            ],
            [
              116.3553,
              40.0265
            ]
          ]
        ]
      }
    }
  ]
}
