{
  "type": "FeatureCollection",
  "metadata": {
    "generated_by": "provisional geometry generator (no official polygons supplied)",
    "crs": "EPSG:4326",
    "geometry_role": "provisional_constraint",
    "official_boundary": false,
    "boundary_precision": "provisional_rough",
    "note": "Provisional envelope only. Not an official redline. Recompute against EPSG:4548 when official data arrives."
  },
  "features": [
    {
      "type": "Feature",
      "id": "GREEN-001",
      "geometry": {
        "type": "Polygon",
        "coordinates": [
          [
            [
              116.34259999999999,
              39.9784
            ],
            [
              116.3462,
              39.9796
            ],
            [
              116.3494,
              39.995599999999996
            ],
            [
              116.3458,
              39.9944
            ],
            [
              116.34259999999999,
              39.9784
            ]
          ]
        ]
      },
      "properties": {
        "id": "GREEN-001",
        "layer": "green_space",
        "name": "京张铁路遗址公园带 (provisional)",
        "source_type": "provisional_generated",
        "confidence": "low",
        "geometry_role": "provisional_constraint",
        "official_boundary": false,
        "boundary_precision": "provisional_rough",
        "area_sqm_declared": 510452.1
      }
    }
  ]
}