{
  "type": "FeatureCollection",
  "metadata": {
    "generated_by": "provisional geometry generator (no official polygons supplied)",
    "crs": "EPSG:4326",
    "geometry_role": "provisional_constraint",
    "official_boundary": false,
    "boundary_precision": "provisional_rough",
    "note": "Provisional envelope only. Not an official redline. Recompute against EPSG:4548 when official data arrives."
  },
  "features": [
    {
      "type": "Feature",
      "id": "PUB-001",
      "geometry": {
        "type": "Polygon",
        "coordinates": [
          [
            [
              116.33,
              39.981399999999994
            ],
            [
              116.33319999999999,
              39.981399999999994
            ],
            [
              116.33319999999999,
              39.98299999999999
            ],
            [
              116.33,
              39.98299999999999
            ],
            [
              116.33,
              39.981399999999994
            ]
          ]
        ]
      },
      "properties": {
        "id": "PUB-001",
        "layer": "public_space",
        "name": "AI 公共客厅节点 1",
        "source_type": "provisional_generated",
        "confidence": "low",
        "geometry_role": "provisional_constraint",
        "official_boundary": false,
        "boundary_precision": "provisional_rough",
        "area_sqm_declared": 48614.5
      }
    },
    {
      "type": "Feature",
      "id": "PUB-002",
      "geometry": {
        "type": "Polygon",
        "coordinates": [
          [
            [
              116.336,
              39.983399999999996
            ],
            [
              116.33919999999999,
              39.983399999999996
            ],
            [
              116.33919999999999,
              39.98499999999999
            ],
            [
              116.336,
              39.98499999999999
            ],
            [
              116.336,
              39.983399999999996
            ]
          ]
        ]
      },
      "properties": {
        "id": "PUB-002",
        "layer": "public_space",
        "name": "AI 公共客厅节点 2",
        "source_type": "provisional_generated",
        "confidence": "low",
        "geometry_role": "provisional_constraint",
        "official_boundary": false,
        "boundary_precision": "provisional_rough",
        "area_sqm_declared": 48614.5
      }
    },
    {
      "type": "Feature",
      "id": "PUB-003",
      "geometry": {
        "type": "Polygon",
        "coordinates": [
          [
            [
              116.34079999999999,
              39.985
            ],
            [
              116.34399999999998,
              39.985
            ],
            [
              116.34399999999998,
              39.986599999999996
            ],
            [
              116.34079999999999,
              39.986599999999996
            ],
            [
              116.34079999999999,
              39.985
            ]
          ]
        ]
      },
      "properties": {
        "id": "PUB-003",
        "layer": "public_space",
        "name": "AI 公共客厅节点 3",
        "source_type": "provisional_generated",
        "confidence": "low",
        "geometry_role": "provisional_constraint",
        "official_boundary": false,
        "boundary_precision": "provisional_rough",
        "area_sqm_declared": 48614.5
      }
    },
    {
      "type": "Feature",
      "id": "PUB-004",
      "geometry": {
        "type": "Polygon",
        "coordinates": [
          [
            [
              116.34679999999999,
              39.987
            ],
            [
              116.34999999999998,
              39.987
            ],
            [
              116.34999999999998,
              39.9886
            ],
            [
              116.34679999999999,
              39.9886
            ],
            [
              116.34679999999999,
              39.987
            ]
          ]
        ]
      },
      "properties": {
        "id": "PUB-004",
        "layer": "public_space",
        "name": "AI 公共客厅节点 4",
        "source_type": "provisional_generated",
        "confidence": "low",
        "geometry_role": "provisional_constraint",
        "official_boundary": false,
        "boundary_precision": "provisional_rough",
        "area_sqm_declared": 48614.5
      }
    }
  ]
}