{
  "type": "FeatureCollection",
  "metadata": {
    "generated_by": "provisional geometry generator (no official polygons supplied)",
    "crs": "EPSG:4326",
    "geometry_role": "provisional_constraint",
    "official_boundary": false,
    "boundary_precision": "provisional_rough",
    "note": "Provisional envelope only. Not an official redline. Recompute against EPSG:4548 when official data arrives."
  },
  "features": [
    {
      "type": "Feature",
      "id": "ROAD-SPINE",
      "geometry": {
        "type": "LineString",
        "coordinates": [
          [
            116.32799999999999,
            39.980999999999995
          ],
          [
            116.33399999999999,
            39.983
          ],
          [
            116.33999999999999,
            39.98499999999999
          ],
          [
            116.34599999999999,
            39.986999999999995
          ],
          [
            116.35199999999999,
            39.989
          ]
        ]
      },
      "properties": {
        "id": "ROAD-SPINE",
        "layer": "roads",
        "name": "京张慢行创新主轴 (provisional)",
        "source_type": "provisional_generated",
        "confidence": "low",
        "geometry_role": "provisional_constraint",
        "official_boundary": false,
        "boundary_precision": "provisional_rough"
      }
    },
    {
      "type": "Feature",
      "id": "ROAD-CROSS-001",
      "geometry": {
        "type": "LineString",
        "coordinates": [
          [
            116.32799999999999,
            39.971666666666664
          ],
          [
            116.332,
            39.99166666666667
          ]
        ]
      },
      "properties": {
        "id": "ROAD-CROSS-001",
        "layer": "roads",
        "name": "组团联络街 1",
        "source_type": "provisional_generated",
        "confidence": "low",
        "geometry_role": "provisional_constraint",
        "official_boundary": false,
        "boundary_precision": "provisional_rough"
      }
    },
    {
      "type": "Feature",
      "id": "ROAD-CROSS-002",
      "geometry": {
        "type": "LineString",
        "coordinates": [
          [
            116.332,
            39.973
          ],
          [
            116.336,
            39.993
          ]
        ]
      },
      "properties": {
        "id": "ROAD-CROSS-002",
        "layer": "roads",
        "name": "组团联络街 2",
        "source_type": "provisional_generated",
        "confidence": "low",
        "geometry_role": "provisional_constraint",
        "official_boundary": false,
        "boundary_precision": "provisional_rough"
      }
    },
    {
      "type": "Feature",
      "id": "ROAD-CROSS-003",
      "geometry": {
        "type": "LineString",
        "coordinates": [
          [
            116.336,
            39.974333333333334
          ],
          [
            116.34,
            39.99433333333334
          ]
        ]
      },
      "properties": {
        "id": "ROAD-CROSS-003",
        "layer": "roads",
        "name": "组团联络街 3",
        "source_type": "provisional_generated",
        "confidence": "low",
        "geometry_role": "provisional_constraint",
        "official_boundary": false,
        "boundary_precision": "provisional_rough"
      }
    },
    {
      "type": "Feature",
      "id": "ROAD-CROSS-004",
      "geometry": {
        "type": "LineString",
        "coordinates": [
          [
            116.33999999999999,
            39.97566666666666
          ],
          [
            116.344,
            39.995666666666665
          ]
        ]
      },
      "properties": {
        "id": "ROAD-CROSS-004",
        "layer": "roads",
        "name": "组团联络街 4",
        "source_type": "provisional_generated",
        "confidence": "low",
        "geometry_role": "provisional_constraint",
        "official_boundary": false,
        "boundary_precision": "provisional_rough"
      }
    },
    {
      "type": "Feature",
      "id": "ROAD-CROSS-005",
      "geometry": {
        "type": "LineString",
        "coordinates": [
          [
            116.344,
            39.977
          ],
          [
            116.348,
            39.997
          ]
        ]
      },
      "properties": {
        "id": "ROAD-CROSS-005",
        "layer": "roads",
        "name": "组团联络街 5",
        "source_type": "provisional_generated",
        "confidence": "low",
        "geometry_role": "provisional_constraint",
        "official_boundary": false,
        "boundary_precision": "provisional_rough"
      }
    },
    {
      "type": "Feature",
      "id": "ROAD-CROSS-006",
      "geometry": {
        "type": "LineString",
        "coordinates": [
          [
            116.348,
            39.97833333333333
          ],
          [
            116.352,
            39.998333333333335
          ]
        ]
      },
      "properties": {
        "id": "ROAD-CROSS-006",
        "layer": "roads",
        "name": "组团联络街 6",
        "source_type": "provisional_generated",
        "confidence": "low",
        "geometry_role": "provisional_constraint",
        "official_boundary": false,
        "boundary_precision": "provisional_rough"
      }
    }
  ]
}