{
  "type": "FeatureCollection",
  "name": "CONSTRAINTS",
  "crs": {
    "type": "name",
    "properties": {
      "name": "EPSG:4326"
    }
  },
  "features": [
    {
      "type": "Feature",
      "id": "CONSTRAINT-001",
      "properties": {
        "id": "CONSTRAINT-001",
        "layer": "REGULATORY_CONTROL",
        "source_type": "agent_generated_design",
        "confidence": "low",
        "geometry_role": "provisional_constraint",
        "official_boundary": false,
        "area_sqm_declared": 153648.113,
        "source_refs": [
          "BOUNDARY-SOURCE",
          "SRC-BJ-JINGZHANG-PARK",
          "SRC-BJ-TSINGHUA-YUAN"
        ],
        "assumption_refs": [
          "A-PROVISIONAL-SITE-001",
          "A-OFFICIAL-POLYGON-MISSING-001",
          "A-PLANNING-CONTROLS-001"
        ],
        "provenance": {
          "source_refs": [
            "BOUNDARY-SOURCE",
            "SRC-BJ-JINGZHANG-PARK",
            "SRC-BJ-TSINGHUA-YUAN"
          ],
          "assumption_refs": [
            "A-PROVISIONAL-SITE-001",
            "A-OFFICIAL-POLYGON-MISSING-001",
            "A-PLANNING-CONTROLS-001"
          ]
        },
        "constraint_type": "heritage_and_boundary_review_corridor",
        "constraint_code": "HERITAGE_PROTECTION",
        "constraint_status": "provisional_only",
        "provisional_only": true,
        "control_value_status": "unknown",
        "proposal_ref": "CONSTRAINTS",
        "name_zh": "遗产叙事与边界复核廊道（临时）",
        "usage_note": "仅表达待核验的方案关注带，不代表文保线、红线或法定控制地带。"
      },
      "geometry": {
        "type": "Polygon",
        "coordinates": [
          [
            [
              116.3458,
              39.9445
            ],
            [
              116.3458,
              40.0255
            ],
            [
              116.346,
              40.0255
            ],
            [
              116.346,
              39.9445
            ],
            [
              116.3458,
              39.9445
            ]
          ]
        ]
      }
    }
  ]
}
