{
  "type": "FeatureCollection",
  "name": "green_network_provisional",
  "crs": {
    "type": "name",
    "properties": {
      "name": "EPSG:4326"
    }
  },
  "features": [
    {
      "type": "Feature",
      "id": "GREEN-001",
      "properties": {
        "id": "GREEN-001",
        "layer": "GREEN_SPACE",
        "source_type": "agent_generated_design",
        "confidence": "medium",
        "geometry_role": "design_proposal",
        "official_boundary": false,
        "area_sqm_declared": 1766421.318,
        "source_refs": [
          "SRC-BJ-JINGZHANG-PARK",
          "AGENT-TASKBOOK"
        ],
        "assumption_refs": [
          "A-PROVISIONAL-SITE-001",
          "A-OFFICIAL-POLYGON-MISSING-001",
          "A-DATA-BOUNDARY-001"
        ],
        "provenance": {
          "source_refs": [
            "SRC-BJ-JINGZHANG-PARK",
            "AGENT-TASKBOOK"
          ],
          "assumption_refs": [
            "A-PROVISIONAL-SITE-001",
            "A-OFFICIAL-POLYGON-MISSING-001",
            "A-DATA-BOUNDARY-001"
          ]
        },
        "network_role": "greenway_spine",
        "land_use_code": "1401",
        "name_zh": "京张记忆蓝绿主缝",
        "statutory_status": "provisional_green_network_proposal"
      },
      "geometry": {
        "type": "Polygon",
        "coordinates": [
          [
            [
              116.346,
              39.95
            ],
            [
              116.346,
              40.0245
            ],
            [
              116.3485,
              40.0245
            ],
            [
              116.3485,
              39.95
            ],
            [
              116.346,
              39.95
            ]
          ]
        ]
      }
    },
    {
      "type": "Feature",
      "id": "GREEN-002",
      "properties": {
        "id": "GREEN-002",
        "layer": "GREEN_SPACE",
        "source_type": "agent_generated_design",
        "confidence": "medium",
        "geometry_role": "design_proposal",
        "official_boundary": false,
        "area_sqm_declared": 154064.124,
        "source_refs": [
          "SRC-BJ-JINGZHANG-PARK",
          "AGENT-TASKBOOK"
        ],
        "assumption_refs": [
          "A-PROVISIONAL-SITE-001",
          "A-OFFICIAL-POLYGON-MISSING-001",
          "A-DATA-BOUNDARY-001"
        ],
        "provenance": {
          "source_refs": [
            "SRC-BJ-JINGZHANG-PARK",
            "AGENT-TASKBOOK"
          ],
          "assumption_refs": [
            "A-PROVISIONAL-SITE-001",
            "A-OFFICIAL-POLYGON-MISSING-001",
            "A-DATA-BOUNDARY-001"
          ]
        },
        "network_role": "park_interface",
        "land_use_code": "1401",
        "name_zh": "众智园清河开放接口",
        "statutory_status": "provisional_green_network_proposal"
      },
      "geometry": {
        "type": "Polygon",
        "coordinates": [
          [
            [
              116.343,
              40.008
            ],
            [
              116.343,
              40.0145
            ],
            [
              116.3455,
              40.0145
            ],
            [
              116.3455,
              40.008
            ],
            [
              116.343,
              40.008
            ]
          ]
        ]
      }
    },
    {
      "type": "Feature",
      "id": "GREEN-003",
      "properties": {
        "id": "GREEN-003",
        "layer": "GREEN_SPACE",
        "source_type": "agent_generated_design",
        "confidence": "medium",
        "geometry_role": "design_proposal",
        "official_boundary": false,
        "area_sqm_declared": 170814.62,
        "source_refs": [
          "SRC-BJ-JINGZHANG-PARK",
          "AGENT-TASKBOOK"
        ],
        "assumption_refs": [
          "A-PROVISIONAL-SITE-001",
          "A-OFFICIAL-POLYGON-MISSING-001",
          "A-DATA-BOUNDARY-001"
        ],
        "provenance": {
          "source_refs": [
            "SRC-BJ-JINGZHANG-PARK",
            "AGENT-TASKBOOK"
          ],
          "assumption_refs": [
            "A-PROVISIONAL-SITE-001",
            "A-OFFICIAL-POLYGON-MISSING-001",
            "A-DATA-BOUNDARY-001"
          ]
        },
        "network_role": "heritage_green",
        "land_use_code": "1401",
        "name_zh": "大钟寺遗产叙事绿地",
        "statutory_status": "provisional_green_network_proposal"
      },
      "geometry": {
        "type": "Polygon",
        "coordinates": [
          [
            [
              116.349,
              39.9445
            ],
            [
              116.349,
              39.9485
            ],
            [
              116.3535,
              39.9485
            ],
            [
              116.3535,
              39.9445
            ],
            [
              116.349,
              39.9445
            ]
          ]
        ]
      }
    }
  ]
}
