{
  "type": "FeatureCollection",
  "name": "land_use_shared_cut_residual_provisional",
  "crs": {
    "type": "name",
    "properties": {
      "name": "EPSG:4326"
    }
  },
  "features": [
    {
      "type": "Feature",
      "id": "LU-001",
      "properties": {
        "id": "LU-001",
        "layer": "LAND_USE",
        "source_type": "agent_generated_design",
        "confidence": "medium",
        "geometry_role": "design_proposal",
        "official_boundary": false,
        "area_sqm_declared": 1360257.526,
        "source_refs": [
          "SRC-BJ-THREE-ZONES"
        ],
        "assumption_refs": [
          "A-PROVISIONAL-SITE-001",
          "A-OFFICIAL-POLYGON-MISSING-001",
          "A-PLANNING-CONTROLS-001"
        ],
        "provenance": {
          "source_refs": [
            "SRC-BJ-THREE-ZONES"
          ],
          "assumption_refs": [
            "A-PROVISIONAL-SITE-001",
            "A-OFFICIAL-POLYGON-MISSING-001",
            "A-PLANNING-CONTROLS-001"
          ]
        },
        "use_category": "mixed_use",
        "use_code": "05",
        "land_use_code": "05",
        "name_zh": "混合服务织带",
        "category_label": "public_service/heritage",
        "topology_method": "shared_cut_residual_difference_with_numeric_guard",
        "statutory_status": "provisional_design_partition_only"
      },
      "geometry": {
        "type": "Polygon",
        "coordinates": [
          [
            [
              116.34382520804677,
              39.93900015466055
            ],
            [
              116.3429876141433,
              40.02650001528043
            ],
            [
              116.34462769098728,
              40.026500088773034
            ],
            [
              116.34546319410178,
              39.939000202072904
            ],
            [
              116.34382520804677,
              39.93900015466055
            ]
          ]
        ]
      }
    },
    {
      "type": "Feature",
      "id": "LU-002",
      "properties": {
        "id": "LU-002",
        "layer": "LAND_USE",
        "source_type": "agent_generated_design",
        "confidence": "medium",
        "geometry_role": "design_proposal",
        "official_boundary": false,
        "area_sqm_declared": 6296384.429,
        "source_refs": [
          "SRC-BJ-THREE-ZONES",
          "AGENT-TASKBOOK"
        ],
        "assumption_refs": [
          "A-PROVISIONAL-SITE-001",
          "A-OFFICIAL-POLYGON-MISSING-001",
          "A-PLANNING-CONTROLS-001"
        ],
        "provenance": {
          "source_refs": [
            "SRC-BJ-THREE-ZONES",
            "AGENT-TASKBOOK"
          ],
          "assumption_refs": [
            "A-PROVISIONAL-SITE-001",
            "A-OFFICIAL-POLYGON-MISSING-001",
            "A-PLANNING-CONTROLS-001"
          ]
        },
        "use_category": "innovation",
        "use_code": "0802",
        "land_use_code": "0802",
        "name_zh": "创新研发织带",
        "category_label": "public_service/heritage",
        "topology_method": "shared_cut_residual_difference_with_numeric_guard",
        "statutory_status": "provisional_design_partition_only"
      },
      "geometry": {
        "type": "Polygon",
        "coordinates": [
          [
            [
              116.34546319410201,
              39.939000202072904
            ],
            [
              116.34462769098754,
              40.02650008877304
            ],
            [
              116.35221931286264,
              40.02650012654309
            ],
            [
              116.3530451380734,
              39.93900012005262
            ],
            [
              116.34546319410201,
              39.939000202072904
            ]
          ]
        ]
      }
    },
    {
      "type": "Feature",
      "id": "LU-003",
      "properties": {
        "id": "LU-003",
        "layer": "LAND_USE",
        "source_type": "agent_generated_design",
        "confidence": "medium",
        "geometry_role": "design_proposal",
        "official_boundary": false,
        "area_sqm_declared": 2125718.888,
        "source_refs": [
          "SRC-BJ-JINGZHANG-PARK"
        ],
        "assumption_refs": [
          "A-PROVISIONAL-SITE-001",
          "A-OFFICIAL-POLYGON-MISSING-001",
          "A-PLANNING-CONTROLS-001"
        ],
        "provenance": {
          "source_refs": [
            "SRC-BJ-JINGZHANG-PARK"
          ],
          "assumption_refs": [
            "A-PROVISIONAL-SITE-001",
            "A-OFFICIAL-POLYGON-MISSING-001",
            "A-PLANNING-CONTROLS-001"
          ]
        },
        "use_category": "green_open_space",
        "use_code": "1401",
        "land_use_code": "1401",
        "name_zh": "蓝绿开放织带",
        "category_label": "public_service/heritage",
        "topology_method": "shared_cut_residual_difference_with_numeric_guard",
        "statutory_status": "provisional_design_partition_only"
      },
      "geometry": {
        "type": "Polygon",
        "coordinates": [
          [
            [
              116.34070000000014,
              39.93900000000009
            ],
            [
              116.33970000000012,
              39.97499999999999
            ],
            [
              116.34170000000012,
              40.006
            ],
            [
              116.34170000000012,
              40.006
            ],
            [
              116.34170000000012,
              40.00600000000001
            ],
            [
              116.34270000000011,
              40.02649999999991
            ],
            [
              116.34298761414307,
              40.02650001528043
            ],
            [
              116.34382520804654,
              39.93900015466055
            ],
            [
              116.34070000000014,
              39.93900000000009
            ]
          ]
        ]
      }
    },
    {
      "type": "Feature",
      "id": "LU-004",
      "properties": {
        "id": "LU-004",
        "layer": "LAND_USE",
        "source_type": "agent_generated_design",
        "confidence": "medium",
        "geometry_role": "design_proposal",
        "official_boundary": false,
        "area_sqm_declared": 1630464.542,
        "source_refs": [
          "SRC-BJ-JINGZHANG-PARK"
        ],
        "assumption_refs": [
          "A-PROVISIONAL-SITE-001",
          "A-OFFICIAL-POLYGON-MISSING-001",
          "A-PLANNING-CONTROLS-001"
        ],
        "provenance": {
          "source_refs": [
            "SRC-BJ-JINGZHANG-PARK"
          ],
          "assumption_refs": [
            "A-PROVISIONAL-SITE-001",
            "A-OFFICIAL-POLYGON-MISSING-001",
            "A-PLANNING-CONTROLS-001"
          ]
        },
        "use_category": "public_service",
        "use_code": "0803",
        "land_use_code": "0803",
        "name_zh": "公共服务与文化遗产接口",
        "category_label": "public_service/heritage",
        "heritage_overlay": "candidate_heritage_context",
        "topology_method": "shared_cut_residual_difference_with_numeric_guard",
        "statutory_status": "provisional_design_partition_only",
        "heritage_context_status": "unverified",
        "heritage_boundary_status": "not_provided",
        "usage_note": "官方文保控制边界未提供；仅作待核验的 heritage context，不代表官方文保事实。"
      },
      "geometry": {
        "type": "Polygon",
        "coordinates": [
          [
            [
              116.35304513807365,
              39.93900012005262
            ],
            [
              116.35221931286289,
              40.02650012654309
            ],
            [
              116.35529999999987,
              40.026499999999906
            ],
            [
              116.35329999999988,
              39.99000000000001
            ],
            [
              116.35329999999988,
              39.99000000000001
            ],
            [
              116.35329999999988,
              39.989999999999995
            ],
            [
              116.35329999999988,
              39.989999999999995
            ],
            [
              116.35529999999987,
              39.964999999999996
            ],
            [
              116.35529999999987,
              39.939000000000085
            ],
            [
              116.35304513807365,
              39.93900012005262
            ]
          ]
        ]
      }
    }
  ]
}
