{
  "type": "FeatureCollection",
  "name": "porous_ground_contract_unknown_constraints",
  "data_gap": {
    "status": "UNKNOWN",
    "declared_by": "Porous Ground Contract evidence review",
    "note_zh": "刻意保持空集合：无可引用的官方控规线、道路红线、权属、建筑现状、交通/设备声源、排放源、气象、树冠、消防、无障碍或真实运营边界。空集合优于编造。",
    "note_en": "Intentionally empty: no citable official controls, road redlines, title, building survey, traffic/equipment noise sources, emissions, weather, canopy, fire, accessibility or operating boundary. Empty is safer than fabrication."
  },
  "features": []
}
