{
  "type": "FeatureCollection",
  "name": "porous_ground_contract_passive_shade",
  "features": [
    {
      "type": "Feature",
      "id": "GREEN-PGC-01",
      "properties": {
        "id": "GREEN-PGC-01",
        "layer": "GREEN_SPACE",
        "source_type": "agent_generated_design",
        "confidence": "low",
        "geometry_role": "design_proposal",
        "conceptual_only": true,
        "official_boundary": false,
        "authorization_status": "UNKNOWN",
        "real_world_performance_claimed": false,
        "land_use_code": "1401",
        "name_zh": "零电可用公共阴影—静侧学习带",
        "name_en": "Zero-power public shade and quiet-side learning band",
        "area_sqm_declared": 342773.43,
        "usage_note": "表达连续阴影、普通种植维护和静侧关系的概念覆盖；不声明现状绿地、树冠、生态绩效或法定绿地比例。"
      },
      "geometry": {
        "type": "Polygon",
        "coordinates": [
          [
            [
              116.34724251862585,
              39.98850539066388
            ],
            [
              116.34824241249802,
              40.016755392009046
            ],
            [
              116.34824342264591,
              40.01676833387377
            ],
            [
              116.34824553149821,
              40.016781197231204
            ],
            [
              116.34824873002516,
              40.01679392699841
            ],
            [
              116.34825300453075,
              40.01680646866449
            ],
            [
              116.3482583367114,
              40.016818768524026
            ],
            [
              116.34826470373443,
              40.01683077390695
            ],
            [
              116.34827207833574,
              40.01684243340424
            ],
            [
              116.34828042893653,
              40.016853697087925
            ],
            [
              116.34828971977855,
              40.01686451672499
            ],
            [
              116.34829991107725,
              40.016874845983885
            ],
            [
              116.34831095919209,
              40.0168846406329
            ],
            [
              116.34832281681348,
              40.016893858729624
            ],
            [
              116.34833543316523,
              40.01690246080047
            ],
            [
              116.34834875422216,
              40.016910410009864
            ],
            [
              116.34836272294127,
              40.01691767231781
            ],
            [
              116.34837727950617,
              40.01692421662579
            ],
            [
              116.34839236158308,
              40.016930014909846
            ],
            [
              116.34840790458789,
              40.016935042340656
            ],
            [
              116.3484238419626,
              40.0169392773898
            ],
            [
              116.34844010546048,
              40.016942701922
            ],
            [
              116.34845662543817,
              40.01694530127277
            ],
            [
              116.34847333115404,
              40.016947064311175
            ],
            [
              116.34849015107103,
              40.01694798348757
            ],
            [
              116.34850701316306,
              40.01694805486584
            ],
            [
              116.34852384522343,
              40.016947278140336
            ],
            [
              116.34854057517407,
              40.01694565663714
            ],
            [
              116.34855713137414,
              40.01694319729982
            ],
            [
              116.34857344292686,
              40.01693991065973
            ],
            [
              116.34858943998313,
              40.016935810790876
            ],
            [
              116.34860505404059,
              40.01693091524967
            ],
            [
              116.34862021823702,
              40.016925244999726
            ],
            [
              116.34863486763655,
              40.01691882432211
            ],
            [
              116.34864893950792,
              40.016911680711345
            ],
            [
              116.34866237359299,
              40.0169038447577
            ],
            [
              116.34867511236472,
              40.016895350016156
            ],
            [
              116.34868710127363,
              40.01688623286273
            ],
            [
              116.34869828898141,
              40.016876532338706
            ],
            [
              116.34870862758063,
              40.016866289983454
            ],
            [
              116.34871807279995,
              40.01685554965656
            ],
            [
              116.34872658419374,
              40.01684435734996
            ],
            [
              116.3487341253152,
              40.01683276099103
            ],
            [
              116.34874066387243,
              40.01682081023738
            ],
            [
              116.34874617186681,
              40.01680855626411
            ],
            [
              116.34875062571273,
              40.01679605154479
            ],
            [
              116.34875400633861,
              40.01678334962668
            ],
            [
              116.34875629926877,
              40.016770504901416
            ],
            [
              116.34875749468506,
              40.016757572372164
            ],
            [
              116.34875758746917,
              40.01674460741805
            ],
            [
              116.3477576416153,
              39.98849913753966
            ],
            [
              116.34875737673211,
              39.94692366376947
            ],
            [
              116.34875713697276,
              39.94691069977673
            ],
            [
              116.34875579611384,
              39.94689777561018
            ],
            [
              116.3487533598977,
              39.946884946613025
            ],
            [
              116.34874983875719,
              39.94687226772095
            ],
            [
              116.34874524777092,
              39.94685979322682
            ],
            [
              116.34873960659878,
              39.9468475765482
            ],
            [
              116.34873293939762,
              39.94683566999866
            ],
            [
              116.34872527471782,
              39.94682412456372
            ],
            [
              116.3487166453811,
              39.946812989682485
            ],
            [
              116.34870708833992,
              39.946802313036024
            ],
            [
              116.34869664451922,
              39.94679214034315
            ],
            [
              116.34868535864118,
              39.946782515164706
            ],
            [
              116.34867327903373,
              39.9467734787169
            ],
            [
              116.34866045742362,
              39.94676506969497
            ],
            [
              116.34864694871482,
              39.946757324107416
            ],
            [
              116.34863281075357,
              39.94675027512177
            ],
            [
              116.34861810408049,
              39.946743952922695
            ],
            [
              116.34860289167155,
              39.946738384582616
            ],
            [
              116.34858723866816,
              39.94673359394577
            ],
            [
              116.3485712120985,
              39.946729601526314
            ],
            [
              116.34855488059027,
              39.9467264244202
            ],
            [
              116.34853831407696,
              39.94672407623219
            ],
            [
              116.34852158349835,
              39.94672256701749
            ],
            [
              116.34850476049674,
              39.94672190323873
            ],
            [
              116.34848791711013,
              39.94672208773831
            ],
            [
              116.34847112546394,
              39.94672311972613
            ],
            [
              116.34845445746195,
              39.94672499478312
            ],
            [
              116.34843798447848,
              39.94672770488005
            ],
            [
              116.34842177705279,
              39.94673123841197
            ],
            [
              116.34840590458707,
              39.946735580247875
            ],
            [
              116.34839043504915,
              39.94674071179551
            ],
            [
              116.34837543468153,
              39.94674661108093
            ],
            [
              116.34836096771772,
              39.94675325284274
            ],
            [
              116.34834709610718,
              39.94676060864004
            ],
            [
              116.34833387925003,
              39.94676864697443
            ],
            [
              116.34832137374278,
              39.946777333424755
            ],
            [
              116.34830963313578,
              39.94678663079453
            ],
            [
              116.3482987077042,
              39.94679649927124
            ],
            [
              116.34828864423248,
              39.94680689659678
            ],
            [
              116.3482794858141,
              39.94681777824842
            ],
            [
              116.34827127166713,
              39.946829097629504
            ],
            [
              116.34826403696606,
              39.946840806268874
            ],
            [
              116.34825781269139,
              39.946852854028556
            ],
            [
              116.34825262549688,
              39.94686518931833
            ],
            [
              116.34824849759542,
              39.94687775931677
            ],
            [
              116.34824544666381,
              39.94689051019732
            ],
            [
              116.34824348576723,
              39.946903387358816
            ],
            [
              116.34824262330314,
              39.94691633565937
            ],
            [
              116.34724246742694,
              39.98849633221074
            ],
            [
              116.34724251862585,
              39.98850539066388
            ]
          ]
        ]
      }
    },
    {
      "type": "Feature",
      "id": "GREEN-PGC-02",
      "properties": {
        "id": "GREEN-PGC-02",
        "layer": "GREEN_SPACE",
        "source_type": "agent_generated_design",
        "confidence": "low",
        "geometry_role": "design_proposal",
        "conceptual_only": true,
        "official_boundary": false,
        "authorization_status": "UNKNOWN",
        "real_world_performance_claimed": false,
        "land_use_code": "1401",
        "name_zh": "南部大钟寺类型：换乘—静侧遮荫缓冲原型",
        "name_en": "Southern Dazhongsi type: arrival to quiet side shade-buffer prototype",
        "area_id": "dazhongsi_ai_industry_cluster",
        "area_sqm_declared": 8311.725,
        "usage_note": "概念形态原型；真实植物、遮荫时段、雨洪、维护和环境效果均待授权现场资料与专业复核。"
      },
      "geometry": {
        "type": "Polygon",
        "coordinates": [
          [
            [
              116.34864515261891,
              39.94704216899226
            ],
            [
              116.34907504434169,
              39.947377909533934
            ],
            [
              116.34908170457028,
              39.94738278141172
            ],
            [
              116.34908876452967,
              39.947387307589466
            ],
            [
              116.34909619398796,
              39.94739146868532
            ],
            [
              116.34910396113101,
              39.94739524688076
            ],
            [
              116.34911203269868,
              39.9473986259969
            ],
            [
              116.34912037412714,
              39.94740159156379
            ],
            [
              116.34912894969705,
              39.94740413088237
            ],
            [
              116.34913772268631,
              39.94740623307884
            ],
            [
              116.34914665552748,
              39.9474078891512
            ],
            [
              116.34915570996864,
              39.9474090920079
            ],
            [
              116.34916484723709,
              39.94740983649808
            ],
            [
              116.34917402820544,
              39.947410119433705
            ],
            [
              116.35025049421897,
              39.947416157515796
            ],
            [
              116.35025967957192,
              39.947415977599995
            ],
            [
              116.35026882996975,
              39.94741533568836
            ],
            [
              116.35027790622887,
              39.94741423452971
            ],
            [
              116.3502868694832,
              39.947412678839385
            ],
            [
              116.35029568135049,
              39.94741067527911
            ],
            [
              116.35030430409685,
              39.94740823242847
            ],
            [
              116.35031270079823,
              39.9474053607482
            ],
            [
              116.35032083549852,
              39.94740207253529
            ],
            [
              116.35032867336353,
              39.94739838187046
            ],
            [
              116.35033618083033,
              39.94739430455775
            ],
            [
              116.35034332575066,
              39.94738985805691
            ],
            [
              116.35035007752884,
              39.94738506140859
            ],
            [
              116.35035640725275,
              39.94737993515288
            ],
            [
              116.3503622878175,
              39.94737450124124
            ],
            [
              116.35036769404162,
              39.94736878294258
            ],
            [
              116.35037260277497,
              39.94736280474362
            ],
            [
              116.3503769929976,
              39.94735659224397
            ],
            [
              116.35038084591001,
              39.947350172046576
            ],
            [
              116.35038414501358,
              39.947343571643756
            ],
            [
              116.3503868761812,
              39.94733681929953
            ],
            [
              116.3503890277177,
              39.947329943928466
            ],
            [
              116.35039059041003,
              39.94732297497203
            ],
            [
              116.35039155756671,
              39.94731594227236
            ],
            [
              116.3503919250464,
              39.947308875944586
            ],
            [
              116.35039169127566,
              39.947301806247815
            ],
            [
              116.35039085725572,
              39.94729476345557
            ],
            [
              116.35038942655821,
              39.94728777772617
            ],
            [
              116.3503874053097,
              39.947280878973515
            ],
            [
              116.35038480216572,
              39.94727409673914
            ],
            [
              116.35038162827344,
              39.94726746006559
            ],
            [
              116.35037789722412,
              39.94726099737202
            ],
            [
              116.35037362499482,
              39.94725473633267
            ],
            [
              116.35036882987997,
              39.9472487037582
            ],
            [
              116.35036353241307,
              39.94724292548093
            ],
            [
              116.35035775527876,
              39.947237426244314
            ],
            [
              116.35035152321568,
              39.947232229596835
            ],
            [
              116.35034486291046,
              39.94722735779126
            ],
            [
              116.35033780288357,
              39.94722283168935
            ],
            [
              116.35033037336709,
              39.94721867067249
            ],
            [
              116.35032260617527,
              39.947214892558726
            ],
            [
              116.35031453456838,
              39.947211513526454
            ],
            [
              116.35030619311016,
              39.94720854804516
            ],
            [
              116.35029761751987,
              39.94720600881344
            ],
            [
              116.35028884451944,
              39.947203906704594
            ],
            [
              116.35027991167597,
              39.947202250720174
            ],
            [
              116.35027085724116,
              39.947201047951296
            ],
            [
              116.35026171998729,
              39.947200303548385
            ],
            [
              116.35025253904132,
              39.947200020699086
            ],
            [
              116.34923423537437,
              39.94719430914051
            ],
            [
              116.34883367875219,
              39.94688147942065
            ],
            [
              116.34882779468929,
              39.94687714313526
            ],
            [
              116.34882159380092,
              39.94687307678973
            ],
            [
              116.34881509695965,
              39.94686929407159
            ],
            [
              116.34880832603427,
              39.94686580771369
            ],
            [
              116.34801627449202,
              39.94648309659795
            ],
            [
              116.34800787794345,
              39.94647934448347
            ],
            [
              116.34799916458189,
              39.94647604795194
            ],
            [
              116.34799017606971,
              39.94647322276548
            ],
            [
              116.34798095538483,
              39.94647088243251
            ],
            [
              116.34797154661533,
              39.94646903814316
            ],
            [
              116.34796199474849,
              39.94646769871575
            ],
            [
              116.34795234545592,
              39.94646687055468
            ],
            [
              116.34794264487493,
              39.9464665576197
            ],
            [
              116.3467491887546,
              39.946459838996915
            ],
            [
              116.34674000352418,
              39.94646001863558
            ],
            [
              116.34673085322457,
              39.94646066026952
            ],
            [
              116.34672177703857,
              39.94646176115121
            ],
            [
              116.34671281383164,
              39.9464633165665
            ],
            [
              116.34670400198544,
              39.94646531985491
            ],
            [
              116.3466953792335,
              39.946467762438054
            ],
            [
              116.34668698249959,
              39.94647063385651
            ],
            [
              116.34667884773974,
              39.946473921814444
            ],
            [
              116.3466710097881,
              39.94647761223237
            ],
            [
              116.34666350220787,
              39.946481689307426
            ],
            [
              116.34665635714767,
              39.94648613558101
            ],
            [
              116.34664960520365,
              39.94649093201357
            ],
            [
              116.34664327528866,
              39.94649605806611
            ],
            [
              116.34663739450839,
              39.946501491788155
            ],
            [
              116.34663198804526,
              39.946507209911765
            ],
            [
              116.34662707905063,
              39.94651318795108
            ],
            [
              116.34662268854568,
              39.94651940030733
            ],
            [
              116.34661883533128,
              39.94652582037828
            ],
            [
              116.34661553590765,
              39.946532420672256
            ],
            [
              116.34661280440352,
              39.946539172925846
            ],
            [
              116.34661065251578,
              39.94654604822491
            ],
            [
              116.34660908945929,
              39.94655301712838
            ],
            [
              116.34660812192755,
              39.94656004979439
            ],
            [
              116.34660775406375,
              39.94656711610798
            ],
            [
              116.34660798744339,
              39.94657418581011
            ],
            [
              116.34660882106725,
              39.94658122862724
            ],
            [
              116.34661025136585,
              39.94658821440095
            ],
            [
              116.3466122722146,
              39.94659511321704
            ],
            [
              116.34661487496004,
              39.94660189553369
            ],
            [
              116.34661804845702,
              39.94660853230798
            ],
            [
              116.34662177911628,
              39.946614995120136
            ],
            [
              116.34662605096264,
              39.94662125629536
            ],
            [
              116.34663084570359,
              39.94662728902229
            ],
            [
              116.34663614280731,
              39.94663306746781
            ],
            [
              116.3466419195909,
              39.94663856688765
            ],
            [
              116.3466481513173,
              39.94664376373239
            ],
            [
              116.34665481130135,
              39.94664863574826
            ],
            [
              116.34666187102397,
              39.94665316207248
            ],
            [
              116.34666930025428,
              39.946657323322555
            ],
            [
              116.34667706717914,
              39.946661101679325
            ],
            [
              116.3466851385393,
              39.94666448096321
            ],
            [
              116.34669347977186,
              39.946667446703536
            ],
            [
              116.34670205515827,
              39.946669986200476
            ],
            [
              116.34671082797728,
              39.94667208857952
            ],
            [
              116.34671976066214,
              39.94667374483786
            ],
            [
              116.3467288149616,
              39.94667494788314
            ],
            [
              116.34673795210357,
              39.946675692563694
            ],
            [
              116.34674713296121,
              39.94667597569068
            ],
            [
              116.34790072737643,
              39.94668247013731
            ],
            [
              116.34864515261891,
              39.94704216899226
            ]
          ]
        ]
      }
    },
    {
      "type": "Feature",
      "id": "GREEN-PGC-03",
      "properties": {
        "id": "GREEN-PGC-03",
        "layer": "GREEN_SPACE",
        "source_type": "agent_generated_design",
        "confidence": "low",
        "geometry_role": "design_proposal",
        "conceptual_only": true,
        "official_boundary": false,
        "authorization_status": "UNKNOWN",
        "real_world_performance_claimed": false,
        "land_use_code": "1401",
        "name_zh": "中部AI原点：穿行—停留遮荫缓冲原型",
        "name_en": "Central AI Origin: passage to dwell shade-buffer prototype",
        "area_id": "beijing_ai_origin_community",
        "area_sqm_declared": 8393.975,
        "usage_note": "概念形态原型；真实植物、遮荫时段、雨洪、维护和环境效果均待授权现场资料与专业复核。"
      },
      "geometry": {
        "type": "Polygon",
        "coordinates": [
          [
            [
              116.34714803509168,
              39.988593990794556
            ],
            [
              116.34715338952562,
              39.988599836609026
            ],
            [
              116.34715923484227,
              39.98860539724443
            ],
            [
              116.34716554544828,
              39.988610648353784
            ],
            [
              116.34717229371306,
              39.98861556694529
            ],
            [
              116.34717945008971,
              39.98862013148316
            ],
            [
              116.34718698324438,
              39.988624321981725
            ],
            [
              116.3471948601936,
              39.98862812009307
            ],
            [
              116.34720304644844,
              39.9886315091873
            ],
            [
              116.3481129973117,
              39.98897886298595
            ],
            [
              116.34812127308476,
              39.98898176911317
            ],
            [
              116.34812977601959,
              39.988984257174714
            ],
            [
              116.34813847046544,
              39.98898631673874
            ],
            [
              116.34814731996867,
              39.98898793917
            ],
            [
              116.34815628742545,
              39.98898911766604
            ],
            [
              116.34816533523744,
              39.988989847285694
            ],
            [
              116.34817442546934,
              39.98899012496987
            ],
            [
              116.34925154365166,
              39.98899617752485
            ],
            [
              116.34926073457474,
              39.98899599773416
            ],
            [
              116.34926989053206,
              39.98899535595053
            ],
            [
              116.34927897231618,
              39.98899425492221
            ],
            [
              116.34928794103737,
              39.988992699364
            ],
            [
              116.34929675829004,
              39.98899069593704
            ],
            [
              116.34930538631713,
              39.98898825322039
            ],
            [
              116.34931378817203,
              39.98898538167415
            ],
            [
              116.34932192787655,
              39.98898209359477
            ],
            [
              116.34932977057512,
              39.98897840306239
            ],
            [
              116.34933728268402,
              39.988974325880484
            ],
            [
              116.3493444320352,
              39.98896987950824
            ],
            [
              116.34935118801396,
              39.98896508298578
            ],
            [
              116.34935752169017,
              39.98895995685261
            ],
            [
              116.34936340594204,
              39.98895452305972
            ],
            [
              116.34936881557238,
              39.988948804875456
            ],
            [
              116.34937372741635,
              39.98894282678607
            ],
            [
              116.34937812044073,
              39.98893661439074
            ],
            [
              116.34938197583406,
              39.98893019429191
            ],
            [
              116.34938527708705,
              39.988923593981525
            ],
            [
              116.34938801006336,
              39.98891684172316
            ],
            [
              116.34939016306011,
              39.98890996643104
            ],
            [
              116.34939172685806,
              39.98890299754629
            ],
            [
              116.34939269476091,
              39.98889596491076
            ],
            [
              116.34939306262412,
              39.988888898639274
            ],
            [
              116.34939282887265,
              39.98888182899071
            ],
            [
              116.34939199450764,
              39.98887478623839
            ],
            [
              116.34939056310219,
              39.98886780054047
            ],
            [
              116.34938854078594,
              39.9888609018107
            ],
            [
              116.3493859362189,
              39.98885411959053
            ],
            [
              116.34938276055442,
              39.9888474829224
            ],
            [
              116.34937902739135,
              39.988841020225514
            ],
            [
              116.34937475271573,
              39.98883475917407
            ],
            [
              116.34936995483253,
              39.9888287265788
            ],
            [
              116.34936465428709,
              39.98882294827214
            ],
            [
              116.34935887377722,
              39.9888174489976
            ],
            [
              116.349352638056,
              39.98881225230388
            ],
            [
              116.34934597382579,
              39.98880738044394
            ],
            [
              116.34933890962377,
              39.98880285427976
            ],
            [
              116.34933147569998,
              39.988798693193
            ],
            [
              116.34932370388752,
              39.98879491500201
            ],
            [
              116.34931562746642,
              39.988791535885504
            ],
            [
              116.34930728102108,
              39.98878857031334
            ],
            [
              116.3492987002921,
              39.98878603098447
            ],
            [
              116.34928992202336,
              39.988783928772655
            ],
            [
              116.34928098380462,
              39.98878227267987
            ],
            [
              116.34927192391048,
              39.98878106979769
            ],
            [
              116.34926278113672,
              39.98878032527702
            ],
            [
              116.34925359463385,
              39.988780042306026
            ],
            [
              116.34820888219409,
              39.98877417201799
            ],
            [
              116.34736207580177,
              39.9884509225028
            ],
            [
              116.34705875546088,
              39.98809533444599
            ],
            [
              116.34705345712892,
              39.988089545756466
            ],
            [
              116.34704767745082,
              39.98808403632288
            ],
            [
              116.34704144122882,
              39.988078829787646
            ],
            [
              116.34703477522434,
              39.988073948493394
            ],
            [
              116.34702770804306,
              39.98806941338708
            ],
            [
              116.34702027001221,
              39.98806524393004
            ],
            [
              116.34701249305036,
              39.98806145801447
            ],
            [
              116.3470044105306,
              39.98805807188679
            ],
            [
              116.34699605713716,
              39.98805510007774
            ],
            [
              116.3469874687167,
              39.98805255534011
            ],
            [
              116.34697868212437,
              39.988050448594045
            ],
            [
              116.3469697350658,
              39.988048788880164
            ],
            [
              116.34696066593507,
              39.98804758332069
            ],
            [
              116.34695151365028,
              39.98804683708904
            ],
            [
              116.34694231748621,
              39.98804655338745
            ],
            [
              116.34574813834563,
              39.988039818683276
            ],
            [
              116.34573894754531,
              39.98803999819641
            ],
            [
              116.34572979168644,
              39.988040639701964
            ],
            [
              116.3457207099756,
              39.98804174045291
            ],
            [
              116.34571174130188,
              39.988043295735686
            ],
            [
              116.34570292407041,
              39.98804529889038
            ],
            [
              116.34569429603772,
              39.98804774133916
            ],
            [
              116.34568589415022,
              39.98805061262319
            ],
            [
              116.34567775438602,
              39.98805390044722
            ],
            [
              116.34566991160068,
              39.98805759073234
            ],
            [
              116.34566239937811,
              39.98806166767624
            ],
            [
              116.3456552498868,
              39.98806611382088
            ],
            [
              116.34564849374186,
              39.98807091012728
            ],
            [
              116.34564215987417,
              39.98807603605696
            ],
            [
              116.34563627540632,
              39.98808146965999
            ],
            [
              116.34563086553655,
              39.988087187668924
            ],
            [
              116.34562595343074,
              39.98809316559843
            ],
            [
              116.34562156012345,
              39.98809937785014
            ],
            [
              116.34561770442754,
              39.988105797822335
            ],
            [
              116.34561440285381,
              39.988112398023745
            ],
            [
              116.34561166954029,
              39.98811915019133
            ],
            [
              116.34560951619156,
              39.98812602541135
            ],
            [
              116.34560795202874,
              39.98813299424303
            ],
            [
              116.34560698375003,
              39.98814002684486
            ],
            [
              116.34560661550191,
              39.98814709310212
            ],
            [
              116.34560684886146,
              39.98815416275604
            ],
            [
              116.3456076828296,
              39.988161205533295
            ],
            [
              116.3456091138353,
              39.98816819127557
            ],
            [
              116.34561113575097,
              39.98817509006888
            ],
            [
              116.34561373991862,
              39.988181872371456
            ],
            [
              116.34561691518698,
              39.98818850914042
            ],
            [
              116.3456206479592,
              39.988194971956084
            ],
            [
              116.34562492225108,
              39.988201233143585
            ],
            [
              116.34562971975956,
              39.988207265891546
            ],
            [
              116.3456350199411,
              39.98821304436671
            ],
            [
              116.3456408000995,
              39.988218543824736
            ],
            [
              116.34564703548334,
              39.98822374071598
            ],
            [
              116.34565369939173,
              39.98822861278654
            ],
            [
              116.3456607632888,
              39.98823313917334
            ],
            [
              116.34566819692581,
              39.98823730049366
            ],
            [
              116.34567596847074,
              39.98824107892802
            ],
            [
              116.34568404464457,
              39.9882444582965
            ],
            [
              116.34569239086382,
              39.98824742412808
            ],
            [
              116.34570097138848,
              39.98824996372256
            ],
            [
              116.34570974947536,
              39.98825206620495
            ],
            [
              116.3457186875352,
              39.98825372257206
            ],
            [
              116.34572774729365,
              39.98825492573104
            ],
            [
              116.3457368899553,
              39.98825567052975
            ],
            [
              116.34574607636966,
              39.98825595377884
            ],
            [
              116.34686507016788,
              39.98826226485817
            ],
            [
              116.34714803509168,
              39.988593990794556
            ]
          ]
        ]
      }
    },
    {
      "type": "Feature",
      "id": "GREEN-PGC-04",
      "properties": {
        "id": "GREEN-PGC-04",
        "layer": "GREEN_SPACE",
        "source_type": "agent_generated_design",
        "confidence": "low",
        "geometry_role": "design_proposal",
        "conceptual_only": true,
        "official_boundary": false,
        "authorization_status": "UNKNOWN",
        "real_world_performance_claimed": false,
        "land_use_code": "1401",
        "name_zh": "北部众智园：源—公众遮荫缓冲原型",
        "name_en": "Northern Zhongzhiyuan: source to public shade-buffer prototype",
        "area_id": "zhongzhiyuan_ai_acceleration_area",
        "area_sqm_declared": 8311.725,
        "usage_note": "概念形态原型；真实植物、遮荫时段、雨洪、维护和环境效果均待授权现场资料与专业复核。"
      },
      "geometry": {
        "type": "Polygon",
        "coordinates": [
          [
            [
              116.34864529878102,
              40.016872168711565
            ],
            [
              116.34907562375257,
              40.01720790873244
            ],
            [
              116.34908229069804,
              40.01721278060608
            ],
            [
              116.34908935778621,
              40.017217306787096
            ],
            [
              116.34909679475469,
              40.01722146789362
            ],
            [
              116.34910456975722,
              40.01722524610707
            ],
            [
              116.34911264949992,
              40.01722862524851
            ],
            [
              116.34912099938401,
              40.017231590847864
            ],
            [
              116.34912958365388,
              40.01723413020592
            ],
            [
              116.34913836555025,
              40.017236232448724
            ],
            [
              116.34914730746753,
              40.0172378885741
            ],
            [
              116.34915637111487,
              40.01723909149023
            ],
            [
              116.3491655176802,
              40.017239836046016
            ],
            [
              116.34917470799634,
              40.01724011905315
            ],
            [
              116.35025227040647,
              40.017246165832724
            ],
            [
              116.35026146511801,
              40.01724598599379
            ],
            [
              116.35027062484517,
              40.01724534416432
            ],
            [
              116.35027971036445,
              40.01724424309273
            ],
            [
              116.35028868277004,
              40.01724268749399
            ],
            [
              116.3502975036406,
              40.017240684029446
            ],
            [
              116.3503061352036,
              40.0172382412783
            ],
            [
              116.35031454049727,
              40.0172353697008
            ],
            [
              116.35032268352867,
              40.01723208159355
            ],
            [
              116.35033052942804,
              40.01722839103678
            ],
            [
              116.35033804459789,
              40.01722431383408
            ],
            [
              116.35034519685708,
              40.01721986744474
            ],
            [
              116.3503519555785,
              40.01721507090894
            ],
            [
              116.35035829182024,
              40.01720994476626
            ],
            [
              116.35036417844955,
              40.01720451096767
            ],
            [
              116.35036959025902,
              40.01719879278165
            ],
            [
              116.3503745040745,
              40.01719281469438
            ],
            [
              116.35037889885433,
              40.01718660230504
            ],
            [
              116.35038275577953,
              40.017180182216066
            ],
            [
              116.35038605833427,
              40.01717358191932
            ],
            [
              116.35038879237659,
              40.01716682967837
            ],
            [
              116.3503909461991,
              40.01715995440736
            ],
            [
              116.35039251057896,
              40.017152985547284
            ],
            [
              116.35039347881741,
              40.017145952939934
            ],
            [
              116.3503938467685,
              40.01713888669999
            ],
            [
              116.35039361285682,
              40.017131817086195
            ],
            [
              116.35039277808414,
              40.01712477437172
            ],
            [
              116.35039134602532,
              40.01711778871454
            ],
            [
              116.35038932281282,
              40.017110890028306
            ],
            [
              116.3503867171105,
              40.0171041078542
            ],
            [
              116.35038354007656,
              40.01709747123451
            ],
            [
              116.35037980531564,
              40.01709100858819
            ],
            [
              116.35037552882075,
              40.017084747589266
            ],
            [
              116.35037072890456,
              40.017078715048214
            ],
            [
              116.35036542612116,
              40.01707293679726
            ],
            [
              116.35035964317794,
              40.01706743757967
            ],
            [
              116.35035340483839,
              40.01706224094389
            ],
            [
              116.35034673781603,
              40.01705736914265
            ],
            [
              116.3503396706601,
              40.01705284303766
            ],
            [
              116.35033223363322,
              40.01704868201033
            ],
            [
              116.35032445858178,
              40.01704490387875
            ],
            [
              116.35031637879973,
              40.017041524821394
            ],
            [
              116.35030802888578,
              40.01703855930785
            ],
            [
              116.35029944459544,
              40.017036020036855
            ],
            [
              116.35029066268784,
              40.0170339178819
            ],
            [
              116.3502817207683,
              40.017032261844676
            ],
            [
              116.3502726571273,
              40.01703105901659
            ],
            [
              116.3502635105766,
              40.01703031454827
            ],
            [
              116.35025432028296,
              40.01703003162768
            ],
            [
              116.34923497946653,
              40.0170243118422
            ],
            [
              116.34883401916031,
              40.0167114826091
            ],
            [
              116.34882812916389,
              40.016707146327725
            ],
            [
              116.34882192201559,
              40.01670307998039
            ],
            [
              116.348815418609,
              40.01669929725461
            ],
            [
              116.34880864083506,
              40.01669581088327
            ],
            [
              116.34801578782314,
              40.0163130978875
            ],
            [
              116.34800738277406,
              40.01630934574934
            ],
            [
              116.34799866058303,
              40.016306049186085
            ],
            [
              116.34798966295459,
              40.01630322395998
            ],
            [
              116.34798043291028,
              40.01630088357964
            ],
            [
              116.3479710145829,
              40.016299039235435
            ],
            [
              116.34796145300545,
              40.01629769974594
            ],
            [
              116.34795179389597,
              40.01629687151583
            ],
            [
              116.34794208343871,
              40.01629655850522
            ],
            [
              116.34674741180741,
              40.016289830179595
            ],
            [
              116.3467382172188,
              40.01629000974067
            ],
            [
              116.34672905759018,
              40.0162906512918
            ],
            [
              116.34671997214429,
              40.016291752085735
            ],
            [
              116.34671099978625,
              40.01629330740876
            ],
            [
              116.3467021789369,
              40.01629531060075
            ],
            [
              116.34669354736826,
              40.01629775308378
            ],
            [
              116.34668514204198,
              40.016300624398816
            ],
            [
              116.34667699895076,
              40.01630391225046
            ],
            [
              116.3466691529645,
              40.01630760255972
            ],
            [
              116.3466616376808,
              40.01631167952418
            ],
            [
              116.34665448528123,
              40.01631612568569
            ],
            [
              116.34664772639339,
              40.01632092200522
            ],
            [
              116.34664138995988,
              40.01632604794423
            ],
            [
              116.34663550311427,
              40.01633148155276
            ],
            [
              116.34663009106501,
              40.016337199563296
            ],
            [
              116.34662517698732,
              40.016343177490526
            ],
            [
              116.34662078192413,
              40.01634938973612
            ],
            [
              116.34661692469591,
              40.01635580969835
            ],
            [
              116.34661362182003,
              40.01636240988599
            ],
            [
              116.34661088743997,
              40.016369162036085
            ],
            [
              116.34660873326499,
              40.01637603723494
            ],
            [
              116.34660716851974,
              40.016383006041906
            ],
            [
              116.34660619990487,
              40.016390038615526
            ],
            [
              116.34660583156831,
              40.01639710484124
            ],
            [
              116.34660606508754,
              40.01640417446041
            ],
            [
              116.34660689946277,
              40.016411217199845
            ],
            [
              116.34660833112125,
              40.01641820290143
            ],
            [
              116.3466103539326,
              40.01642510165128
            ],
            [
              116.34661295923499,
              40.0164318839079
            ],
            [
              116.34661613587227,
              40.01643852062855
            ],
            [
              116.34661987024175,
              40.016444983393754
            ],
            [
              116.34662414635238,
              40.01645124452889
            ],
            [
              116.34662894589331,
              40.01645727722279
            ],
            [
              116.3466342483123,
              40.01646305564243
            ],
            [
              116.3466400309036,
              40.01646855504368
            ],
            [
              116.3466462689053,
              40.01647375187721
            ],
            [
              116.34665293560538,
              40.016478623889284
            ],
            [
              116.34666000245593,
              40.016483150217134
            ],
            [
              116.34666743919566,
              40.016487311478265
            ],
            [
              116.34667521397921,
              40.01649108985345
            ],
            [
              116.3466832935137,
              40.01649446916305
            ],
            [
              116.3466916432012,
              40.016497434936255
            ],
            [
              116.34670022728696,
              40.01649997447313
            ],
            [
              116.34670900901244,
              40.01650207689895
            ],
            [
              116.34671795077287,
              40.01650373321076
            ],
            [
              116.34672701427804,
              40.01650493631594
            ],
            [
              116.34673616071645,
              40.01650568106259
            ],
            [
              116.34674535092148,
              40.016505964261555
            ],
            [
              116.3479001202583,
              40.016512468087434
            ],
            [
              116.34864529878102,
              40.016872168711565
            ]
          ]
        ]
      }
    }
  ]
}
