{
  "type": "FeatureCollection",
  "name": "porous_ground_contract_courts_and_landmarks",
  "features": [
    {
      "type": "Feature",
      "id": "PUBLIC-PGC-01",
      "properties": {
        "id": "PUBLIC-PGC-01",
        "layer": "PUBLIC_SPACE",
        "source_type": "agent_generated_design",
        "confidence": "low",
        "geometry_role": "design_proposal",
        "conceptual_only": true,
        "official_boundary": false,
        "authorization_status": "UNKNOWN",
        "real_world_performance_claimed": false,
        "name_zh": "南部大钟寺类型：换乘—静侧错位缓冲庭",
        "name_en": "Southern Dazhongsi type: arrival to quiet side staggered buffer court",
        "area_id": "dazhongsi_ai_industry_cluster",
        "prototype_zone": "south",
        "area_sqm_declared": 7233.063,
        "usage_note": "概念公共空间原型；真实开放、权属、消防、无障碍、噪声和微气候均为 UNKNOWN。"
      },
      "geometry": {
        "type": "Polygon",
        "coordinates": [
          [
            [
              116.35011162198177,
              39.94712592640344
            ],
            [
              116.35010828602556,
              39.94709775522646
            ],
            [
              116.35010256336761,
              39.94706981229482
            ],
            [
              116.35009447851603,
              39.947042217264126
            ],
            [
              116.35008406609408,
              39.94701508830008
            ],
            [
              116.35007137069184,
              39.94698854157246
            ],
            [
              116.35005644667525,
              39.94696269075772
            ],
            [
              116.35003935795328,
              39.94693764655223
            ],
            [
              116.35002017770415,
              39.94691351619817
            ],
            [
              116.34999898806201,
              39.94689040302442
            ],
            [
              116.34997587976521,
              39.94686840600413
            ],
            [
              116.34995095176762,
              39.946847619330775
            ],
            [
              116.34992431081507,
              39.946828132014986
            ],
            [
              116.34989607098808,
              39.94681002750329
            ],
            [
              116.34986635321341,
              39.946793383320895
            ],
            [
              116.34983528474625,
              39.94677827073966
            ],
            [
              116.34980299862531,
              39.946764754472916
            ],
            [
              116.34976963310312,
              39.946752892398486
            ],
            [
              116.34973533105405,
              39.946742735310686
            ],
            [
              116.34970023936262,
              39.946734326702966
            ],
            [
              116.34966450829435,
              39.94672770258159
            ],
            [
              116.34962829085256,
              39.94672289131156
            ],
            [
              116.34959174212312,
              39.946719913495045
            ],
            [
              116.34955501861043,
              39.9467187818833
            ],
            [
              116.3495182775672,
              39.94671950132189
            ],
            [
              116.34948167632126,
              39.94672206873011
            ],
            [
              116.3494453716019,
              39.94672647311414
            ],
            [
              116.34940951886861,
              39.94673269561403
            ],
            [
              116.34937427164563,
              39.94674070958454
            ],
            [
              116.34933978086447,
              39.94675048070923
            ],
            [
              116.34930619421766,
              39.946761967147346
            ],
            [
              116.3492736555264,
              39.94677511971301
            ],
            [
              116.34924230412463,
              39.94678988208585
            ],
            [
              116.34921227426247,
              39.94680619105209
            ],
            [
              116.3491836945314,
              39.94682397677531
            ],
            [
              116.34915668731358,
              39.94684316309538
            ],
            [
              116.34913136825776,
              39.9468636678547
            ],
            [
              116.34910784578416,
              39.946885403249816
            ],
            [
              116.34908622062014,
              39.94690827620761
            ],
            [
              116.34906658536882,
              39.94693218878358
            ],
            [
              116.34904902411265,
              39.946957038581466
            ],
            [
              116.34903361205318,
              39.946982719191574
            ],
            [
              116.3490204151891,
              39.94700912064646
            ],
            [
              116.34900949003365,
              39.94703612989182
            ],
            [
              116.34900088337237,
              39.94706363127059
            ],
            [
              116.34899463206301,
              39.94709150701814
            ],
            [
              116.34899076287735,
              39.94711963776668
            ],
            [
              116.3489892923868,
              39.94714790305626
            ],
            [
              116.34899022689112,
              39.947176181850715
            ],
            [
              116.34899356239158,
              39.947204353055824
            ],
            [
              116.34899928460804,
              39.947232296038024
            ],
            [
              116.34900736903987,
              39.947259891140845
            ],
            [
              116.349017781071,
              39.94728702019733
            ],
            [
              116.34903047611802,
              39.947313567036154
            ],
            [
              116.34904539982107,
              39.9473394179789
            ],
            [
              116.34906248827659,
              39.94736446232708
            ],
            [
              116.34908166831086,
              39.94738859283601
            ],
            [
              116.34910285779344,
              39.94741170617421
            ],
            [
              116.34912596598872,
              39.9474337033657
            ],
            [
              116.3491508939445,
              39.94745449021404
            ],
            [
              116.34917753491575,
              39.94747397770567
            ],
            [
              116.3492057748216,
              39.947492082391015
            ],
            [
              116.34923549273394,
              39.94750872674187
            ],
            [
              116.3492665613952,
              39.94752383948356
            ],
            [
              116.34929884776338,
              39.94753735589994
            ],
            [
              116.34933221358172,
              39.94754921811068
            ],
            [
              116.34936651597073,
              39.947559375319095
            ],
            [
              116.34940160804017,
              39.947567784029715
            ],
            [
              116.34943733951795,
              39.94757440823446
            ],
            [
              116.34947355739381,
              39.94757921956695
            ],
            [
              116.34951010657441,
              39.9475821974239
            ],
            [
              116.34954683054768,
              39.94758332905343
            ],
            [
              116.349583572053,
              39.9475826096096
            ],
            [
              116.34962017375463,
              39.947580042173236
            ],
            [
              116.3496564789155,
              39.94757563773864
            ],
            [
              116.34969233206856,
              39.947569415166626
            ],
            [
              116.34972757968235,
              39.94756140110365
            ],
            [
              116.34976207081873,
              39.94755162986779
            ],
            [
              116.34979565777905,
              39.94754014330165
            ],
            [
              116.3498281967368,
              39.947526990593296
            ],
            [
              116.34985954835342,
              39.947512228065584
            ],
            [
              116.34988957837513,
              39.9474959189349
            ],
            [
              116.34991815820773,
              39.94747813304049
            ],
            [
              116.34994516546735,
              39.9474589465454
            ],
            [
              116.34997048450448,
              39.947438441610274
            ],
            [
              116.34999400689922,
              39.94741670604151
            ],
            [
              116.3500156319256,
              39.94739383291524
            ],
            [
              116.35003526698281,
              39.947369920178836
            ],
            [
              116.35005282799173,
              39.9473450702313
            ],
            [
              116.35006823975507,
              39.94731938948489
            ],
            [
              116.35008143627915,
              39.947292987909364
            ],
            [
              116.35009236105667,
              39.94726597856113
            ],
            [
              116.35010096730838,
              39.947238477098985
            ],
            [
              116.3501072181837,
              39.94721060128897
            ],
            [
              116.35011108691816,
              39.947182470499996
            ],
            [
              116.35011255694815,
              39.947154205192646
            ],
            [
              116.35011162198177,
              39.94712592640344
            ]
          ]
        ]
      }
    },
    {
      "type": "Feature",
      "id": "PUBLIC-PGC-04",
      "properties": {
        "id": "PUBLIC-PGC-04",
        "layer": "PUBLIC_SPACE",
        "source_type": "agent_generated_design",
        "confidence": "low",
        "geometry_role": "design_proposal",
        "conceptual_only": true,
        "official_boundary": false,
        "authorization_status": "UNKNOWN",
        "real_world_performance_claimed": false,
        "name_zh": "复原签收台",
        "name_en": "The Restore Table",
        "area_id": "dazhongsi_ai_industry_cluster",
        "pilgrimage_node": true,
        "prototype_zone": "south",
        "area_sqm_declared": 3629.089,
        "usage_note": "AI朝圣/公共学习节点的概念组件，不是确定选址、建筑物或活动承诺；内容以公开B1、AI消融、失败和恢复证据为主。"
      },
      "geometry": {
        "type": "Polygon",
        "coordinates": [
          [
            [
              116.34766388909483,
              39.94739061104073
            ],
            [
              116.34766152682943,
              39.947370656413725
            ],
            [
              116.34765747397087,
              39.947350863424774
            ],
            [
              116.34765174787556,
              39.94733131683033
            ],
            [
              116.34764437306482,
              39.94731210033169
            ],
            [
              116.34763538112001,
              39.94729329621657
            ],
            [
              116.34762481054719,
              39.94727498500669
            ],
            [
              116.34761270661211,
              39.94725724511304
            ],
            [
              116.3475991211466,
              39.94724015250016
            ],
            [
              116.34758411232639,
              39.947223780360694
            ],
            [
              116.34756774442204,
              39.94720819880215
            ],
            [
              116.34755008752377,
              39.94719347454661
            ],
            [
              116.34753121724124,
              39.94717967064501
            ],
            [
              116.34751121437989,
              39.947166846207224
            ],
            [
              116.34749016459476,
              39.9471550561489
            ],
            [
              116.34746815802383,
              39.947144350956364
            ],
            [
              116.34744528890195,
              39.947134776470335
            ],
            [
              116.34742165515746,
              39.94712637368978
            ],
            [
              116.34739735799273,
              39.947119178596225
            ],
            [
              116.3473725014508,
              39.947113221999814
            ],
            [
              116.34734719197007,
              39.94710852940724
            ],
            [
              116.34732153792824,
              39.94710512091268
            ],
            [
              116.34729564917846,
              39.9471030111116
            ],
            [
              116.34726963657891,
              39.94710220903835
            ],
            [
              116.34724361151802,
              39.94710271812752
            ],
            [
              116.34721768543766,
              39.94710453619908
            ],
            [
              116.34719196935575,
              39.947107655467875
            ],
            [
              116.34716657339114,
              39.9471120625769
            ],
            [
              116.34714160629184,
              39.94711773865445
            ],
            [
              116.34711717496963,
              39.94712465939498
            ],
            [
              116.34709338404195,
              39.947132795163185
            ],
            [
              116.34707033538426,
              39.94714211112088
            ],
            [
              116.34704812769354,
              39.947152567376136
            ],
            [
              116.34702685606587,
              39.947164119154195
            ],
            [
              116.34700661158912,
              39.94717671698907
            ],
            [
              116.3469874809529,
              39.94719030693546
            ],
            [
              116.34696954607742,
              39.94720483079969
            ],
            [
              116.34695288376261,
              39.947220226388914
            ],
            [
              116.34693756535931,
              39.947236427777405
            ],
            [
              116.34692365646373,
              39.94725336558888
            ],
            [
              116.34691121663653,
              39.94727096729354
            ],
            [
              116.3469002991477,
              39.947289157518675
            ],
            [
              116.34689095074864,
              39.947307858371374
            ],
            [
              116.34688321147168,
              39.94732698977211
            ],
            [
              116.3468771144588,
              39.94734646979764
            ],
            [
              116.34687268581969,
              39.94736621503173
            ],
            [
              116.34686994451984,
              39.94738614092248
            ],
            [
              116.34686890229933,
              39.947406162144304
            ],
            [
              116.34686956362269,
              39.9474261929633
            ],
            [
              116.34687192565943,
              39.947446147604424
            ],
            [
              116.34687597829645,
              39.94746594061872
            ],
            [
              116.34688170418116,
              39.947485487249345
            ],
            [
              116.34688907879578,
              39.947504703794344
            ],
            [
              116.34689807056235,
              39.94752350796525
            ],
            [
              116.34690864097787,
              39.947541819239376
            ],
            [
              116.34692074477921,
              39.94755955920459
            ],
            [
              116.3469343301369,
              39.94757665189518
            ],
            [
              116.34694933887704,
              39.947593024117154
            ],
            [
              116.34696570673044,
              39.94760860576159
            ],
            [
              116.34698336360772,
              39.94762333010493
            ],
            [
              116.34700223389959,
              39.947637134094755
            ],
            [
              116.34702223680048,
              39.947649958619664
            ],
            [
              116.34704328665467,
              39.94766174876251
            ],
            [
              116.347065293323,
              39.947672454035555
            ],
            [
              116.3470881625689,
              39.94768202859668
            ],
            [
              116.34711179646195,
              39.947690431445636
            ],
            [
              116.34713609379725,
              39.94769762659971
            ],
            [
              116.3471609505288,
              39.94770358324776
            ],
            [
              116.34718626021503,
              39.94770827588218
            ],
            [
              116.34721191447464,
              39.94771168440809
            ],
            [
              116.34723780345078,
              39.94771379422947
            ],
            [
              116.34726381628143,
              39.947714596311634
            ],
            [
              116.34728984157414,
              39.94771408721986
            ],
            [
              116.34731576788319,
              39.9477122691342
            ],
            [
              116.34734148418659,
              39.94770914984002
            ],
            [
              116.34736688036185,
              39.94770474269484
            ],
            [
              116.34739184765722,
              39.94769906657092
            ],
            [
              116.3474162791577,
              39.94769214577458
            ],
            [
              116.3474400702427,
              39.94768400994217
            ],
            [
              116.3474631190341,
              39.94767469391289
            ],
            [
              116.34748532683265,
              39.94766423757993
            ],
            [
              116.34750659854036,
              39.94765268571936
            ],
            [
              116.34752684306811,
              39.9476400877986
            ],
            [
              116.34754597372529,
              39.94762649776441
            ],
            [
              116.34756390859143,
              39.94761197381195
            ],
            [
              116.34758057086671,
              39.94759657813561
            ],
            [
              116.34759588920095,
              39.94758037666258
            ],
            [
              116.34760979799916,
              39.94756343877061
            ],
            [
              116.34762223770231,
              39.94754583699085
            ],
            [
              116.34763315504257,
              39.94752764669731
            ],
            [
              116.34764250327108,
              39.94750894578409
            ],
            [
              116.3476502423584,
              39.94748981433171
            ],
            [
              116.34765633916581,
              39.94747033426435
            ],
            [
              116.34766076758716,
              39.94745058899891
            ],
            [
              116.34766350866063,
              39.94743066308785
            ],
            [
              116.34766455065001,
              39.947410641857104
            ],
            [
              116.34766388909483,
              39.94739061104073
            ]
          ]
        ]
      }
    },
    {
      "type": "Feature",
      "id": "PUBLIC-PGC-02",
      "properties": {
        "id": "PUBLIC-PGC-02",
        "layer": "PUBLIC_SPACE",
        "source_type": "agent_generated_design",
        "confidence": "low",
        "geometry_role": "design_proposal",
        "conceptual_only": true,
        "official_boundary": false,
        "authorization_status": "UNKNOWN",
        "real_world_performance_claimed": false,
        "name_zh": "中部AI原点：穿行—停留错位缓冲庭",
        "name_en": "Central AI Origin: passage to dwell staggered buffer court",
        "area_id": "beijing_ai_origin_community",
        "prototype_zone": "middle",
        "area_sqm_declared": 7233.063,
        "usage_note": "概念公共空间原型；真实开放、权属、消防、无障碍、噪声和微气候均为 UNKNOWN。"
      },
      "geometry": {
        "type": "Polygon",
        "coordinates": [
          [
            [
              116.34700519801316,
              39.98869409287311
            ],
            [
              116.34700186154406,
              39.988665921802045
            ],
            [
              116.34699613691569,
              39.98863797889903
            ],
            [
              116.34698804864469,
              39.98861038381952
            ],
            [
              116.34697763136893,
              39.988583254729434
            ],
            [
              116.34696492969931,
              39.988556707799106
            ],
            [
              116.34694999802866,
              39.988530856705836
            ],
            [
              116.34693290029861,
              39.988505812147174
            ],
            [
              116.34691370972607,
              39.988481681366835
            ],
            [
              116.34689250848933,
              39.98845856769553
            ],
            [
              116.34686938737642,
              39.9884365701085
            ],
            [
              116.3468444453961,
              39.98841578280169
            ],
            [
              116.34681778935408,
              39.98839629478841
            ],
            [
              116.34678953339545,
              39.98837818951819
            ],
            [
              116.34675979851609,
              39.988361544519464
            ],
            [
              116.34672871204442,
              39.988346431067605
            ],
            [
              116.34669640709625,
              39.988332913879674
            ],
            [
              116.3466630220047,
              39.988321050837406
            ],
            [
              116.34662869972803,
              39.988310892739314
            ],
            [
              116.34659358723724,
              39.98830248308311
            ],
            [
              116.34655783488702,
              39.9882958578796
            ],
            [
              116.34652159577176,
              39.98829104549838
            ],
            [
              116.34648502507014,
              39.98828806654641
            ],
            [
              116.34644827938062,
              39.988286933779754
            ],
            [
              116.34641151605095,
              39.98828765204899
            ],
            [
              116.34637489250433,
              39.98829021827838
            ],
            [
              116.3463385655655,
              39.988294621479156
            ],
            [
              116.34630269078917,
              39.98830084279645
            ],
            [
              116.34626742179393,
              39.98830885559006
            ],
            [
              116.3462329096045,
              39.988318625548615
            ],
            [
              116.34619930200512,
              39.98833011083633
            ],
            [
              116.34616674290668,
              39.988343262272274
            ],
            [
              116.34613537173048,
              39.988358023540904
            ],
            [
              116.34610532281137,
              39.988374331433185
            ],
            [
              116.3460767248224,
              39.98839211611726
            ],
            [
              116.34604970022392,
              39.98841130143751
            ],
            [
              116.34602436473908,
              39.988431805240566
            ],
            [
              116.34600082685847,
              39.98845353972713
            ],
            [
              116.34597918737545,
              39.98847641182789
            ],
            [
              116.34595953895442,
              39.98850032360208
            ],
            [
              116.34594196573426,
              39.988525172656864
            ],
            [
              116.34592654296772,
              39.988550852585725
            ],
            [
              116.34591333669938,
              39.988577253424154
            ],
            [
              116.34590240348271,
              39.98860426212044
            ],
            [
              116.34589379013784,
              39.98863176301992
            ],
            [
              116.34588753355106,
              39.98865963836001
            ],
            [
              116.34588366051683,
              39.98868776877465
            ],
            [
              116.34588218762298,
              39.988716033805325
            ],
            [
              116.34588312117964,
              39.988744312416976
            ],
            [
              116.3458864571921,
              39.988772483516186
            ],
            [
              116.34589218137803,
              39.98880042646982
            ],
            [
              116.3459002692284,
              39.98882802162154
            ],
            [
              116.34591068611246,
              39.98885515080417
            ],
            [
              116.34592338742608,
              39.988881697845855
            ],
            [
              116.34593831878256,
              39.98890754906732
            ],
            [
              116.3459554162455,
              39.98893259376885
            ],
            [
              116.34597460660271,
              39.988956724704295
            ],
            [
              116.3459958076795,
              39.988979838540274
            ],
            [
              116.34601892869061,
              39.98900183629874
            ],
            [
              116.34604387062903,
              39.98902262378082
            ],
            [
              116.34607052668974,
              39.989042111970186
            ],
            [
              116.34609878272734,
              39.98906021741431
            ],
            [
              116.34612851774457,
              39.989076862581754
            ],
            [
              116.34615960441072,
              39.98909197619432
            ],
            [
              116.3461919096066,
              39.98910549353213
            ],
            [
              116.34622529499484,
              39.9891173567109
            ],
            [
              116.34625961761218,
              39.98912751492983
            ],
            [
              116.3462947304817,
              39.98913592468908
            ],
            [
              116.34633048324228,
              39.989142549976116
            ],
            [
              116.34636672279247,
              39.98914736241991
            ],
            [
              116.34640329394622,
              39.98915034141241
            ],
            [
              116.34644004009724,
              39.98915147419687
            ],
            [
              116.34647680388998,
              39.98915075592244
            ],
            [
              116.34651342789324,
              39.98914818966488
            ],
            [
              116.34654975527452,
              39.98914378641348
            ],
            [
              116.34658563047151,
              39.98913756502398
            ],
            [
              116.34662089985842,
              39.989129552137804
            ],
            [
              116.34665541240382,
              39.98911978206794
            ],
            [
              116.34668902031741,
              39.98910829665201
            ],
            [
              116.34672157968294,
              39.989095145073186
            ],
            [
              116.34675295107446,
              39.98908038364946
            ],
            [
              116.34678300015352,
              39.98906407559251
            ],
            [
              116.34681159824427,
              39.98904629073699
            ],
            [
              116.34683862288469,
              39.98902710524147
            ],
            [
              116.34686395835085,
              39.989006601262325
            ],
            [
              116.34688749615248,
              39.988984866601875
            ],
            [
              116.34690913549761,
              39.98896199433238
            ],
            [
              116.34692878372417,
              39.988938082397496
            ],
            [
              116.34694635669663,
              39.988913233192825
            ],
            [
              116.34696177916646,
              39.98888755312744
            ],
            [
              116.34697498509415,
              39.98886115216819
            ],
            [
              116.34698591793207,
              39.98883414336885
            ],
            [
              116.3469945308666,
              39.988806642385846
            ],
            [
              116.34700078701844,
              39.988778766983195
            ],
            [
              116.34700465960056,
              39.988750636528025
            ],
            [
              116.34700613203287,
              39.988722371479525
            ],
            [
              116.34700519801316,
              39.98869409287311
            ]
          ]
        ]
      }
    },
    {
      "type": "Feature",
      "id": "PUBLIC-PGC-05",
      "properties": {
        "id": "PUBLIC-PGC-05",
        "layer": "PUBLIC_SPACE",
        "source_type": "agent_generated_design",
        "confidence": "low",
        "geometry_role": "design_proposal",
        "conceptual_only": true,
        "official_boundary": false,
        "authorization_status": "UNKNOWN",
        "real_world_performance_claimed": false,
        "name_zh": "弯折庭",
        "name_en": "The Turn Court",
        "area_id": "beijing_ai_origin_community",
        "pilgrimage_node": true,
        "prototype_zone": "middle",
        "area_sqm_declared": 3629.089,
        "usage_note": "AI朝圣/公共学习节点的概念组件，不是确定选址、建筑物或活动承诺；内容以公开B1、AI消融、失败和恢复证据为主。"
      },
      "geometry": {
        "type": "Polygon",
        "coordinates": [
          [
            [
              116.34912201007253,
              39.98898442933886
            ],
            [
              116.34911964611456,
              39.98896447486936
            ],
            [
              116.34911559054024,
              39.98894468204983
            ],
            [
              116.34910986071763,
              39.98892513563598
            ],
            [
              116.34910248118403,
              39.98890591932837
            ],
            [
              116.34909348354104,
              39.988887115413846
            ],
            [
              116.34908290631905,
              39.9888688044133
            ],
            [
              116.34907079481238,
              39.98885106473685
            ],
            [
              116.34905720088521,
              39.98883397234804
            ],
            [
              116.34904218274953,
              39.9888176004386
            ],
            [
              116.34902580471581,
              39.988802019115056
            ],
            [
              116.34900813691762,
              39.98878729509845
            ],
            [
              116.34898925501133,
              39.98877349143873
            ],
            [
              116.34896923985212,
              39.98876066724471
            ],
            [
              116.34894817714772,
              39.988748877431
            ],
            [
              116.34892615709138,
              39.98873817248286
            ],
            [
              116.34890327397575,
              39.988728598239994
            ],
            [
              116.34887962578905,
              39.98872019570031
            ],
            [
              116.34885531379553,
              39.98871300084431
            ],
            [
              116.34883044210173,
              39.988707044481096
            ],
            [
              116.34880511721084,
              39.98870235211641
            ],
            [
              116.34877944756666,
              39.98869894384339
            ],
            [
              116.34875354308909,
              39.9886968342566
            ],
            [
              116.34872751470368,
              39.98869603238947
            ],
            [
              116.34870147386646,
              39.98869654167567
            ],
            [
              116.34867553208679,
              39.98869835993437
            ],
            [
              116.3486498004499,
              39.9887014793796
            ],
            [
              116.3486243891412,
              39.98870588665358
            ],
            [
              116.34859940697443,
              39.988711562883914
            ],
            [
              116.34857496092582,
              39.98871848376443
            ],
            [
              116.34855115567595,
              39.98872661965918
            ],
            [
              116.34852809316155,
              39.988735935729444
            ],
            [
              116.34850587213899,
              39.988746392082845
            ],
            [
              116.34848458776139,
              39.98875794394416
            ],
            [
              116.34846433117123,
              39.98877054184709
            ],
            [
              116.34844518911001,
              39.98878413184601
            ],
            [
              116.34842724354684,
              39.98879865574705
            ],
            [
              116.3484105713274,
              39.988814051357174
            ],
            [
              116.34839524384499,
              39.988830252750596
            ],
            [
              116.3483813267347,
              39.98884719055099
            ],
            [
              116.3483688795923,
              39.98886479222863
            ],
            [
              116.34835795571918,
              39.9888829824109
            ],
            [
              116.34834860189405,
              39.988901683205086
            ],
            [
              116.34834085817248,
              39.98892081453191
            ],
            [
              116.34833475771546,
              39.98894029446842
            ],
            [
              116.34833032664747,
              39.988960039598815
            ],
            [
              116.34832758394438,
              39.98897996537161
            ],
            [
              116.34832654135235,
              39.988999986461714
            ],
            [
              116.34832720333738,
              39.98902001713579
            ],
            [
              116.34832956706626,
              39.98903997161944
            ],
            [
              116.34833362241856,
              39.989059764464386
            ],
            [
              116.34833935203014,
              39.989079310914455
            ],
            [
              116.34834673136722,
              39.989098527268524
            ],
            [
              116.3483557288316,
              39.989117331238916
            ],
            [
              116.34836630589596,
              39.989135642303786
            ],
            [
              116.34837841726866,
              39.98915338205193
            ],
            [
              116.34839201108778,
              39.98917047451857
            ],
            [
              116.34840702914325,
              39.989186846510634
            ],
            [
              116.34842340712589,
              39.989202427920205
            ],
            [
              116.34844107490309,
              39.98921715202474
            ],
            [
              116.34845995681876,
              39.98923095577281
            ],
            [
              116.34847997201761,
              39.98924378005408
            ],
            [
              116.34850103479124,
              39.989255569952455
            ],
            [
              116.34852305494518,
              39.989266274981205
            ],
            [
              116.3485459381851,
              39.989275849299275
            ],
            [
              116.34856958652067,
              39.989284251907456
            ],
            [
              116.34859389868514,
              39.98929144682407
            ],
            [
              116.34861877056898,
              39.989297403238965
            ],
            [
              116.34864409566576,
              39.98930209564555
            ],
            [
              116.34866976552819,
              39.98930550394996
            ],
            [
              116.34869567023259,
              39.989307613557074
            ],
            [
              116.34872169884956,
              39.989308415433136
            ],
            [
              116.34874773991912,
              39.9893079061443
            ],
            [
              116.34877368192792,
              39.98930608787146
            ],
            [
              116.34879941378678,
              39.98930296840083
            ],
            [
              116.34882482530654,
              39.98929856109062
            ],
            [
              116.34884980766982,
              39.98929288481383
            ],
            [
              116.34887425389702,
              39.98928596387744
            ],
            [
              116.34889805930453,
              39.98927782791836
            ],
            [
              116.34892112195293,
              39.9892685117764
            ],
            [
              116.34894334308352,
              39.98925805534518
            ],
            [
              116.34896462754133,
              39.989246503401226
            ],
            [
              116.34898488418254,
              39.989233905412284
            ],
            [
              116.34900402626478,
              39.989220315325426
            ],
            [
              116.34902197181857,
              39.98920579133604
            ],
            [
              116.34903864399836,
              39.989190395638666
            ],
            [
              116.34905397141156,
              39.98917419416058
            ],
            [
              116.34906788842427,
              39.98915725627957
            ],
            [
              116.34908033544238,
              39.98913965452673
            ],
            [
              116.34909125916658,
              39.98912146427597
            ],
            [
              116.34910061282079,
              39.98910276342117
            ],
            [
              116.34910835635235,
              39.98908363204266
            ],
            [
              116.34911445660343,
              39.989064152064245
            ],
            [
              116.34911888745319,
              39.989044406902465
            ],
            [
              116.34912162992941,
              39.98902448110935
            ],
            [
              116.34912267228991,
              39.98900446001033
            ],
            [
              116.34912201007253,
              39.98898442933886
            ]
          ]
        ]
      }
    },
    {
      "type": "Feature",
      "id": "PUBLIC-PGC-03",
      "properties": {
        "id": "PUBLIC-PGC-03",
        "layer": "PUBLIC_SPACE",
        "source_type": "agent_generated_design",
        "confidence": "low",
        "geometry_role": "design_proposal",
        "conceptual_only": true,
        "official_boundary": false,
        "authorization_status": "UNKNOWN",
        "real_world_performance_claimed": false,
        "name_zh": "北部众智园：源—公众错位缓冲庭",
        "name_en": "Northern Zhongzhiyuan: source to public staggered buffer court",
        "area_id": "zhongzhiyuan_ai_acceleration_area",
        "prototype_zone": "north",
        "area_sqm_declared": 7233.063,
        "usage_note": "概念公共空间原型；真实开放、权属、消防、无障碍、噪声和微气候均为 UNKNOWN。"
      },
      "geometry": {
        "type": "Polygon",
        "coordinates": [
          [
            [
              116.35011326070645,
              40.016955937075004
            ],
            [
              116.35010992173977,
              40.01692776620911
            ],
            [
              116.35010419363712,
              40.01689982356638
            ],
            [
              116.35009610092997,
              40.016872228801205
            ],
            [
              116.35008567827526,
              40.016845100078136
            ],
            [
              116.3500729703069,
              40.016818553565926
            ],
            [
              116.3500580314446,
              40.01679270294009
            ],
            [
              116.35004092566098,
              40.01676765889618
            ],
            [
              116.35002172620725,
              40.016743528675704
            ],
            [
              116.35000051529984,
              40.016720415606976
            ],
            [
              116.34997738376818,
              40.016698418662656
            ],
            [
              116.34995243066561,
              40.01667763203591
            ],
            [
              116.34992576284547,
              40.01665814473717
            ],
            [
              116.34989749450332,
              40.0166400402129
            ],
            [
              116.34986774668806,
              40.01662339598833
            ],
            [
              116.34983664678349,
              40.0166082833355
            ],
            [
              116.34980432796293,
              40.01659476696809
            ],
            [
              116.34977092861891,
              40.016582904764306
            ],
            [
              116.34973659177071,
              40.016572747519014
            ],
            [
              116.34970146445174,
              40.01656433872636
            ],
            [
              116.3496656970802,
              40.01655771439339
            ],
            [
              116.34962944281476,
              40.016552902886005
            ],
            [
              116.349592856899,
              40.01654992480741
            ],
            [
              116.3495560959965,
              40.01654879290993
            ],
            [
              116.34951931752016,
              40.016549512040406
            ],
            [
              116.34948267895805,
              40.016552079119464
            ],
            [
              116.34944633719921,
              40.01655648315463
            ],
            [
              116.34941044786176,
              40.016562705287505
            ],
            [
              116.3493751646267,
              40.01657071887439
            ],
            [
              116.34934063857968,
              40.016580489600514
            ],
            [
              116.34930701756429,
              40.016591975626795
            ],
            [
              116.34927444554886,
              40.01660512776916
            ],
            [
              116.34924306201003,
              40.01661988970903
            ],
            [
              116.34921300133556,
              40.0166361982345
            ],
            [
              116.34918439224884,
              40.01665398351103
            ],
            [
              116.34915735725772,
              40.01667316938039
            ],
            [
              116.34913201212994,
              40.016693673686945
            ],
            [
              116.34910846539728,
              40.016715408629175
            ],
            [
              116.34908681789105,
              40.016738281135865
            ],
            [
              116.34906716231004,
              40.016762193264505
            ],
            [
              116.34904958282368,
              40.016787042620706
            ],
            [
              116.3490341547117,
              40.01681272279671
            ],
            [
              116.34902094404151,
              40.01683912382692
            ],
            [
              116.34901000738542,
              40.01686613265882
            ],
            [
              116.3490013915783,
              40.01689363363713
            ],
            [
              116.34899513351698,
              40.01692150899899
            ],
            [
              116.34899126000225,
              40.016949639378204
            ],
            [
              116.34898978762399,
              40.01697790431643
            ],
            [
              116.34899072269013,
              40.017006182778985
            ],
            [
              116.34899406119955,
              40.01703435367308
            ],
            [
              116.34899978885916,
              40.017062296366504
            ],
            [
              116.34900788114507,
              40.017089891203995
            ],
            [
              116.34901830340759,
              40.01711702001975
            ],
            [
              116.34903101101953,
              40.01714356664344
            ],
            [
              116.34904594956717,
              40.017169417397625
            ],
            [
              116.34906305508342,
              40.017194461584566
            ],
            [
              116.34908225432156,
              40.01721859196031
            ],
            [
              116.34910346506882,
              40.0172417051939
            ],
            [
              116.34912659649865,
              40.01726370230983
            ],
            [
              116.34915154955928,
              40.017284489112015
            ],
            [
              116.34917821739819,
              40.017303976587016
            ],
            [
              116.34920648581945,
              40.01732208128537
            ],
            [
              116.34923623377287,
              40.017338725678826
            ],
            [
              116.34926733387226,
              40.017353838492475
            ],
            [
              116.34929965294093,
              40.01736735500991
            ],
            [
              116.3493330525821,
              40.01737921735034
            ],
            [
              116.34936738977146,
              40.017389374716544
            ],
            [
              116.34940251746973,
              40.017397783612346
            ],
            [
              116.34943828525225,
              40.01740440802888
            ],
            [
              116.34947453995325,
              40.01740921959886
            ],
            [
              116.34951112632177,
              40.017412197717995
            ],
            [
              116.34954788768646,
              40.017413329633285
            ],
            [
              116.3495846666265,
              40.01741261049754
            ],
            [
              116.3496213056459,
              40.01741004339027
            ],
            [
              116.3496576478478,
              40.01740563930439
            ],
            [
              116.34969353760646,
              40.01739941709922
            ],
            [
              116.34972882123373,
              40.01739140341964
            ],
            [
              116.3497633476372,
              40.01738163258206
            ],
            [
              116.3497969689672,
              40.01737014642742
            ],
            [
              116.34982954125003,
              40.01735699414201
            ],
            [
              116.34986092500445,
              40.017342232046865
            ],
            [
              116.34989098583901,
              40.01732592335655
            ],
            [
              116.34991959502763,
              40.017308137908415
            ],
            [
              116.34994663006066,
              40.017288951863584
            ],
            [
              116.3499719751697,
              40.017268447380786
            ],
            [
              116.34999552182319,
              40.01724671226449
            ],
            [
              116.35001716919129,
              40.0172238395889
            ],
            [
              116.3500368245775,
              40.01719992729944
            ],
            [
              116.35005440381573,
              40.01717507779322
            ],
            [
              116.35006983163055,
              40.017149397480566
            ],
            [
              116.35008304195959,
              40.01712299632945
            ],
            [
              116.35009397823639,
              40.01709598739442
            ],
            [
              116.35010259363256,
              40.017068486332526
            ],
            [
              116.35010885125827,
              40.01704061090807
            ],
            [
              116.35011272432024,
              40.01701248048831
            ],
            [
              116.35011419623632,
              40.0169842155323
            ],
            [
              116.35011326070645,
              40.016955937075004
            ]
          ]
        ]
      }
    },
    {
      "type": "Feature",
      "id": "PUBLIC-PGC-06",
      "properties": {
        "id": "PUBLIC-PGC-06",
        "layer": "PUBLIC_SPACE",
        "source_type": "agent_generated_design",
        "confidence": "low",
        "geometry_role": "design_proposal",
        "conceptual_only": true,
        "official_boundary": false,
        "authorization_status": "UNKNOWN",
        "real_world_performance_claimed": false,
        "name_zh": "开口账本",
        "name_en": "The Opening Ledger",
        "area_id": "zhongzhiyuan_ai_acceleration_area",
        "pilgrimage_node": true,
        "prototype_zone": "north",
        "area_sqm_declared": 3629.089,
        "usage_note": "AI朝圣/公共学习节点的概念组件，不是确定选址、建筑物或活动承诺；内容以公开B1、AI消融、失败和恢复证据为主。"
      },
      "geometry": {
        "type": "Polygon",
        "coordinates": [
          [
            [
              116.34766303094017,
              40.01722059854956
            ],
            [
              116.34766066654477,
              40.01720064414278
            ],
            [
              116.34765660983199,
              40.01718085135826
            ],
            [
              116.34765087817466,
              40.0171613049516
            ],
            [
              116.34764349611801,
              40.017142088623274
            ],
            [
              116.34763449527439,
              40.01712328466026
            ],
            [
              116.34762391418798,
              40.01710497358363
            ],
            [
              116.34761179816957,
              40.01708723380383
            ],
            [
              116.3475981991027,
              40.01707014128486
            ],
            [
              116.34758317522133,
              40.017053769219
            ],
            [
              116.3475667908606,
              40.01703818771344
            ],
            [
              116.34754911618116,
              40.017023463490005
            ],
            [
              116.34753022686878,
              40.01700965959954
            ],
            [
              116.34751020381042,
              40.01699683515182
            ],
            [
              116.34748913274758,
              40.016985045062576
            ],
            [
              116.34746710390938,
              40.01697433981822
            ],
            [
              116.34744421162603,
              40.01696476525971
            ],
            [
              116.34742055392499,
              40.016956362386345
            ],
            [
              116.34739623211125,
              40.016949167180044
            ],
            [
              116.34737135033345,
              40.01694321045141
            ],
            [
              116.34734601513794,
              40.01693851770771
            ],
            [
              116.34732033501258,
              40.01693510904375
            ],
            [
              116.34729441992228,
              40.016932999055754
            ],
            [
              116.34726838083789,
              40.01693219677887
            ],
            [
              116.34724232926132,
              40.01693270564853
            ],
            [
              116.34721637674795,
              40.01693452348567
            ],
            [
              116.3471906344289,
              40.016937642506136
            ],
            [
              116.34716521253534,
              40.01694204935397
            ],
            [
              116.3471402199264,
              40.016947725158595
            ],
            [
              116.34711576362294,
              40.01695464561564
            ],
            [
              116.34709194834952,
              40.016962781091024
            ],
            [
              116.34706887608571,
              40.01697209674781
            ],
            [
              116.34704664562969,
              40.01698255269534
            ],
            [
              116.34702535217497,
              40.01699410416018
            ],
            [
              116.34700508690285,
              40.01700670167771
            ],
            [
              116.34698593659209,
              40.01702029130398
            ],
            [
              116.34696798324704,
              40.017034814846674
            ],
            [
              116.34695130374676,
              40.01705021011432
            ],
            [
              116.3469359695157,
              40.0170664111826
            ],
            [
              116.34692204621784,
              40.017083348676564
            ],
            [
              116.34690959347547,
              40.01710095006782
            ],
            [
              116.34689866461402,
              40.01711913998497
            ],
            [
              116.34688930643343,
              40.017137840536414
            ],
            [
              116.34688155900798,
              40.01715697164395
            ],
            [
              116.34687545551459,
              40.01717645138554
            ],
            [
              116.34687102209064,
              40.01719619634623
            ],
            [
              116.34686827772217,
              40.01721612197527
            ],
            [
              116.3468672341624,
              40.01723614294814
            ],
            [
              116.34686789588156,
              40.01725617353207
            ],
            [
              116.3468702600475,
              40.017276127953
            ],
            [
              116.346874316538,
              40.01729592076294
            ],
            [
              116.34688004798396,
              40.017315467205876
            ],
            [
              116.34688742984382,
              40.017334683580685
            ],
            [
              116.34689643050856,
              40.01735348759964
            ],
            [
              116.34690701143712,
              40.01737179874065
            ],
            [
              116.34691912732137,
              40.017389538592205
            ],
            [
              116.34693272628004,
              40.01740663118909
            ],
            [
              116.34694775008103,
              40.017423003337655
            ],
            [
              116.34696413439065,
              40.017438584929316
            ],
            [
              116.34698180904903,
              40.01745330924077
            ],
            [
              116.34700069837079,
              40.01746711321969
            ],
            [
              116.34702072146884,
              40.01747993775473
            ],
            [
              116.34704179260099,
              40.017491727928736
            ],
            [
              116.34706382153689,
              40.017502433253796
            ],
            [
              116.34708671394472,
              40.01751200788756
            ],
            [
              116.34711037179484,
              40.0175204108295
            ],
            [
              116.34713469377974,
              40.017527606096486
            ],
            [
              116.34715957574785,
              40.01753356287687
            ],
            [
              116.34718491114955,
              40.017538255662515
            ],
            [
              116.34721059149342,
              40.01754166435788
            ],
            [
              116.34723650681093,
              40.017543774366224
            ],
            [
              116.34726254612723,
              40.01754457665205
            ],
            [
              116.34728859793643,
              40.017544067779774
            ],
            [
              116.34731455067926,
              40.01754224992848
            ],
            [
              116.34734029322058,
              40.0175391308826
            ],
            [
              116.34736571532548,
              40.017534723998494
            ],
            [
              116.34739070813124,
              40.017529048147374
            ],
            [
              116.34741516461355,
              40.01752212763439
            ],
            [
              116.34743898004486,
              40.017513992094614
            ],
            [
              116.34746205244285,
              40.017504676366094
            ],
            [
              116.34748428300705,
              40.017494220340645
            ],
            [
              116.34750557654212,
              40.01748266879309
            ],
            [
              116.34752584186536,
              40.017470071189464
            ],
            [
              116.34754499219721,
              40.01745648147518
            ],
            [
              116.34756294553287,
              40.01744195784403
            ],
            [
              116.34757962499346,
              40.01742656248905
            ],
            [
              116.34759495915522,
              40.01741036133603
            ],
            [
              116.34760888235536,
              40.01739342376134
            ],
            [
              116.34762133497324,
              40.017375822294824
            ],
            [
              116.34763226368563,
              40.017357632309114
            ],
            [
              116.34764162169506,
              40.01733893169699
            ],
            [
              116.3476493689302,
              40.017319800537706
            ],
            [
              116.3476554722174,
              40.017300320754174
            ],
            [
              116.3476599054228,
              40.01728057576205
            ],
            [
              116.3476626495641,
              40.01726065011268
            ],
            [
              116.34766369289197,
              40.01724062913086
            ],
            [
              116.34766303094017,
              40.01722059854956
            ]
          ]
        ]
      }
    }
  ]
}
