{
  "type": "FeatureCollection",
  "name": "slow_variables_land_use_partition",
  "features": [
    {
      "type": "Feature",
      "id": "LU-001",
      "properties": {
        "id": "LU-001",
        "layer": "LAND_USE",
        "source_type": "agent_generated_design",
        "confidence": "medium",
        "geometry_role": "design_proposal",
        "land_use_code": "0802",
        "name_zh": "科研创新与成果转化带",
        "name_en": "Research and translation band",
        "stability_class": "adaptable",
        "status_note_zh": "概念功能分区，不代表法定地块或权属边界",
        "status_note_en": "Conceptual functional band, not statutory zoning or ownership",
        "area_sqm_declared": 2415628.52
      },
      "geometry": {
        "type": "Polygon",
        "coordinates": [
          [
            [
              116.3407,
              39.939
            ],
            [
              116.3397,
              39.975
            ],
            [
              116.3417,
              40.006
            ],
            [
              116.3427,
              40.0265
            ],
            [
              116.343756,
              40.0265
            ],
            [
              116.343756,
              39.939
            ],
            [
              116.3407,
              39.939
            ]
          ]
        ]
      }
    },
    {
      "type": "Feature",
      "id": "LU-002",
      "properties": {
        "id": "LU-002",
        "layer": "LAND_USE",
        "source_type": "agent_generated_design",
        "confidence": "medium",
        "geometry_role": "design_proposal",
        "land_use_code": "1401",
        "name_zh": "百年基线蓝绿公共带",
        "name_en": "Century Baseline blue-green public band",
        "stability_class": "slow",
        "status_note_zh": "概念功能分区，不代表法定地块或权属边界",
        "status_note_en": "Conceptual functional band, not statutory zoning or ownership",
        "area_sqm_declared": 2589339.429
      },
      "geometry": {
        "type": "Polygon",
        "coordinates": [
          [
            [
              116.343756,
              39.939
            ],
            [
              116.343756,
              40.0265
            ],
            [
              116.346876,
              40.0265
            ],
            [
              116.346876,
              39.939
            ],
            [
              116.343756,
              39.939
            ]
          ]
        ]
      }
    },
    {
      "type": "Feature",
      "id": "LU-003",
      "properties": {
        "id": "LU-003",
        "layer": "LAND_USE",
        "source_type": "agent_generated_design",
        "confidence": "medium",
        "geometry_role": "design_proposal",
        "land_use_code": "05",
        "name_zh": "可插拔AI生产与服务带",
        "name_en": "Replaceable AI production and service band",
        "stability_class": "fast",
        "status_note_zh": "概念功能分区，不代表法定地块或权属边界",
        "status_note_en": "Conceptual functional band, not statutory zoning or ownership",
        "area_sqm_declared": 3366138.426
      },
      "geometry": {
        "type": "Polygon",
        "coordinates": [
          [
            [
              116.346876,
              39.939
            ],
            [
              116.346876,
              40.0265
            ],
            [
              116.350932,
              40.0265
            ],
            [
              116.350932,
              39.939
            ],
            [
              116.346876,
              39.939
            ]
          ]
        ]
      }
    },
    {
      "type": "Feature",
      "id": "LU-004",
      "properties": {
        "id": "LU-004",
        "layer": "LAND_USE",
        "source_type": "agent_generated_design",
        "confidence": "medium",
        "geometry_role": "design_proposal",
        "land_use_code": "0702",
        "name_zh": "长生活社区配套缓冲带",
        "name_en": "Lasting-life community support buffer",
        "stability_class": "slow",
        "status_note_zh": "概念功能分区，不代表法定地块或权属边界",
        "status_note_en": "Conceptual functional band, not statutory zoning or ownership",
        "area_sqm_declared": 3041726.416
      },
      "geometry": {
        "type": "Polygon",
        "coordinates": [
          [
            [
              116.350932,
              39.939
            ],
            [
              116.350932,
              40.0265
            ],
            [
              116.3553,
              40.0265
            ],
            [
              116.3533,
              39.99
            ],
            [
              116.3553,
              39.965
            ],
            [
              116.3553,
              39.939
            ],
            [
              116.350932,
              39.939
            ]
          ]
        ]
      }
    }
  ],
  "crs_note": "Coordinates stored in EPSG:4326; areas recalculated in EPSG:4548.",
  "boundary_status": "provisional"
}
