{
  "type": "FeatureCollection",
  "name": "evidence_gated_phasing",
  "project_timing_note_zh": "本图层表达概念空间实施面，不等于项目试验时序；低扰动试验可跨片区发生，完整改造仍受官方资料、许可和专业复核触发。",
  "project_timing_note_en": "This layer shows conceptual spatial implementation surfaces, not pilot timing. Low-disruption tests may occur across areas; full adaptation remains triggered by official data, approvals and professional review.",
  "trigger_based_project_ids": [
    "P09"
  ],
  "features": [
    {
      "type": "Feature",
      "id": "PHASE-001",
      "properties": {
        "id": "PHASE-001",
        "layer": "PHASE",
        "source_type": "agent_generated_design",
        "confidence": "medium",
        "geometry_role": "design_proposal",
        "phase": "phase_1",
        "name_zh": "近期低扰动与基线项目",
        "name_en": "Near-term low-disruption and baseline projects",
        "trigger": "evidence_gate_and_professional_review",
        "spatial_phase_role": "conceptual_spatial_implementation_surface",
        "project_interface_ids": [
          "P01",
          "P02",
          "P04",
          "P06",
          "P08"
        ],
        "area_sqm_declared": 4232697.317
      },
      "geometry": {
        "type": "Polygon",
        "coordinates": [
          [
            [
              116.3407,
              39.939
            ],
            [
              116.33987361,
              39.96875
            ],
            [
              116.355,
              39.96875
            ],
            [
              116.3553,
              39.965
            ],
            [
              116.3553,
              39.939
            ],
            [
              116.3407,
              39.939
            ]
          ]
        ]
      }
    },
    {
      "type": "Feature",
      "id": "PHASE-002",
      "properties": {
        "id": "PHASE-002",
        "layer": "PHASE",
        "source_type": "agent_generated_design",
        "confidence": "medium",
        "geometry_role": "design_proposal",
        "phase": "phase_2",
        "name_zh": "中期适应性改造与换代场",
        "name_en": "Mid-term adaptation and Changeover Yards",
        "trigger": "evidence_gate_and_professional_review",
        "spatial_phase_role": "conceptual_spatial_implementation_surface",
        "project_interface_ids": [
          "P03",
          "P04",
          "P05",
          "P06",
          "P07",
          "P08"
        ],
        "area_sqm_declared": 3853523.207
      },
      "geometry": {
        "type": "Polygon",
        "coordinates": [
          [
            [
              116.3533,
              39.99
            ],
            [
              116.355,
              39.96875
            ],
            [
              116.33987361,
              39.96875
            ],
            [
              116.3397,
              39.975
            ],
            [
              116.34121613,
              39.9985
            ],
            [
              116.35376575,
              39.9985
            ],
            [
              116.3533,
              39.99
            ]
          ]
        ]
      }
    },
    {
      "type": "Feature",
      "id": "PHASE-003",
      "properties": {
        "id": "PHASE-003",
        "layer": "PHASE",
        "source_type": "agent_generated_design",
        "confidence": "medium",
        "geometry_role": "design_proposal",
        "phase": "phase_3",
        "name_zh": "长期评估扩展或退役",
        "name_en": "Long-term evaluated expansion or retirement",
        "trigger": "evidence_gate_and_professional_review",
        "spatial_phase_role": "conceptual_spatial_implementation_surface",
        "project_interface_ids": [
          "P03",
          "P05",
          "P07",
          "P08"
        ],
        "area_sqm_declared": 3326615.547
      },
      "geometry": {
        "type": "Polygon",
        "coordinates": [
          [
            [
              116.35376575,
              39.9985
            ],
            [
              116.34121613,
              39.9985
            ],
            [
              116.3417,
              40.006
            ],
            [
              116.3427,
              40.0265
            ],
            [
              116.3553,
              40.0265
            ],
            [
              116.35376575,
              39.9985
            ]
          ]
        ]
      }
    }
  ],
  "boundary_status": "provisional"
}
