{
 "type": "FeatureCollection",
 "crs": {
  "type": "name",
  "properties": {
   "name": "EPSG:4326"
  }
 },
 "features": [
  {
   "type": "Feature",
   "properties": {
    "id": "CON-001",
    "layer": "REGULATORY_CONTROL",
    "source_type": "agent_inferred_from_public_data",
    "confidence": "medium",
    "geometry_role": "provisional_constraint",
    "name_zh": "京张铁路遗址线位概念线索"
   },
   "geometry": {
    "type": "LineString",
    "coordinates": [
     [
      116.34625199999999,
      39.939
     ],
     [
      116.34828,
      40.0265
     ]
    ]
   },
   "id": "CON-001"
  },
  {
   "type": "Feature",
   "properties": {
    "id": "CON-002",
    "layer": "REGULATORY_CONTROL",
    "source_type": "agent_inferred_from_public_data",
    "confidence": "medium",
    "geometry_role": "provisional_constraint",
    "name_zh": "京张文化带概念缓冲区"
   },
   "geometry": {
    "type": "Polygon",
    "coordinates": [
     [
      [
       116.34725164531153,
       40.02653709325286
      ],
      [
       116.34725639128968,
       40.02659770011093
      ],
      [
       116.34726884170115,
       40.02665765750592
      ],
      [
       116.34728887666122,
       40.02671638801307
      ],
      [
       116.3473163032403,
       40.02677332602183
      ],
      [
       116.3473508573211,
       40.026827923183085
      ],
      [
       116.34739220614183,
       40.02687965369028
      ],
      [
       116.34743995150015,
       40.02692801934349
      ],
      [
       116.34749363358792,
       40.02697255434756
      ],
      [
       116.34755273541903,
       40.02701282979831
      ],
      [
       116.34761668780834,
       40.02704845781335
      ],
      [
       116.34768487485316,
       40.02707909526797
      ],
      [
       116.34775663986508,
       40.027104447099866
      ],
      [
       116.34783129169462,
       40.027124269151
      ],
      [
       116.34790811138782,
       40.02713837051926
      ],
      [
       116.34798635911085,
       40.02714661539708
      ],
      [
       116.34806528127564,
       40.027148924379524
      ],
      [
       116.34814411779813,
       40.02714527522908
      ],
      [
       116.34822210941913,
       40.02713570308982
      ],
      [
       116.3482985050171,
       40.027120300148965
      ],
      [
       116.34837256884273,
       40.02709921474894
      ],
      [
       116.34844358760513,
       40.02707264995861
      ],
      [
       116.348510877342,
       40.02704086161747
      ],
      [
       116.34857379000691,
       40.0270041558715
      ],
      [
       116.34863171971074,
       40.026962886224574
      ],
      [
       116.34868410855707,
       40.02691745013371
      ],
      [
       116.34873045201486,
       40.026868285181045
      ],
      [
       116.34877030377754,
       40.02681586485944
      ],
      [
       116.34880328006065,
       40.02676069401208
      ],
      [
       116.34882906329781,
       40.02670330397045
      ],
      [
       116.34884740519837,
       40.02664424743693
      ],
      [
       116.34885812913802,
       40.02658409316193
      ],
      [
       116.34886113185904,
       40.02652342046621
      ],
      [
       116.34760213034322,
       39.938945574846784
      ],
      [
       116.34759738906955,
       39.93888496713575
      ],
      [
       116.34758495325165,
       39.9388250089969
      ],
      [
       116.34756494267278,
       39.938766277857546
      ],
      [
       116.34753755006362,
       39.93870933932703
      ],
      [
       116.34750303924564,
       39.93865474174959
      ],
      [
       116.34746174258967,
       39.938603010923735
      ],
      [
       116.34741405781449,
       39.93855464503871
      ],
      [
       116.34736044415625,
       39.93851010987701
      ],
      [
       116.34730141794557,
       39.93846983432885
      ],
      [
       116.34723754763488,
       39.93843420626202
      ],
      [
       116.34716944832404,
       39.93840356878688
      ],
      [
       116.34709777583676,
       39.93837821695216
      ],
      [
       116.34702322040516,
       39.93835839490394
      ],
      [
       116.34694650002287,
       39.93834429353442
      ],
      [
       116.34686835353091,
       39.93833604864384
      ],
      [
       116.34678953350318,
       39.93833373963276
      ],
      [
       116.34671079899921,
       39.93833738873747
      ],
      [
       116.34663290825503,
       39.93834696081584
      ],
      [
       116.3465566113816,
       39.93836236368583
      ],
      [
       116.34648264314161,
       39.93838344901302
      ],
      [
       116.34641171587403,
       39.93841001373911
      ],
      [
       116.34634451263439,
       39.93844180203729
      ],
      [
       116.34628168061722,
       39.93847850777576
      ],
      [
       116.34622382492348,
       39.938519777465594
      ],
      [
       116.34617150273337,
       39.938565213664866
      ],
      [
       116.34612521794044,
       39.938614378805894
      ],
      [
       116.34608541629869,
       39.93866679940891
      ],
      [
       116.34605248112953,
       39.93872197064171
      ],
      [
       116.34602672962978,
       39.938779361181155
      ],
      [
       116.3460084098164,
       39.93883841832993
      ],
      [
       116.34599769813737,
       39.93889857333903
      ],
      [
       116.34599469777162,
       39.93895924688513
      ],
      [
       116.34725164531153,
       40.02653709325286
      ]
     ]
    ]
   },
   "id": "CON-002"
  },
  {
   "type": "Feature",
   "properties": {
    "id": "CON-003",
    "layer": "REGULATORY_CONTROL",
    "source_type": "agent_inferred_from_public_data",
    "confidence": "medium",
    "geometry_role": "provisional_constraint",
    "name_zh": "清河蓝绿廊道（背景线索）"
   },
   "geometry": {
    "type": "Polygon",
    "coordinates": [
     [
      [
       116.3561218545829,
       39.93900456715977
      ],
      [
       116.35605618526438,
       39.9460099137885
      ],
      [
       116.3399796639368,
       39.94591950365271
      ],
      [
       116.34004697245066,
       39.93891417933238
      ],
      [
       116.3561218545829,
       39.93900456715977
      ]
     ]
    ]
   },
   "id": "CON-003"
  },
  {
   "type": "Feature",
   "properties": {
    "id": "CON-004",
    "layer": "REGULATORY_CONTROL",
    "source_type": "agent_inferred_from_public_data",
    "confidence": "medium",
    "geometry_role": "provisional_constraint",
    "name_zh": "重点区域范围（待官方确认）"
   },
   "geometry": {
    "type": "MultiPolygon",
    "coordinates": [
     [
      [
       [
        116.343,
        40.0075
       ],
       [
        116.354,
        40.0075
       ],
       [
        116.354,
        40.026
       ],
       [
        116.343,
        40.026
       ],
       [
        116.343,
        40.0075
       ]
      ]
     ],
     [
      [
       [
        116.342,
        39.9835
       ],
       [
        116.353,
        39.9835
       ],
       [
        116.353,
        39.9935
       ],
       [
        116.342,
        39.9935
       ],
       [
        116.342,
        39.9835
       ]
      ]
     ],
     [
      [
       [
        116.342,
        39.944
       ],
       [
        116.355,
        39.944
       ],
       [
        116.355,
        39.94984
       ],
       [
        116.342,
        39.94984
       ],
       [
        116.342,
        39.944
       ]
      ]
     ]
    ]
   },
   "id": "CON-004"
  },
  {
   "type": "Feature",
   "properties": {
    "id": "CON-005",
    "layer": "REGULATORY_CONTROL",
    "name_zh": "觉生寺（大钟寺）国保邻近（设计区西界约3m）",
    "source_type": "agent_inferred_from_public_data",
    "confidence": "low",
    "geometry_role": "provisional_constraint"
   },
   "id": "CON-005",
   "geometry": {
    "type": "Point",
    "coordinates": [
     116.35,
     39.96
    ]
   }
  },
  {
   "type": "Feature",
   "properties": {
    "id": "CON-006",
    "layer": "REGULATORY_CONTROL",
    "name_zh": "清华园车站旧址（第十一批市保，设计区西侧约738m）",
    "source_type": "agent_inferred_from_public_data",
    "confidence": "medium",
    "geometry_role": "provisional_constraint"
   },
   "id": "CON-006",
   "geometry": {
    "type": "Point",
    "coordinates": [
     116.35,
     39.96
    ]
   }
  }
 ]
}