{
 "type": "FeatureCollection",
 "features": [
  {
   "type": "Feature",
   "properties": {
    "id": "HER-001",
    "layer": "LAND_USE",
    "name_zh": "清华园车站旧址",
    "source_type": "agent_inferred_from_public_data",
    "confidence": "medium",
    "geometry_role": "provisional_constraint"
   },
   "geometry": {
    "type": "Polygon",
    "coordinates": [
     [
      [
       116.33211221078014,
       39.99141296301492
      ],
      [
       116.33211028101334,
       39.99161108619186
      ],
      [
       116.3314780375073,
       39.99160744112517
      ],
      [
       116.33147996910051,
       39.99140931797366
      ],
      [
       116.33211221078014,
       39.99141296301492
      ]
     ]
    ]
   },
   "id": "HER-001"
  },
  {
   "type": "Feature",
   "properties": {
    "id": "HER-001-ZC1",
    "layer": "LAND_USE",
    "name_zh": "清华园车站旧址建控地带(简化)",
    "source_type": "agent_inferred_from_public_data",
    "confidence": "medium",
    "geometry_role": "provisional_constraint"
   },
   "geometry": {
    "type": "Polygon",
    "coordinates": [
     [
      [
       116.33211659654269,
       39.99096268304177
      ],
      [
       116.33148435901403,
       39.9909590380583
      ],
      [
       116.33142695814381,
       39.99096087530219
      ],
      [
       116.33137006778868,
       39.99096703126617
      ],
      [
       116.3313142358234,
       39.99097744666601
      ],
      [
       116.3312599999306,
       39.99099202119749
      ],
      [
       116.33120788242302,
       39.99101061450245
      ],
      [
       116.33115838521368,
       39.991033047520226
      ],
      [
       116.33111198498237,
       39.991059104212226
      ],
      [
       116.33106912858527,
       39.99108853364211
      ],
      [
       116.33103022875159,
       39.9911210523925
      ],
      [
       116.33099566010875,
       39.99115634729417
      ],
      [
       116.3309657555746,
       39.99119407844189
      ],
      [
       116.33094080315097,
       39.991233882467796
      ],
      [
       116.33092104315004,
       39.99127537604067
      ],
      [
       116.33090666587961,
       39.99131815955741
      ],
      [
       116.33089780981014,
       39.991361820991486
      ],
      [
       116.33089456024065,
       39.99140593986071
      ],
      [
       116.33089262695626,
       39.99160406298865
      ],
      [
       116.33089501519657,
       39.99164821440339
      ],
      [
       116.33090301826986,
       39.99169197316271
      ],
      [
       116.33091655911261,
       39.99173491784484
      ],
      [
       116.33093550732877,
       39.99177663486717
      ],
      [
       116.33095968044529,
       39.9918167224695
      ],
      [
       116.33098884566888,
       39.991854794583205
      ],
      [
       116.3310227221279,
       39.99189048454944
      ],
      [
       116.33106098357693,
       39.99192344865043
      ],
      [
       116.33110326153862,
       39.99195336941977
      ],
      [
       116.33114914885233,
       39.991979958699986
      ],
      [
       116.33119820359524,
       39.99200296041777
      ],
      [
       116.33124995333854,
       39.992022153050314
      ],
      [
       116.33130389969718,
       39.992037351758775
      ],
      [
       116.33135952313008,
       39.99204841016858
      ],
      [
       116.33141628794367,
       39.992055221779076
      ],
      [
       116.33147364745156,
       39.99205772098942
      ],
      [
       116.33210589510867,
       39.992061366113916
      ],
      [
       116.33216329688706,
       39.99205952854153
      ],
      [
       116.33222018808421,
       39.9920533721962
      ],
      [
       116.33227602079629,
       39.99204295636793
      ],
      [
       116.33233025731411,
       39.99202838136868
      ],
      [
       116.33238237530176,
       39.99200978756613
      ],
      [
       116.33243187282747,
       39.99198735403187
      ],
      [
       116.33247827319758,
       39.99196129681665
      ],
      [
       116.33252112954781,
       39.99193186686963
      ],
      [
       116.33256002914672,
       39.99189934762132
      ],
      [
       116.33259459737067,
       39.99186405225402
      ],
      [
       116.33262450131168,
       39.99182632068539
      ],
      [
       116.3326494529833,
       39.99178651629479
      ],
      [
       116.332669212094,
       39.9917450224235
      ],
      [
       116.33268358836091,
       39.99170223868294
      ],
      [
       116.33269244334214,
       39.991658577105994
      ],
      [
       116.33269569176974,
       39.99161445817885
      ],
      [
       116.33269761984536,
       39.99141633497838
      ],
      [
       116.33269523044983,
       39.991372183589576
      ],
      [
       116.33268722626555,
       39.99132842494251
      ],
      [
       116.33267368438771,
       39.991285480455794
      ],
      [
       116.33265473524163,
       39.99124376370654
      ],
      [
       116.33263056132657,
       39.99120367644732
      ],
      [
       116.3326013954576,
       39.9911656047373
      ],
      [
       116.33256751852335,
       39.99112991522423
      ],
      [
       116.33252925678065,
       39.99109695161379
      ],
      [
       116.33248697871232,
       39.99106703135946
      ],
      [
       116.3324410914785,
       39.99104044260551
      ],
      [
       116.33239203699543,
       39.991017441412225
      ],
      [
       116.33234028767978,
       39.99099824928991
      ],
      [
       116.33228634189902,
       39.990983051065975
      ],
      [
       116.33223071917232,
       39.99097199310485
      ],
      [
       116.33217395516752,
       39.99096518189868
      ],
      [
       116.33211659654269,
       39.99096268304177
      ]
     ]
    ]
   },
   "id": "HER-001-ZC1"
  },
  {
   "type": "Feature",
   "properties": {
    "id": "HER-002",
    "layer": "LAND_USE",
    "name_zh": "觉生寺（大钟寺）",
    "source_type": "agent_inferred_from_public_data",
    "confidence": "low",
    "geometry_role": "provisional_constraint"
   },
   "geometry": {
    "type": "Polygon",
    "coordinates": [
     [
      [
       116.33980510918964,
       39.96840800336645
      ],
      [
       116.33978431557588,
       39.97056935871904
      ],
      [
       116.33603883227646,
       39.97054796536385
      ],
      [
       116.33605974383383,
       39.96838661163976
      ],
      [
       116.33980510918964,
       39.96840800336645
      ]
     ]
    ]
   },
   "id": "HER-002"
  },
  {
   "type": "Feature",
   "properties": {
    "id": "HER-002-ZC1",
    "layer": "LAND_USE",
    "name_zh": "觉生寺（大钟寺）建控地带(简化)",
    "source_type": "agent_inferred_from_public_data",
    "confidence": "low",
    "geometry_role": "provisional_constraint"
   },
   "geometry": {
    "type": "Polygon",
    "coordinates": [
     [
      [
       116.33980944090986,
       39.967957720898454
      ],
      [
       116.33606410012406,
       39.96793632951103
      ],
      [
       116.33600671861544,
       39.967938169188955
      ],
      [
       116.33594984775927,
       39.967944327584874
      ],
      [
       116.33589403524249,
       39.96795474539112
      ],
      [
       116.33583981856053,
       39.967969322280325
      ],
      [
       116.33578771984106,
       39.96798791787158
      ],
      [
       116.33573824081618,
       39.968010353082256
      ],
      [
       116.33569185799058,
       39.968036411852594
      ],
      [
       116.33564901805282,
       39.96806584322624
      ],
      [
       116.33561013357357,
       39.96809836376711
      ],
      [
       116.3355755790324,
       39.96813366028874
      ],
      [
       116.33554568721134,
       39.968171392870275
      ],
      [
       116.33552074598983,
       39.96821119813004
      ],
      [
       116.33550099557209,
       39.96825269272493
      ],
      [
       116.33548662617369,
       39.96829547704202
      ],
      [
       116.33547777618918,
       39.96833913904703
      ],
      [
       116.33547453085906,
       39.96838325825232
      ],
      [
       116.33545360087304,
       39.97054461172111
      ],
      [
       116.33545599150496,
       39.97058876321971
      ],
      [
       116.3354639952215,
       39.970632521826204
      ],
      [
       116.33547753495299,
       39.97067546612028
      ],
      [
       116.33549648031405,
       39.97071718252304
      ],
      [
       116.33552064885912,
       39.97075726928028
      ],
      [
       116.33554980783893,
       39.970795340331485
      ],
      [
       116.33558367644196,
       39.97083102902808
      ],
      [
       116.33562192849841,
       39.97086399166451
      ],
      [
       116.33566419562146,
       39.97089391078846
      ],
      [
       116.3357100707548,
       39.970920498258316
      ],
      [
       116.33575911209292,
       39.97094349801822
      ],
      [
       116.33581084733606,
       39.970962688564214
      ],
      [
       116.3358647782389,
       39.970977885077545
      ],
      [
       116.33592038540917,
       39.97098894120478
      ],
      [
       116.33597713330998,
       39.970995750467296
      ],
      [
       116.33603447541775,
       39.970998247286786
      ],
      [
       116.33977998329037,
       39.971019640981275
      ],
      [
       116.33983736730146,
       39.971017799456575
      ],
      [
       116.33989424038602,
       39.971011639174456
      ],
      [
       116.3399500548147,
       39.97100121946287
      ],
      [
       116.34000427305436,
       39.970986640671164
      ],
      [
       116.34005637294516,
       39.97096804320354
      ],
      [
       116.34010585272958,
       39.970945606166886
      ],
      [
       116.34015223588493,
       39.97091954564569
      ],
      [
       116.34019507571259,
       39.970890112620914
      ],
      [
       116.34023395964032,
       39.970857590552754
      ],
      [
       116.34026851319538,
       39.97082229265063
      ],
      [
       116.34029840361109,
       39.970784558856614
      ],
      [
       116.34032334303124,
       39.970744752571484
      ],
      [
       116.34034309128222,
       39.9707032571548
      ],
      [
       116.34035745818582,
       39.97066047223283
      ],
      [
       116.34036630539033,
       39.970616809849844
      ],
      [
       116.34036954770264,
       39.970572690499786
      ],
      [
       116.34039032288766,
       39.96841133489358
      ],
      [
       116.34038792913617,
       39.96836718345501
      ],
      [
       116.34037992251939,
       39.96832342514805
      ],
      [
       116.34036638015588,
       39.968280481388085
      ],
      [
       116.34034743247571,
       39.96823876574517
      ],
      [
       116.34032326196392,
       39.968198679961276
      ],
      [
       116.34029410140283,
       39.968160610081306
      ],
      [
       116.34026023162997,
       39.96812492273544
      ],
      [
       116.34022197883316,
       39.96809196160846
      ],
      [
       116.34017971140908,
       39.968062044129944
      ],
      [
       116.34013383641533,
       39.968035458417425
      ],
      [
       116.34008479565033,
       39.96801246050192
      ],
      [
       116.34003306139854,
       39.96799327186215
      ],
      [
       116.33997913188244,
       39.96797807729198
      ],
      [
       116.33992352646456,
       39.96796702312068
      ],
      [
       116.33986678064605,
       39.96796021580388
      ],
      [
       116.33980944090986,
       39.967957720898454
      ]
     ]
    ]
   },
   "id": "HER-002-ZC1"
  }
 ]
}