{
  "type": "FeatureCollection",
  "name": "GREEN_SPACE",
  "features": [
    {
      "type": "Feature",
      "properties": {
        "id": "GS-001",
        "layer": "GREEN_SPACE",
        "source_type": "agent_generated_design",
        "confidence": "medium",
        "geometry_role": "design_proposal",
        "green_type": "corridor_park",
        "name_zh": "京张遗址公园主廊绿地",
        "name_en": "Jingzhang corridor park",
        "area_sqm_declared": 2282183.032,
        "design_note_zh": "概念建议绿地骨架，实际边界须以正式绿线为准。"
      },
      "geometry": {
        "type": "Polygon",
        "coordinates": [
          [
            [
              116.34988161062105,
              40.01672079053367
            ],
            [
              116.34888189547944,
              39.98849537827041
            ],
            [
              116.34988047233382,
              39.94693978602098
            ],
            [
              116.34988067141352,
              39.94692789220539
            ],
            [
              116.34994575865437,
              39.94005084593169
            ],
            [
              116.3499400966464,
              39.939946648396
            ],
            [
              116.34992119389803,
              39.939843379790226
            ],
            [
              116.34988923251115,
              39.93974203464162
            ],
            [
              116.3498445203453,
              39.93964358894925
            ],
            [
              116.34978748805058,
              39.939548990785084
            ],
            [
              116.34971868491857,
              39.93945915116394
            ],
            [
              116.3496387735908,
              39.93937493527065
            ],
            [
              116.34954852367599,
              39.93929715412861
            ],
            [
              116.34944880433754,
              39.939226556790025
            ],
            [
              116.34934057592278,
              39.939163823122946
            ],
            [
              116.34922488071444,
              39.939109557264715
            ],
            [
              116.3491028328936,
              39.93906428180462
            ],
            [
              116.34897560781037,
              39.93902843275186
            ],
            [
              116.34884443066623,
              39.93900235533724
            ],
            [
              116.34882668320577,
              39.9390002268797
            ],
            [
              116.34830096045658,
              39.93900022943644
            ],
            [
              116.34817412264896,
              39.939023929451345
            ],
            [
              116.348046231311,
              39.93905834507848
            ],
            [
              116.34792333792673,
              39.93910224428096
            ],
            [
              116.34780662598719,
              39.93915520430264
            ],
            [
              116.34769721946246,
              39.9392167151294
            ],
            [
              116.34759617197821,
              39.939286184400046
            ],
            [
              116.34750445666953,
              39.93936294311026
            ],
            [
              116.3474229568094,
              39.93944625205457
            ],
            [
              116.34735245730204,
              39.93953530894451
            ],
            [
              116.34729363712334,
              39.9396292561341
            ],
            [
              116.34724706278087,
              39.93972718887883
            ],
            [
              116.34721318285662,
              39.93982816404797
            ],
            [
              116.34719232368518,
              39.93993120920699
            ],
            [
              116.34718468620905,
              39.94003533198211
            ],
            [
              116.34711937909805,
              39.94690642716369
            ],
            [
              116.34611868886151,
              39.98848033174006
            ],
            [
              116.34611896269409,
              39.9885289184608
            ],
            [
              116.34711775027945,
              40.01676029283244
            ],
            [
              116.34703497929009,
              40.025443781812335
            ],
            [
              116.3470406421801,
              40.025547977979485
            ],
            [
              116.34705956246617,
              40.02565124568834
            ],
            [
              116.34709155799396,
              40.025752590408544
            ],
            [
              116.3471363206831,
              40.02585103612491
            ],
            [
              116.3471934194922,
              40.02594563473746
            ],
            [
              116.34726230456812,
              40.026035475192565
            ],
            [
              116.34734231253974,
              40.02611969225763
            ],
            [
              116.34743267290564,
              40.02619747485457
            ],
            [
              116.3475325154535,
              40.0262680738716
            ],
            [
              116.34764087864062,
              40.02633080937866
            ],
            [
              116.34775671885413,
              40.02638507717629
            ],
            [
              116.34787892046224,
              40.02643035461524
            ],
            [
              116.34800630655945,
              40.02646620563075
            ],
            [
              116.34813765030222,
              40.02649228494273
            ],
            [
              116.34820346095057,
              40.026500168526475
            ],
            [
              116.34863217691718,
              40.02650017068045
            ],
            [
              116.3486769881179,
              40.02649531770422
            ],
            [
              116.3488088140556,
              40.02647071822471
            ],
            [
              116.34893686870981,
              40.026436303578244
            ],
            [
              116.34905991879648,
              40.026392405210665
            ],
            [
              116.34917677923642,
              40.02633944590447
            ],
            [
              116.34928632456982,
              40.026277935706624
            ],
            [
              116.34938749979624,
              40.026208467015735
            ],
            [
              116.3494793305355,
              40.02613170887606
            ],
            [
              116.34956093241182,
              40.02604840053341
            ],
            [
              116.34963151957061,
              40.0259593443149
            ],
            [
              116.34969041224618,
              40.02586539790127
            ],
            [
              116.34973704330709,
              40.02576746606613
            ],
            [
              116.34977096371657,
              40.02566649196178
            ],
            [
              116.34979184685518,
              40.02556344803564
            ],
            [
              116.34979949166443,
              40.02545932666448
            ],
            [
              116.34988208640924,
              40.016757483360685
            ],
            [
              116.34988161062105,
              40.01672079053367
            ]
          ]
        ]
      },
      "id": "GS-001"
    },
    {
      "type": "Feature",
      "properties": {
        "id": "GS-002",
        "layer": "GREEN_SPACE",
        "source_type": "agent_generated_design",
        "confidence": "medium",
        "geometry_role": "design_proposal",
        "green_type": "node_park",
        "name_zh": "脉点公园 01",
        "name_en": "Pulse-point park 01",
        "flow_intensity": 1.0,
        "area_sqm_declared": 1973.233,
        "design_note_zh": "概念建议节点绿地，位置由流网络高通量节点导出。"
      },
      "geometry": {
        "type": "Polygon",
        "coordinates": [
          [
            [
              116.34912066815004,
              39.9885257856581
            ],
            [
              116.34908868624457,
              39.98842444096447
            ],
            [
              116.34904394445253,
              39.98832599554189
            ],
            [
              116.34898687370946,
              39.988231397459664
            ],
            [
              116.34891802367733,
              39.98814155773178
            ],
            [
              116.34889108655076,
              39.98811318900871
            ],
            [
              116.34888189547944,
              39.98849537827041
            ],
            [
              116.34891098899104,
              39.98931705629551
            ],
            [
              116.34897736268553,
              39.989233270895376
            ],
            [
              116.34903622401883,
              39.98913932397551
            ],
            [
              116.3490828303172,
              39.989041391592636
            ],
            [
              116.34911673278229,
              39.98894041690436
            ],
            [
              116.34913760496741,
              39.98883737236366
            ],
            [
              116.34914524591939,
              39.98873325035324
            ],
            [
              116.34913958211165,
              39.98862905362806
            ],
            [
              116.34912066815004,
              39.9885257856581
            ]
          ]
        ]
      },
      "id": "GS-002"
    },
    {
      "type": "Feature",
      "properties": {
        "id": "GS-003",
        "layer": "GREEN_SPACE",
        "source_type": "agent_generated_design",
        "confidence": "medium",
        "geometry_role": "design_proposal",
        "green_type": "node_park",
        "name_zh": "脉点公园 02",
        "name_en": "Pulse-point park 02",
        "flow_intensity": 1.0,
        "area_sqm_declared": 7189.531,
        "design_note_zh": "概念建议节点绿地，位置由流网络高通量节点导出。"
      },
      "geometry": {
        "type": "Polygon",
        "coordinates": [
          [
            [
              116.34606518461321,
              39.988986351894106
            ],
            [
              116.34596406151041,
              39.98905581854349
            ],
            [
              116.3458722771053,
              39.98913257475451
            ],
            [
              116.34579071533628,
              39.98921588134579
            ],
            [
              116.34572016170381,
              39.98930493605156
            ],
            [
              116.34566129570513,
              39.98939888124692
            ],
            [
              116.34561468428912,
              39.9894968122066
            ],
            [
              116.34558077639494,
              39.98959778581708
            ],
            [
              116.34555989862673,
              39.98970082965888
            ],
            [
              116.34555225210617,
              39.98980495137091
            ],
            [
              116.34555791053342,
              39.98990914820724
            ],
            [
              116.345576819475,
              39.99001241669393
            ],
            [
              116.34560879688577,
              39.990113762293156
            ],
            [
              116.34565353485976,
              39.990212208981276
            ],
            [
              116.34571060259351,
              39.99030680864893
            ],
            [
              116.34577945053304,
              39.990396650232405
            ],
            [
              116.34585941566489,
              39.99048086848825
            ],
            [
              116.34594972790012,
              39.99055865232692
            ],
            [
              116.34604951748997,
              39.99062925262473
            ],
            [
              116.34615782340173,
              39.9906919894393
            ],
            [
              116.34619610007714,
              39.99070993087035
            ],
            [
              116.34613377788182,
              39.988947817608285
            ],
            [
              116.34606518461321,
              39.988986351894106
            ]
          ]
        ]
      },
      "id": "GS-003"
    },
    {
      "type": "Feature",
      "properties": {
        "id": "GS-004",
        "layer": "GREEN_SPACE",
        "source_type": "agent_generated_design",
        "confidence": "medium",
        "geometry_role": "design_proposal",
        "green_type": "node_park",
        "name_zh": "脉点公园 03",
        "name_en": "Pulse-point park 03",
        "flow_intensity": 0.9911,
        "area_sqm_declared": 917.971,
        "design_note_zh": "概念建议节点绿地，位置由流网络高通量节点导出。"
      },
      "geometry": {
        "type": "Polygon",
        "coordinates": [
          [
            [
              116.34705081537273,
              40.015613053311576
            ],
            [
              116.34700418759518,
              40.0157109842614
            ],
            [
              116.3469702682468,
              40.01581195773554
            ],
            [
              116.34694938404216,
              40.0159150013158
            ],
            [
              116.34694173616498,
              40.01601912264364
            ],
            [
              116.34694739832855,
              40.016123318976824
            ],
            [
              116.34696631606356,
              40.01622658684626
            ],
            [
              116.34699830724013,
              40.01632793172005
            ],
            [
              116.34704306381987,
              40.01642637758154
            ],
            [
              116.34710015482018,
              40.01652097632932
            ],
            [
              116.34710972243911,
              40.01653345623545
            ],
            [
              116.34707574211949,
              40.015573286562905
            ],
            [
              116.34705081537273,
              40.015613053311576
            ]
          ]
        ]
      },
      "id": "GS-004"
    },
    {
      "type": "Feature",
      "properties": {
        "id": "GS-005",
        "layer": "GREEN_SPACE",
        "source_type": "agent_generated_design",
        "confidence": "medium",
        "geometry_role": "design_proposal",
        "green_type": "node_park",
        "name_zh": "脉点公园 04",
        "name_en": "Pulse-point park 04",
        "flow_intensity": 0.9911,
        "area_sqm_declared": 7651.884,
        "design_note_zh": "概念建议节点绿地，位置由流网络高通量节点导出。"
      },
      "geometry": {
        "type": "Polygon",
        "coordinates": [
          [
            [
              116.35049079616097,
              40.01692367119905
            ],
            [
              116.35045879953849,
              40.01682232725633
            ],
            [
              116.35041403778142,
              40.01672388267952
            ],
            [
              116.35035694201773,
              40.01662928552981
            ],
            [
              116.35028806215031,
              40.01653944681215
            ],
            [
              116.35020806155984,
              40.01645523170269
            ],
            [
              116.35011771071473,
              40.01637745121717
            ],
            [
              116.35001787975047,
              40.01630685440139
            ],
            [
              116.34990953008935,
              40.01624412111837
            ],
            [
              116.34986396555026,
              40.01622277350769
            ],
            [
              116.34988161062105,
              40.01672079053367
            ],
            [
              116.34988208640924,
              40.016757483360685
            ],
            [
              116.3498700907264,
              40.01802153503032
            ],
            [
              116.34989276098062,
              40.01801125973088
            ],
            [
              116.3500022922602,
              40.017949748656584
            ],
            [
              116.35010345435357,
              40.017880279137046
            ],
            [
              116.350195273007,
              40.0178035202245
            ],
            [
              116.35027686396116,
              40.017720211172204
            ],
            [
              116.3503474414666,
              40.017631154314095
            ],
            [
              116.35040632585059,
              40.017537207337064
            ],
            [
              116.35045295006155,
              40.01743927502013
            ],
            [
              116.35048686512863,
              40.017338300520265
            ],
            [
              116.35050774448389,
              40.01723525628867
            ],
            [
              116.35051538710512,
              40.01713113470504
            ],
            [
              116.35050971944983,
              40.01702693852024
            ],
            [
              116.35049079616097,
              40.01692367119905
            ]
          ]
        ]
      },
      "id": "GS-005"
    },
    {
      "type": "Feature",
      "properties": {
        "id": "GS-006",
        "layer": "GREEN_SPACE",
        "source_type": "agent_generated_design",
        "confidence": "medium",
        "geometry_role": "design_proposal",
        "green_type": "node_park",
        "name_zh": "脉点公园 05",
        "name_en": "Pulse-point park 05",
        "flow_intensity": 0.9307,
        "area_sqm_declared": 14467.482,
        "design_note_zh": "概念建议节点绿地，位置由流网络高通量节点导出。"
      },
      "geometry": {
        "type": "Polygon",
        "coordinates": [
          [
            [
              116.3468543137227,
              39.95603724741128
            ],
            [
              116.34672638993995,
              39.95607166122102
            ],
            [
              116.34660346513411,
              39.956115558643674
            ],
            [
              116.34648672309879,
              39.9561685169403
            ],
            [
              116.34637728809389,
              39.956230026113374
            ],
            [
              116.34627621401934,
              39.95629949381764
            ],
            [
              116.34618447426634,
              39.956376251063865
            ],
            [
              116.34610295234323,
              39.956459558660725
            ],
            [
              116.34603243336676,
              39.95654861433271
            ],
            [
              116.34597359650033,
              39.95664256044561
            ],
            [
              116.3459270084122,
              39.95674049226528
            ],
            [
              116.34589311781681,
              39.95684146666992
            ],
            [
              116.34587225115162,
              39.956944511232344
            ],
            [
              116.34586460943127,
              39.95704863358456
            ],
            [
              116.34587026630959,
              39.95715283097447
            ],
            [
              116.34588916736799,
              39.95725609992278
            ],
            [
              116.34592113063705,
              39.957357445887226
            ],
            [
              116.34596584834695,
              39.95745589284069
            ],
            [
              116.34602288988931,
              39.95755049267125
            ],
            [
              116.34609170596234,
              39.957640334313645
            ],
            [
              116.34617163385937,
              39.95772455252389
            ],
            [
              116.34626190385009,
              39.95780233621288
            ],
            [
              116.34636164659251,
              39.957872936258426
            ],
            [
              116.34646990150512,
              39.957935672720595
            ],
            [
              116.34658562601787,
              39.95798994139078
            ],
            [
              116.3467077056133,
              39.958035219611375
            ],
            [
              116.34683496456115,
              39.958071071310144
            ],
            [
              116.3468507224811,
              39.958074203370124
            ],
            [
              116.34689993777143,
              39.956028725225345
            ],
            [
              116.3468543137227,
              39.95603724741128
            ]
          ]
        ]
      },
      "id": "GS-006"
    },
    {
      "type": "Feature",
      "properties": {
        "id": "GS-007",
        "layer": "GREEN_SPACE",
        "source_type": "agent_generated_design",
        "confidence": "medium",
        "geometry_role": "design_proposal",
        "green_type": "node_park",
        "name_zh": "脉点公园 06",
        "name_en": "Pulse-point park 06",
        "flow_intensity": 0.9307,
        "area_sqm_declared": 1157.212,
        "design_note_zh": "概念建议节点绿地，位置由流网络高通量节点导出。"
      },
      "geometry": {
        "type": "Polygon",
        "coordinates": [
          [
            [
              116.34684120426094,
              39.95764511309263
            ],
            [
              116.3467823675355,
              39.957739059599675
            ],
            [
              116.34673577983128,
              39.95783699172923
            ],
            [
              116.34670188985898,
              39.95793796635651
            ],
            [
              116.34668102405007,
              39.95804101105221
            ],
            [
              116.34667338341097,
              39.95814513344702
            ],
            [
              116.3466790415851,
              39.95824933078843
            ],
            [
              116.34669794414135,
              39.95835259959765
            ],
            [
              116.34672990909591,
              39.95845394533373
            ],
            [
              116.34677462866274,
              39.95855239197174
            ],
            [
              116.34683167221557,
              39.95864699140281
            ],
            [
              116.3468367797776,
              39.958653659258744
            ],
            [
              116.34686166876581,
              39.95761926919431
            ],
            [
              116.34684120426094,
              39.95764511309263
            ]
          ]
        ]
      },
      "id": "GS-007"
    },
    {
      "type": "Feature",
      "properties": {
        "id": "GS-008",
        "layer": "GREEN_SPACE",
        "source_type": "agent_generated_design",
        "confidence": "medium",
        "geometry_role": "design_proposal",
        "green_type": "node_park",
        "name_zh": "脉点公园 07",
        "name_en": "Pulse-point park 07",
        "flow_intensity": 0.9275,
        "area_sqm_declared": 1481.296,
        "design_note_zh": "概念建议节点绿地，位置由流网络高通量节点导出。"
      },
      "geometry": {
        "type": "Polygon",
        "coordinates": [
          [
            [
              116.34686197928937,
              39.955461351699476
            ],
            [
              116.34680314450438,
              39.95555529826763
            ],
            [
              116.34675655835392,
              39.95565323045447
            ],
            [
              116.34672266953379,
              39.955754205134674
            ],
            [
              116.34670180446433,
              39.955857249878385
            ],
            [
              116.34669416414484,
              39.95596137231587
            ],
            [
              116.34669982221567,
              39.95606556969419
            ],
            [
              116.34671872424664,
              39.95616883853418
            ],
            [
              116.34675068825906,
              39.956270184294645
            ],
            [
              116.34679540647592,
              39.95636863095037
            ],
            [
              116.34685244828395,
              39.95646323039236
            ],
            [
              116.34688835577268,
              39.956510108568814
            ],
            [
              116.34691520566032,
              39.955394131703216
            ],
            [
              116.34686197928937,
              39.955461351699476
            ]
          ]
        ]
      },
      "id": "GS-008"
    },
    {
      "type": "Feature",
      "properties": {
        "id": "GS-009",
        "layer": "GREEN_SPACE",
        "source_type": "agent_generated_design",
        "confidence": "medium",
        "geometry_role": "design_proposal",
        "green_type": "node_park",
        "name_zh": "脉点公园 08",
        "name_en": "Pulse-point park 08",
        "flow_intensity": 0.85,
        "area_sqm_declared": 13852.874,
        "design_note_zh": "概念建议节点绿地，位置由流网络高通量节点导出。"
      },
      "geometry": {
        "type": "Polygon",
        "coordinates": [
          [
            [
              116.34683353802694,
              39.95822100858352
            ],
            [
              116.34670561014997,
              39.958255422324534
            ],
            [
              116.3465826814019,
              39.958299319677046
            ],
            [
              116.34646593561436,
              39.9583522779028
            ],
            [
              116.34635649708335,
              39.95841378700493
            ],
            [
              116.34625541974277,
              39.95848325463889
            ],
            [
              116.34616367701521,
              39.958560011816125
            ],
            [
              116.34608215243775,
              39.95864331934597
            ],
            [
              116.34601163115265,
              39.958732374953556
            ],
            [
              116.34595279234557,
              39.958826321005304
            ],
            [
              116.34590620270345,
              39.95892425276764
            ],
            [
              116.34587231095568,
              39.95902522711936
            ],
            [
              116.34585144355087,
              39.959128271633745
            ],
            [
              116.34584380151077,
              39.95923239394329
            ],
            [
              116.34584945849228,
              39.959336591296285
            ],
            [
              116.34586836007583,
              39.959439860213834
            ],
            [
              116.34590032428697,
              39.959541206153936
            ],
            [
              116.3459450433468,
              39.959639653089695
            ],
            [
              116.34600208663392,
              39.95973425290938
            ],
            [
              116.34607090482976,
              39.95982409454785
            ],
            [
              116.34615083520723,
              39.959908312761115
            ],
            [
              116.34624110801211,
              39.95998609646008
            ],
            [
              116.34634085387529,
              39.960056696522415
            ],
            [
              116.34644911218525,
              39.96011943300805
            ],
            [
              116.3465648403392,
              39.96017370170817
            ],
            [
              116.34668692378465,
              39.96021897996484
            ],
            [
              116.3467983585415,
              39.96025037268844
            ],
            [
              116.3468472517585,
              39.958218447065484
            ],
            [
              116.34683353802694,
              39.95822100858352
            ]
          ]
        ]
      },
      "id": "GS-009"
    },
    {
      "type": "Feature",
      "properties": {
        "id": "GS-010",
        "layer": "GREEN_SPACE",
        "source_type": "agent_generated_design",
        "confidence": "medium",
        "geometry_role": "design_proposal",
        "green_type": "node_park",
        "name_zh": "脉点公园 09",
        "name_en": "Pulse-point park 09",
        "flow_intensity": 0.8142,
        "area_sqm_declared": 8999.192,
        "design_note_zh": "概念建议节点绿地，位置由流网络高通量节点导出。"
      },
      "geometry": {
        "type": "Polygon",
        "coordinates": [
          [
            [
              116.35051149849681,
              40.014739930622284
            ],
            [
              116.3504795028199,
              40.01463858665511
            ],
            [
              116.35043474241739,
              40.014540142060476
            ],
            [
              116.35037764840413,
              40.01444554489974
            ],
            [
              116.35030877066625,
              40.01435570617797
            ],
            [
              116.35022877256385,
              40.01427149107134
            ],
            [
              116.35013842454138,
              40.01419371059556
            ],
            [
              116.35003859670717,
              40.01412311379637
            ],
            [
              116.34993025045335,
              40.01406038053659
            ],
            [
              116.34981442919748,
              40.01400611494956
            ],
            [
              116.34978504464524,
              40.01399522623019
            ],
            [
              116.34985096558633,
              40.01585585687184
            ],
            [
              116.34991348317476,
              40.015827519824306
            ],
            [
              116.35002301091806,
              40.01576600867927
            ],
            [
              116.35012416973609,
              40.01569653908964
            ],
            [
              116.3502159854067,
              40.0156197801083
            ],
            [
              116.35029757369921,
              40.01553647098917
            ],
            [
              116.35036814888987,
              40.01544741406683
            ],
            [
              116.35042703132821,
              40.01535346702877
            ],
            [
              116.35047365398135,
              40.015255534654635
            ],
            [
              116.35050756789349,
              40.01515456010192
            ],
            [
              116.35052844650778,
              40.01505151582232
            ],
            [
              116.35053608880918,
              40.014947394196035
            ],
            [
              116.35053042125818,
              40.01484319797431
            ],
            [
              116.35051149849681,
              40.014739930622284
            ]
          ]
        ]
      },
      "id": "GS-010"
    },
    {
      "type": "Feature",
      "properties": {
        "id": "GS-011",
        "layer": "GREEN_SPACE",
        "source_type": "agent_generated_design",
        "confidence": "medium",
        "geometry_role": "design_proposal",
        "green_type": "node_park",
        "name_zh": "脉点公园 10",
        "name_en": "Pulse-point park 10",
        "flow_intensity": 0.7973,
        "area_sqm_declared": 16962.527,
        "design_note_zh": "概念建议节点绿地，位置由流网络高通量节点导出。"
      },
      "geometry": {
        "type": "Polygon",
        "coordinates": [
          [
            [
              116.34706906785127,
              39.947277595327684
            ],
            [
              116.34693739384261,
              39.947302194381116
            ],
            [
              116.34680948643226,
              39.947336608465704
            ],
            [
              116.34668657739094,
              39.94738050616887
            ],
            [
              116.34656985036044,
              39.947433464748975
            ],
            [
              116.34646042945614,
              39.94749497420573
            ],
            [
              116.34635936844222,
              39.94756444219118
            ],
            [
              116.34626764058406,
              39.94764119971337
            ],
            [
              116.34618612927548,
              39.94772450757827
            ],
            [
              116.34611561953098,
              39.94781356350782
            ],
            [
              116.34605679042505,
              39.947907509865324
            ],
            [
              116.34601020855119,
              39.94800544191424
            ],
            [
              116.345976322564,
              39.94810641653061
            ],
            [
              116.34595545885648,
              39.948209461285174
            ],
            [
              116.3459478184148,
              39.94831358380808
            ],
            [
              116.34595347488049,
              39.94841778134559
            ],
            [
              116.3459723738388,
              39.94852105041699
            ],
            [
              116.34600433334062,
              39.94862239647885
            ],
            [
              116.34604904565232,
              39.9487208435031
            ],
            [
              116.3461060802175,
              39.948815443377136
            ],
            [
              116.34617488780154,
              39.94890528503529
            ],
            [
              116.34625480577955,
              39.948989503233435
            ],
            [
              116.34634506451668,
              39.9490672868826
            ],
            [
              116.34644479477934,
              39.949137886860974
            ],
            [
              116.34655303610624,
              39.94920062322926
            ],
            [
              116.34666874605813,
              39.94925489177979
            ],
            [
              116.34679081025784,
              39.94930016985611
            ],
            [
              116.34691805312335,
              39.94933602138737
            ],
            [
              116.3470492491906,
              39.94936210108853
            ],
            [
              116.34706028222956,
              39.9493634242691
            ],
            [
              116.34711056013296,
              39.94727309670841
            ],
            [
              116.34706906785127,
              39.947277595327684
            ]
          ]
        ]
      },
      "id": "GS-011"
    },
    {
      "type": "Feature",
      "properties": {
        "id": "GS-012",
        "layer": "GREEN_SPACE",
        "source_type": "agent_generated_design",
        "confidence": "medium",
        "geometry_role": "design_proposal",
        "green_type": "node_park",
        "name_zh": "脉点公园 11",
        "name_en": "Pulse-point park 11",
        "flow_intensity": 0.7973,
        "area_sqm_declared": 2589.388,
        "design_note_zh": "概念建议节点绿地，位置由流网络高通量节点导出。"
      },
      "geometry": {
        "type": "Polygon",
        "coordinates": [
          [
            [
              116.34699480062437,
              39.94882100611127
            ],
            [
              116.3469242907767,
              39.94891006251527
            ],
            [
              116.34686546181172,
              39.94900400926675
            ],
            [
              116.3468188803216,
              39.949101941625464
            ],
            [
              116.34678499495722,
              39.94920291646439
            ],
            [
              116.34676413210563,
              39.949305961352174
            ],
            [
              116.34675649274475,
              39.94941008391766
            ],
            [
              116.34676215050564,
              39.949514281406685
            ],
            [
              116.34678105096117,
              39.949617550339035
            ],
            [
              116.34681301214775,
              39.94971889617259
            ],
            [
              116.34685772631556,
              39.949817342881474
            ],
            [
              116.34691476289034,
              39.94991194235617
            ],
            [
              116.34698357261807,
              39.950001783534795
            ],
            [
              116.34704341046799,
              39.95006483896291
            ],
            [
              116.34707530834137,
              39.94873872376536
            ],
            [
              116.34699480062437,
              39.94882100611127
            ]
          ]
        ]
      },
      "id": "GS-012"
    },
    {
      "type": "Feature",
      "properties": {
        "id": "GS-013",
        "layer": "GREEN_SPACE",
        "source_type": "agent_generated_design",
        "confidence": "medium",
        "geometry_role": "design_proposal",
        "green_type": "node_park",
        "name_zh": "脉点公园 12",
        "name_en": "Pulse-point park 12",
        "flow_intensity": 0.7939,
        "area_sqm_declared": 2988.283,
        "design_note_zh": "概念建议节点绿地，位置由流网络高通量节点导出。"
      },
      "geometry": {
        "type": "Polygon",
        "coordinates": [
          [
            [
              116.34709707328302,
              39.946553932835094
            ],
            [
              116.34701556428105,
              39.946637241317276
            ],
            [
              116.34694505674074,
              39.946726297785624
            ],
            [
              116.34688622971535,
              39.94682024459824
            ],
            [
              116.34683964977832,
              39.94691817701423
            ],
            [
              116.34680576556559,
              39.947019151906076
            ],
            [
              116.34678490345314,
              39.947122196841875
            ],
            [
              116.34677726441171,
              39.947226319450024
            ],
            [
              116.34678292206932,
              39.94733051697595
            ],
            [
              116.34680182199982,
              39.9474337859391
            ],
            [
              116.34683378224466,
              39.94753513179702
            ],
            [
              116.3468784950631,
              39.947633578523636
            ],
            [
              116.3469355298938,
              39.9477281780092
            ],
            [
              116.34700433749965,
              39.94781801919182
            ],
            [
              116.34708425525551,
              39.94790223683189
            ],
            [
              116.34709520117937,
              39.94791166985229
            ],
            [
              116.34711937909805,
              39.94690642716369
            ],
            [
              116.34712293570169,
              39.946532290529056
            ],
            [
              116.34709707328302,
              39.946553932835094
            ]
          ]
        ]
      },
      "id": "GS-013"
    },
    {
      "type": "Feature",
      "properties": {
        "id": "GS-014",
        "layer": "GREEN_SPACE",
        "source_type": "agent_generated_design",
        "confidence": "medium",
        "geometry_role": "design_proposal",
        "green_type": "node_park",
        "name_zh": "脉点公园 13",
        "name_en": "Pulse-point park 13",
        "flow_intensity": 0.785,
        "area_sqm_declared": 25790.456,
        "design_note_zh": "概念建议节点绿地，位置由流网络高通量节点导出。"
      },
      "geometry": {
        "type": "Polygon",
        "coordinates": [
          [
            [
              116.34622850035358,
              39.992026962537
            ],
            [
              116.34609313047858,
              39.99202108157903
            ],
            [
              116.34595766301204,
              39.992025434494046
            ],
            [
              116.34582340251946,
              39.992039979362524
            ],
            [
              116.34569164194448,
              39.992064576115304
            ],
            [
              116.34556365015945,
              39.99209898788234
            ],
            [
              116.3454406597476,
              39.9921428832734
            ],
            [
              116.34532385513425,
              39.99219583956912
            ],
            [
              116.34521436118187,
              39.99225734679127
            ],
            [
              116.34511323235812,
              39.99232681261341
            ],
            [
              116.34502144258141,
              39.99240356806448
            ],
            [
              116.34493987584182,
              39.99248687397045
            ],
            [
              116.34486931768778,
              39.992575928072135
            ],
            [
              116.34481044766,
              39.99266987275046
            ],
            [
              116.34476383274621,
              39.992767803285155
            ],
            [
              116.34472992191922,
              39.99286877656677
            ],
            [
              116.34470904181146,
              39.992971820179
            ],
            [
              116.34470139356714,
              39.99307594176298
            ],
            [
              116.34470705090303,
              39.993180138574
            ],
            [
              116.3447259593962,
              39.99328340713838
            ],
            [
              116.34475793700575,
              39.99338475291751
            ],
            [
              116.3448026758239,
              39.993483199886064
            ],
            [
              116.34485974503902,
              39.99357779993197
            ],
            [
              116.34492859508289,
              39.99366764198786
            ],
            [
              116.34500856292176,
              39.99375186080571
            ],
            [
              116.34509887844068,
              39.9938296452906
            ],
            [
              116.34519867185924,
              39.993900246312606
            ],
            [
              116.34530698210783,
              39.99396298392236
            ],
            [
              116.34542276608352,
              39.994017253900175
            ],
            [
              116.34554490869613,
              39.99406253357585
            ],
            [
              116.34567223360841,
              39.99409838686309
            ],
            [
              116.34580351456604,
              39.994124468459916
            ],
            [
              116.34593748720913,
              39.99414052717476
            ],
            [
              116.34607286125042,
              39.99414640834595
            ],
            [
              116.34620833290396,
              39.994142055331544
            ],
            [
              116.34631707779872,
              39.994130274686285
            ],
            [
              116.34624274276857,
              39.99202866971646
            ],
            [
              116.34622850035358,
              39.992026962537
            ]
          ]
        ]
      },
      "id": "GS-014"
    },
    {
      "type": "Feature",
      "properties": {
        "id": "GS-015",
        "layer": "GREEN_SPACE",
        "source_type": "agent_generated_design",
        "confidence": "medium",
        "geometry_role": "design_proposal",
        "green_type": "node_park",
        "name_zh": "脉点公园 14",
        "name_en": "Pulse-point park 14",
        "flow_intensity": 0.785,
        "area_sqm_declared": 10634.965,
        "design_note_zh": "概念建议节点绿地，位置由流网络高通量节点导出。"
      },
      "geometry": {
        "type": "Polygon",
        "coordinates": [
          [
            [
              116.34624983308542,
              39.993239382757444
            ],
            [
              116.34613302720645,
              39.993292339848686
            ],
            [
              116.34602353220512,
              39.99335384781544
            ],
            [
              116.34592240255917,
              39.99342331432413
            ],
            [
              116.34583061219492,
              39.99350007039706
            ],
            [
              116.34574904510812,
              39.99358337685424
            ],
            [
              116.34567848685056,
              39.99367243143113
            ],
            [
              116.34561961696397,
              39.99376637650411
            ],
            [
              116.34557300243466,
              39.9938643073491
            ],
            [
              116.34553909223182,
              39.99396528085367
            ],
            [
              116.3455182129818,
              39.99406832459936
            ],
            [
              116.3455105658206,
              39.994172446226024
            ],
            [
              116.34551622445454,
              39.99427664298853
            ],
            [
              116.34553513444817,
              39.99437991141368
            ],
            [
              116.34556711374621,
              39.9944812569642
            ],
            [
              116.34561185442458,
              39.99457970361696
            ],
            [
              116.34566892565371,
              39.99467430326292
            ],
            [
              116.34573777784605,
              39.99476414483857
            ],
            [
              116.34581774794711,
              39.994848363100516
            ],
            [
              116.34590806582014,
              39.994926146959166
            ],
            [
              116.34600786166212,
              39.994996747290664
            ],
            [
              116.34611617438007,
              39.995059484152264
            ],
            [
              116.34623196084722,
              39.9951137533315
            ],
            [
              116.34635345843036,
              39.99515879213287
            ],
            [
              116.34628512049781,
              39.99322678857662
            ],
            [
              116.34624983308542,
              39.993239382757444
            ]
          ]
        ]
      },
      "id": "GS-015"
    }
  ]
}
