{
  "type": "FeatureCollection",
  "name": "PUBLIC_SPACE",
  "features": [
    {
      "type": "Feature",
      "properties": {
        "id": "PS-001",
        "layer": "PUBLIC_SPACE",
        "source_type": "agent_generated_design",
        "confidence": "medium",
        "geometry_role": "design_proposal",
        "public_space_type": "plaza",
        "name_zh": "AI脉点广场 01",
        "name_en": "AI pulse-point plaza 01",
        "flow_intensity": 1.0,
        "area_sqm_declared": 16259.867,
        "design_note_zh": "概念建议公共空间节点，供专业团队深化。"
      },
      "geometry": {
        "type": "Polygon",
        "coordinates": [
          [
            [
              116.34860323347883,
              39.98866664717469
            ],
            [
              116.34859169323765,
              39.98860363616139
            ],
            [
              116.34857217930066,
              39.988541798637804
            ],
            [
              116.34854487961785,
              39.98848173012929
            ],
            [
              116.3485100571178,
              39.988424009123264
            ],
            [
              116.34846804717495,
              39.988369191498144
            ],
            [
              116.34841925437911,
              39.98831780517022
            ],
            [
              116.34836414863868,
              39.98827034500984
            ],
            [
              116.34830326065477,
              39.98822726807583
            ],
            [
              116.34823717681033,
              39.98818898921406
            ],
            [
              116.34816653352294,
              39.988155877062624
            ],
            [
              116.34809201111594,
              39.98812825050196
            ],
            [
              116.34801432726704,
              39.98810637558416
            ],
            [
              116.34793423009711,
              39.98809046297097
            ],
            [
              116.34785249096612,
              39.988080665905244
            ],
            [
              116.34776989704524,
              39.98807707873535
            ],
            [
              116.34768724373673,
              39.98807973600648
            ],
            [
              116.34760532701469,
              39.98808861212828
            ],
            [
              116.34752493576028,
              39.98810362162097
            ],
            [
              116.34744684416508,
              39.98812461993871
            ],
            [
              116.34737180427612,
              39.98815140486142
            ],
            [
              116.34730053875383,
              39.98818371844204
            ],
            [
              116.34723373391306,
              39.98822124949054
            ],
            [
              116.34717203311385,
              39.98826363657049
            ],
            [
              116.3471160305659,
              39.988310471479615
            ],
            [
              116.34706626560597,
              39.98836130318067
            ],
            [
              116.34702321750386,
              39.98841564214486
            ],
            [
              116.34698730084637,
              39.988472965065945
            ],
            [
              116.34695886154442,
              39.98853271989964
            ],
            [
              116.34693817350106,
              39.98859433117992
            ],
            [
              116.346925435973,
              39.98865720556074
            ],
            [
              116.34692077165101,
              39.98872073753024
            ],
            [
              116.34692422547735,
              39.98878431524197
            ],
            [
              116.34693576421223,
              39.98884732640727
            ],
            [
              116.34695527675305,
              39.98890916419199
            ],
            [
              116.34698257520343,
              39.98896923306066
            ],
            [
              116.34701739668216,
              39.98902695451213
            ],
            [
              116.34705940585405,
              39.98908177265078
            ],
            [
              116.34710819815892,
              39.98913315954061
            ],
            [
              116.34716330370726,
              39.98918062028968
            ],
            [
              116.34722419180531,
              39.98922369781656
            ],
            [
              116.34729027606572,
              39.989261977252575
            ],
            [
              116.347360920055,
              39.98929508993756
            ],
            [
              116.34743544342273,
              39.98932271697058
            ],
            [
              116.34751312845438,
              39.9893445922814
            ],
            [
              116.34759322698358,
              39.98936050519317
            ],
            [
              116.3476749675981,
              39.989370302451526
            ],
            [
              116.3477575630698,
              39.98937388970075
            ],
            [
              116.34784021793679,
              39.989371232392536
            ],
            [
              116.34792213616511,
              39.98936235611876
            ],
            [
              116.34800252881574,
              39.98934734636495
            ],
            [
              116.34808062164336,
              39.98932634768701
            ],
            [
              116.34815566255364,
              39.9892995623189
            ],
            [
              116.34822692884687,
              39.989267248224735
            ],
            [
              116.34829373417861,
              39.98922971661433
            ],
            [
              116.34835543516992,
              39.98918732894568
            ],
            [
              116.34841143760373,
              39.98914049344369
            ],
            [
              116.34846120214767,
              39.989089661168386
            ],
            [
              116.34850424954793,
              39.989035321670656
            ],
            [
              116.34854016524467,
              39.98897799827721
            ],
            [
              116.34856860336387,
              39.98891824305049
            ],
            [
              116.348589290048,
              39.98885663147166
            ],
            [
              116.3486020260925,
              39.98879375689818
            ],
            [
              116.34860668886367,
              39.988730224849355
            ],
            [
              116.34860323347883,
              39.98866664717469
            ]
          ]
        ]
      },
      "id": "PS-001"
    },
    {
      "type": "Feature",
      "properties": {
        "id": "PS-002",
        "layer": "PUBLIC_SPACE",
        "source_type": "agent_generated_design",
        "confidence": "medium",
        "geometry_role": "design_proposal",
        "public_space_type": "plaza",
        "name_zh": "AI脉点广场 02",
        "name_en": "AI pulse-point plaza 02",
        "flow_intensity": 1.0,
        "area_sqm_declared": 16259.867,
        "design_note_zh": "概念建议公共空间节点，供专业团队深化。"
      },
      "geometry": {
        "type": "Polygon",
        "coordinates": [
          [
            [
              116.34777330628091,
              39.98975391305639
            ],
            [
              116.34776176663405,
              39.9896909019769
            ],
            [
              116.34774225315125,
              39.989629064328646
            ],
            [
              116.34771495377814,
              39.989568995638244
            ],
            [
              116.34768013144034,
              39.98951127439483
            ],
            [
              116.34763812151071,
              39.98945645647912
            ],
            [
              116.34758932857898,
              39.989405069810196
            ],
            [
              116.34753422255474,
              39.98935760926169
            ],
            [
              116.34747333414197,
              39.98931453189616
            ],
            [
              116.34740724972771,
              39.98927625256365
            ],
            [
              116.34733660573498,
              39.98924313990677
            ],
            [
              116.34726208249394,
              39.98921551281082
            ],
            [
              116.34718439769034,
              39.989193637333074
            ],
            [
              116.34710429945427,
              39.98917772414064
            ],
            [
              116.34702255915593,
              39.98916792648198
            ],
            [
              116.34693996397773,
              39.98916433871112
            ],
            [
              116.34685730933404,
              39.98916699537913
            ],
            [
              116.34677539121185,
              39.98917587090136
            ],
            [
              116.34669499850573,
              39.98919087980388
            ],
            [
              116.34661690542131,
              39.989211877546495
            ],
            [
              116.34654186401994,
              39.98923866191466
            ],
            [
              116.34647059697663,
              39.9892709749667
            ],
            [
              116.34640379062083,
              39.98930850551762
            ],
            [
              116.34634208832722,
              39.989350892135825
            ],
            [
              116.34628608431984,
              39.98939772662346
            ],
            [
              116.34623631794956,
              39.98944855794734
            ],
            [
              116.3461932684997,
              39.98950289658233
            ],
            [
              116.34615735057011,
              39.98956021922533
            ],
            [
              116.34612891008392,
              39.98961997383475
            ],
            [
              116.34610822095557,
              39.98968158494672
            ],
            [
              116.34609548245228,
              39.98974445921684
            ],
            [
              116.34609081727413,
              39.989807991134285
            ],
            [
              116.34609427037172,
              39.989871568853104
            ],
            [
              116.34610580851219,
              39.98993458008459
            ],
            [
              116.34612532059873,
              39.98999641799393
            ],
            [
              116.3461526187393,
              39.99005648704451
            ],
            [
              116.3461874400557,
              39.990114208733345
            ],
            [
              116.34622944921425,
              39.99016902716261
            ],
            [
              116.34627824165499,
              39.99022041439345
            ],
            [
              116.34633334748705,
              39.99026787553067
            ],
            [
              116.34639423601391,
              39.99031095348909
            ],
            [
              116.34646032084414,
              39.990349233395875
            ],
            [
              116.34653096553873,
              39.990382346586344
            ],
            [
              116.34660548974051,
              39.99040997415467
            ],
            [
              116.3466831757269,
              39.99043185002548
            ],
            [
              116.34676327532229,
              39.99044776351652
            ],
            [
              116.34684501710422,
              39.990457561367855
            ],
            [
              116.34692761383334,
              39.99046114921806
            ],
            [
              116.34701027003561,
              39.99045849251303
            ],
            [
              116.34709218966418,
              39.9904496168388
            ],
            [
              116.34717258376656,
              39.9904346076752
            ],
            [
              116.3472506780835,
              39.9904136095724
            ],
            [
              116.34732572050629,
              39.9903868247588
            ],
            [
              116.34739698832065,
              39.99035451119323
            ],
            [
              116.34746379516749,
              39.99031698008039
            ],
            [
              116.34752549765325,
              39.990274592873476
            ],
            [
              116.34758150154654,
              39.99022775779295
            ],
            [
              116.34763126750084,
              39.99017692589479
            ],
            [
              116.34767431624884,
              39.990122586726216
            ],
            [
              116.34771023321768,
              39.990065263610816
            ],
            [
              116.34773867252112,
              39.99000550860834
            ],
            [
              116.34775936029014,
              39.98994389719777
            ],
            [
              116.34777209730984,
              39.989881022734984
            ],
            [
              116.34777676093707,
              39.98981749073818
            ],
            [
              116.34777330628091,
              39.98975391305639
            ]
          ]
        ]
      },
      "id": "PS-002"
    },
    {
      "type": "Feature",
      "properties": {
        "id": "PS-003",
        "layer": "PUBLIC_SPACE",
        "source_type": "agent_generated_design",
        "confidence": "medium",
        "geometry_role": "design_proposal",
        "public_space_type": "plaza",
        "name_zh": "AI脉点广场 03",
        "name_en": "AI pulse-point plaza 03",
        "flow_intensity": 0.9911,
        "area_sqm_declared": 16259.867,
        "design_note_zh": "概念建议公共空间节点，供专业团队深化。"
      },
      "geometry": {
        "type": "Polygon",
        "coordinates": [
          [
            [
              116.3491636395671,
              40.01596806472802
            ],
            [
              116.34915209455218,
              40.015905054025424
            ],
            [
              116.34913257266754,
              40.0158432168202
            ],
            [
              116.34910526193971,
              40.01578314863468
            ],
            [
              116.3490704254037,
              40.01572542795314
            ],
            [
              116.34902839856909,
              40.01567061065089
            ],
            [
              116.34897958618843,
              40.0156192246411
            ],
            [
              116.34892445835868,
              40.015571764791034
            ],
            [
              116.34886354599377,
              40.015528688156515
            ],
            [
              116.34879743571138,
              40.01549040958052
            ],
            [
              116.34872676418372,
              40.01545729769842
            ],
            [
              116.34865221200609,
              40.01542967138801
            ],
            [
              116.34857449714286,
              40.015407796698966
            ],
            [
              116.3484943680136,
              40.015391884290835
            ],
            [
              116.34841259628604,
              40.01538208740455
            ],
            [
              116.34832996944517,
              40.015378500386625
            ],
            [
              116.34824728321036,
              40.01538115778092
            ],
            [
              116.34816533387273,
              40.01539003399579
            ],
            [
              116.34808491062748,
              40.01540504355063
            ],
            [
              116.3480067879743,
              40.015426041898984
            ],
            [
              116.34793171825929,
              40.01545282682045
            ],
            [
              116.34786042443011,
              40.01548514036805
            ],
            [
              116.34779359307417,
              40.015522671352024
            ],
            [
              116.34773186780694,
              40.0155650583366
            ],
            [
              116.34767584307366,
              40.015611893120415
            ],
            [
              116.3476260584248,
              40.015662724667465
            ],
            [
              116.34758299331975,
              40.01571706345041
            ],
            [
              116.34754706250911,
              40.015774386164786
            ],
            [
              116.34751861204009,
              40.015834140768305
            ],
            [
              116.34749791592336,
              40.01589575179715
            ],
            [
              116.34748517349337,
              40.01595862590772
            ],
            [
              116.34748050748811,
              40.016022157590754
            ],
            [
              116.34748396286612,
              40.01608573500254
            ],
            [
              116.34749550637268,
              40.01614874585733
            ],
            [
              116.34751502685926,
              40.01621058332394
            ],
            [
              116.34754233635302,
              40.01627065187001
            ],
            [
              116.34757717186636,
              40.01632837299742
            ],
            [
              116.34761919792899,
              40.01638319081372
            ],
            [
              116.34766800981805,
              40.016434577385986
            ],
            [
              116.34772313745547,
              40.01648203782534
            ],
            [
              116.34778404993475,
              40.01652511505328
            ],
            [
              116.3478501606337,
              40.01656339420406
            ],
            [
              116.34792083286423,
              40.01659650662024
            ],
            [
              116.34799538600394,
              40.01662413340344
            ],
            [
              116.34807310205156,
              40.01664600848586
            ],
            [
              116.34815323254195,
              40.0166619211928
            ],
            [
              116.3482350057551,
              40.016671718271915
            ],
            [
              116.34831763414888,
              40.01667530536919
            ],
            [
              116.34840032194434,
              40.01667264793778
            ],
            [
              116.34848227279032,
              40.01666377157073
            ],
            [
              116.34856269743364,
              40.0166487617545
            ],
            [
              116.3486408213209,
              40.016627763045584
            ],
            [
              116.34871589205859,
              40.016600977678245
            ],
            [
              116.34878718665973,
              40.016568663616596
            ],
            [
              116.34885401850725,
              40.01653113207015
            ],
            [
              116.34891574396683,
              40.016488744496314
            ],
            [
              116.34897176858578,
              40.01644190911905
            ],
            [
              116.34902155281804,
              40.016391076997216
            ],
            [
              116.34906461722022,
              40.01633673768021
            ],
            [
              116.34910054706876,
              40.01627941449304
            ],
            [
              116.34912899635339,
              40.01621965949614
            ],
            [
              116.34914969110902,
              40.01615804816847
            ],
            [
              116.3491624320534,
              40.01609517386508
            ],
            [
              116.34916709650571,
              40.01603164210269
            ],
            [
              116.3491636395671,
              40.01596806472802
            ]
          ]
        ]
      },
      "id": "PS-003"
    },
    {
      "type": "Feature",
      "properties": {
        "id": "PS-004",
        "layer": "PUBLIC_SPACE",
        "source_type": "agent_generated_design",
        "confidence": "medium",
        "geometry_role": "design_proposal",
        "public_space_type": "plaza",
        "name_zh": "AI脉点广场 04",
        "name_en": "AI pulse-point plaza 04",
        "flow_intensity": 0.9911,
        "area_sqm_declared": 16259.867,
        "design_note_zh": "概念建议公共空间节点，供专业团队深化。"
      },
      "geometry": {
        "type": "Polygon",
        "coordinates": [
          [
            [
              116.34997314900406,
              40.01706453645303
            ],
            [
              116.34996160307234,
              40.01700152583554
            ],
            [
              116.3499420801561,
              40.01693968877001
            ],
            [
              116.34991476829177,
              40.016879620777445
            ],
            [
              116.3498799305253,
              40.01682190034026
            ],
            [
              116.34983790237823,
              40.016767083331374
            ],
            [
              116.34978908861564,
              40.01671569766117
            ],
            [
              116.34973395934783,
              40.01666823819361
            ],
            [
              116.34967304550256,
              40.01662516198086
            ],
            [
              116.34960693371181,
              40.016586883861834
            ],
            [
              116.34953626066229,
              40.01655377246748
            ],
            [
              116.34946170696395,
              40.01652614667092
            ],
            [
              116.34938399059581,
              40.01650427251687
            ],
            [
              116.34930385999192,
              40.01648836065975
            ],
            [
              116.3492220868342,
              40.01647856433509
            ],
            [
              116.34913945862151,
              40.016474977884144
            ],
            [
              116.34905677108627,
              40.016477635845206
            ],
            [
              116.34897482053222,
              40.016486512621206
            ],
            [
              116.3488943961663,
              40.016501522726124
            ],
            [
              116.34881627249892,
              40.016522521608216
            ],
            [
              116.34874120188599,
              40.01654930704198
            ],
            [
              116.3486699072838,
              40.01658162107541
            ],
            [
              116.34860307528723,
              40.01661915251414
            ],
            [
              116.34854134951784,
              40.016661539918
            ],
            [
              116.34848532442582,
              40.016708375081606
            ],
            [
              116.34843553956503,
              40.016759206965254
            ],
            [
              116.3483924743969,
              40.01681354603841
            ],
            [
              116.34835654367266,
              40.0168708689938
            ],
            [
              116.34832809343871,
              40.0169306237868
            ],
            [
              116.3483073977034,
              40.01699223495177
            ],
            [
              116.34829465579755,
              40.01705510914381
            ],
            [
              116.34828999045408,
              40.01711864085288
            ],
            [
              116.34829344662518,
              40.01718221823501
            ],
            [
              116.34830499104848,
              40.01724522900472
            ],
            [
              116.34832451256662,
              40.01730706633166
            ],
            [
              116.34835182319682,
              40.01736713468482
            ],
            [
              116.34838665994056,
              40.017424855567924
            ],
            [
              116.34842868731569,
              40.0174796730909
            ],
            [
              116.34847750058671,
              40.01753105932361
            ],
            [
              116.34853262966223,
              40.01757851938046
            ],
            [
              116.34859354362187,
              40.01762159618666
            ],
            [
              116.34865965582928,
              40.01765987488048
            ],
            [
              116.34873032958178,
              40.01769298680892
            ],
            [
              116.34880488424231,
              40.017720613078275
            ],
            [
              116.34888260179491,
              40.01774248762568
            ],
            [
              116.34896273376003,
              40.01775839978162
            ],
            [
              116.34904450840342,
              40.01776819629905
            ],
            [
              116.34912713816917,
              40.01777178282935
            ],
            [
              116.34920982726508,
              40.01776912483114
            ],
            [
              116.34929177932753,
              40.01776024790293
            ],
            [
              116.34937220509161,
              40.01774523753657
            ],
            [
              116.34945032999309,
              40.017724238293894
            ],
            [
              116.34952540162874,
              40.017697452414254
            ],
            [
              116.34959669700288,
              40.01766513786673
            ],
            [
              116.34966352949104,
              40.017627605865485
            ],
            [
              116.34972525545268,
              40.01758521787234
            ],
            [
              116.34978128043034,
              40.01753838211528
            ],
            [
              116.34983106487444,
              40.01748754965681
            ],
            [
              116.34987412933963,
              40.017433210049596
            ],
            [
              116.34991005910167,
              40.017375886621416
            ],
            [
              116.34993850815114,
              40.01731613143504
            ],
            [
              116.34995920252523,
              40.01725451997125
            ],
            [
              116.34997194294542,
              40.017191645586415
            ],
            [
              116.34997660673584,
              40.017128113798
            ],
            [
              116.34997314900406,
              40.01706453645303
            ]
          ]
        ]
      },
      "id": "PS-004"
    },
    {
      "type": "Feature",
      "properties": {
        "id": "PS-005",
        "layer": "PUBLIC_SPACE",
        "source_type": "agent_generated_design",
        "confidence": "medium",
        "geometry_role": "design_proposal",
        "public_space_type": "plaza",
        "name_zh": "AI脉点广场 05",
        "name_en": "AI pulse-point plaza 05",
        "flow_intensity": 0.9307,
        "area_sqm_declared": 16259.867,
        "design_note_zh": "概念建议公共空间节点，供专业团队深化。"
      },
      "geometry": {
        "type": "Polygon",
        "coordinates": [
          [
            [
              116.34808460301602,
              39.95699758047411
            ],
            [
              116.3480730681825,
              39.956934569112704
            ],
            [
              116.34805356333155,
              39.9568727312412
            ],
            [
              116.34802627632561,
              39.95681266238834
            ],
            [
              116.34799146997123,
              39.95675494104484
            ],
            [
              116.34794947948727,
              39.95670012309239
            ],
            [
              116.34790070927612,
              39.95664873645043
            ],
            [
              116.34784562902864,
              39.95660127599233
            ],
            [
              116.34778476920052,
              39.956558198779824
            ],
            [
              116.34771871590347,
              39.95651991966145
            ],
            [
              116.34764810526092,
              39.95648680727779
            ],
            [
              116.34757361728185,
              39.95645918051154
            ],
            [
              116.34749596931242,
              39.95643730541674
            ],
            [
              116.34741590912802,
              39.95642139265688
            ],
            [
              116.34733420773242,
              39.95641159547623
            ],
            [
              116.34725165193339,
              39.956408008224265
            ],
            [
              116.34716903676616,
              39.95641066544698
            ],
            [
              116.34708715783752,
              39.956419541554425
            ],
            [
              116.34700680366466,
              39.95643455106704
            ],
            [
              116.34692874808209,
              39.956455549438736
            ],
            [
              116.34685374279006,
              39.95648233444891
            ],
            [
              116.34678251011584,
              39.95651464814968
            ],
            [
              116.34671573605793,
              39.95655217934983
            ],
            [
              116.34665406367999,
              39.95659456661145
            ],
            [
              116.3465980869179,
              39.95664140173053
            ],
            [
              116.34654834486017,
              39.95669223366778
            ],
            [
              116.34650531655596,
              39.956746572892115
            ],
            [
              116.3464694164015,
              39.95680389609479
            ],
            [
              116.34644099014864,
              39.956863651228836
            ],
            [
              116.34642031157478,
              39.95692526282526
            ],
            [
              116.34640757984543,
              39.956988137535
            ],
            [
              116.34640291759543,
              39.95705166984305
            ],
            [
              116.34640636974709,
              39.95711524789965
            ],
            [
              116.34641790307668,
              39.957178259412856
            ],
            [
              116.34643740653364,
              39.95724009754515
            ],
            [
              116.34646469230906,
              39.957300166757776
            ],
            [
              116.34649949764372,
              39.95735788854617
            ],
            [
              116.34654148735792,
              39.957412707011564
            ],
            [
              116.34659025707883,
              39.95746409421479
            ],
            [
              116.34664533713448,
              39.95751155526092
            ],
            [
              116.34670619707653,
              39.957554633065634
            ],
            [
              116.34677225078885,
              39.95759291275761
            ],
            [
              116.34684286213212,
              39.95762602567422
            ],
            [
              116.34691735107037,
              39.957653652912335
            ],
            [
              116.34699500022064,
              39.95767552839972
            ],
            [
              116.34707506176215,
              39.95769144145784
            ],
            [
              116.34715676463895,
              39.957701238830936
            ],
            [
              116.34723932198632,
              39.95770482616218
            ],
            [
              116.34732193870958,
              39.95770216890248
            ],
            [
              116.34740381914214,
              39.957693292643235
            ],
            [
              116.34748417470901,
              39.95767828286983
            ],
            [
              116.34756223152209,
              39.957657284138364
            ],
            [
              116.34763723783385,
              39.957630498683294
            ],
            [
              116.34770847127784,
              39.95759818446959
            ],
            [
              116.34777524582596,
              39.95756065270818
            ],
            [
              116.34783691839576,
              39.95751826485853
            ],
            [
              116.34789289504391,
              39.95747142914725
            ],
            [
              116.34794263668635,
              39.95742059663639
            ],
            [
              116.34798566428985,
              39.95736625687908
            ],
            [
              116.34802156348513,
              39.95730893320456
            ],
            [
              116.34804998855714,
              39.95724917767793
            ],
            [
              116.3480706657739,
              39.95718756578326
            ],
            [
              116.34808339602208,
              39.95712469088103
            ],
            [
              116.3480880567237,
              39.95706115849374
            ],
            [
              116.34808460301602,
              39.95699758047411
            ]
          ]
        ]
      },
      "id": "PS-005"
    },
    {
      "type": "Feature",
      "properties": {
        "id": "PS-006",
        "layer": "PUBLIC_SPACE",
        "source_type": "agent_generated_design",
        "confidence": "medium",
        "geometry_role": "design_proposal",
        "public_space_type": "plaza",
        "name_zh": "AI脉点广场 06",
        "name_en": "AI pulse-point plaza 06",
        "flow_intensity": 0.9307,
        "area_sqm_declared": 16259.867,
        "design_note_zh": "概念建议公共空间节点，供专业团队深化。"
      },
      "geometry": {
        "type": "Polygon",
        "coordinates": [
          [
            [
              116.34889341207392,
              39.95809406513766
            ],
            [
              116.34888187632636,
              39.958031053861184
            ],
            [
              116.34886237044691,
              39.95796921612907
            ],
            [
              116.34883508230789,
              39.95790914746873
            ],
            [
              116.34880027472673,
              39.95785142636903
            ],
            [
              116.34875828293417,
              39.957796608709295
            ],
            [
              116.34870951134518,
              39.95774522240619
            ],
            [
              116.34865442966391,
              39.957697762329786
            ],
            [
              116.3485935683598,
              39.9576546855381
            ],
            [
              116.34852751355886,
              39.957616406875715
            ],
            [
              116.34845690139893,
              39.95758329497876
            ],
            [
              116.34838241190361,
              39.957555668725234
            ],
            [
              116.34830476243368,
              39.95753379416427
            ],
            [
              116.34822470077896,
              39.957517881954196
            ],
            [
              116.3481429979574,
              39.95750808533402
            ],
            [
              116.34806044079053,
              39.95750449864776
            ],
            [
              116.34797782432668,
              39.95750715643601
            ],
            [
              116.34789594418515,
              39.95751603310338
            ],
            [
              116.34781558889485,
              39.95753104316489
            ],
            [
              116.34773753230101,
              39.95755204206918
            ],
            [
              116.34766252611362,
              39.95757882759051
            ],
            [
              116.34759129266861,
              39.95761114177607
            ],
            [
              116.34752451797188,
              39.95764867342999
            ],
            [
              116.34746284509318,
              39.957691061110005
            ],
            [
              116.34740686797333,
              39.957737896608066
            ],
            [
              116.34735712570422,
              39.957788728881184
            ],
            [
              116.34731409733703,
              39.957843068395114
            ],
            [
              116.34727819726862,
              39.95790039183829
            ],
            [
              116.34724977125006,
              39.95796014716139
            ],
            [
              116.34722909305641,
              39.95802175889365
            ],
            [
              116.34721636184959,
              39.95808463368472
            ],
            [
              116.34721170025935,
              39.958148166018745
            ],
            [
              116.34721515320169,
              39.95821174404576
            ],
            [
              116.34722668744526,
              39.958274755474086
            ],
            [
              116.3472461919307,
              39.95833659346702
            ],
            [
              116.34727347883914,
              39.958396662487154
            ],
            [
              116.34730828540054,
              39.95845438403178
            ],
            [
              116.34735027642333,
              39.958509202204496
            ],
            [
              116.3473990475221,
              39.95856058906891
            ],
            [
              116.34745412901157,
              39.95860804973338
            ],
            [
              116.34751499042964,
              39.95865112711726
            ],
            [
              116.34758104564597,
              39.95868940635327
            ],
            [
              116.34765165850669,
              39.95872251878322
            ],
            [
              116.34772614896131,
              39.95875014550858
            ],
            [
              116.34780379961217,
              39.958772020462135
            ],
            [
              116.34788386262407,
              39.95878793297045
            ],
            [
              116.3479655669269,
              39.95879772978308
            ],
            [
              116.34804812564225,
              39.95880131654858
            ],
            [
              116.34813074366221,
              39.95879865872331
            ],
            [
              116.34821262530772,
              39.9587897819041
            ],
            [
              116.34829298199209,
              39.95877477158178
            ],
            [
              116.34837103981646,
              39.95875377231769
            ],
            [
              116.34844604702359,
              39.95872698635144
            ],
            [
              116.34851728123839,
              39.95869467165288
            ],
            [
              116.34858405642534,
              39.95865713943766
            ],
            [
              116.34864572949581,
              39.9586147511696
            ],
            [
              116.34870170650169,
              39.95856791507934
            ],
            [
              116.34875144835546,
              39.95851708223257
            ],
            [
              116.34879447602182,
              39.95846274218567
            ],
            [
              116.34883037513094,
              39.95840541827065
            ],
            [
              116.34885879996858,
              39.95834566255496
            ],
            [
              116.34887947680502,
              39.95828405052445
            ],
            [
              116.3488922065306,
              39.95822117554095
            ],
            [
              116.34889686657237,
              39.95815764312769
            ],
            [
              116.34889341207392,
              39.95809406513766
            ]
          ]
        ]
      },
      "id": "PS-006"
    },
    {
      "type": "Feature",
      "properties": {
        "id": "PS-007",
        "layer": "PUBLIC_SPACE",
        "source_type": "agent_generated_design",
        "confidence": "medium",
        "geometry_role": "design_proposal",
        "public_space_type": "plaza",
        "name_zh": "AI脉点广场 07",
        "name_en": "AI pulse-point plaza 07",
        "flow_intensity": 0.9275,
        "area_sqm_declared": 16259.867,
        "design_note_zh": "概念建议公共空间节点，供专业团队深化。"
      },
      "geometry": {
        "type": "Polygon",
        "coordinates": [
          [
            [
              116.34891412215968,
              39.95591030302181
            ],
            [
              116.34890258673282,
              39.95584729172651
            ],
            [
              116.34888308142844,
              39.95578545397951
            ],
            [
              116.3488557941133,
              39.95572538530832
            ],
            [
              116.34882098759691,
              39.95566766420192
            ],
            [
              116.34877899709976,
              39.955612846539715
            ],
            [
              116.3487302270243,
              39.95556146023835
            ],
            [
              116.34867514706016,
              39.95551400016794
            ],
            [
              116.34861428766018,
              39.955470923386436
            ],
            [
              116.34854823493208,
              39.95543264473825
            ],
            [
              116.34847762499372,
              39.95539953285946
            ],
            [
              116.34840313784734,
              39.95537190662785
            ],
            [
              116.34832549083102,
              39.95535003209239
            ],
            [
              116.34824543171104,
              39.95533411991109
            ],
            [
              116.3481637314809,
              39.95532432332271
            ],
            [
              116.34808117693714,
              39.95532073667098
            ],
            [
              116.34799856310289,
              39.955323394496155
            ],
            [
              116.34791668557214,
              39.95533227120249
            ],
            [
              116.34783633284857,
              39.9553472813046
            ],
            [
              116.34775827875279,
              39.95536828025077
            ],
            [
              116.34768327497072,
              39.955395065814834
            ],
            [
              116.34761204381505,
              39.9554273800436
            ],
            [
              116.3475452712697,
              39.955464911740755
            ],
            [
              116.3474836003837,
              39.95550729946361
            ],
            [
              116.34742762507862,
              39.9555541350037
            ],
            [
              116.34737788442895,
              39.9556049673177
            ],
            [
              116.34733485747027,
              39.955659306870885
            ],
            [
              116.34729895858581,
              39.95571663035133
            ],
            [
              116.34727053351529,
              39.955776385709385
            ],
            [
              116.34724985602462,
              39.95583799747393
            ],
            [
              116.34723712526892,
              39.95590087229429
            ],
            [
              116.34723246387364,
              39.955964404654345
            ],
            [
              116.34723591675288,
              39.95602798270389
            ],
            [
              116.34724745067592,
              39.956090994151
            ],
            [
              116.3472669545864,
              39.95615283215881
            ],
            [
              116.3472942406711,
              39.95621290118975
            ],
            [
              116.34732904616786,
              39.95627062274105
            ],
            [
              116.34737103589534,
              39.956325440916196
            ],
            [
              116.34741980548063,
              39.95637682777881
            ],
            [
              116.34747488525299,
              39.95642428843723
            ],
            [
              116.34753574476692,
              39.956467365810916
            ],
            [
              116.34760179791036,
              39.95650564503267
            ],
            [
              116.34767240854941,
              39.95653875744439
            ],
            [
              116.34774689665501,
              39.95656638414781
            ],
            [
              116.3478245448521,
              39.95658825907585
            ],
            [
              116.34790460532915,
              39.95660417155538
            ],
            [
              116.34798630704041,
              39.95661396833618
            ],
            [
              116.34806886313245,
              39.95661755506713
            ],
            [
              116.34815147852262,
              39.95661489720496
            ],
            [
              116.34823335755722,
              39.956606020346804
            ],
            [
              116.34831371167466,
              39.95659100998388
            ],
            [
              116.34839176700085,
              39.95657001067796
            ],
            [
              116.34846677180259,
              39.95654322466897
            ],
            [
              116.34853800372795,
              39.95651090992728
            ],
            [
              116.34860477676345,
              39.956473377668864
            ],
            [
              116.34866644784124,
              39.95643098935801
            ],
            [
              116.34872242303233,
              39.95638415322574
            ],
            [
              116.34877216326669,
              39.95633332033817
            ],
            [
              116.34881518952466,
              39.956278980252044
            ],
            [
              116.34885108744992,
              39.956221656299796
            ],
            [
              116.34887951133967,
              39.95616190054917
            ],
            [
              116.34890018747328,
              39.956100288486404
            ],
            [
              116.34891291674785,
              39.956037413473624
            ],
            [
              116.34891757659486,
              39.955973881034325
            ],
            [
              116.34891412215968,
              39.95591030302181
            ]
          ]
        ]
      },
      "id": "PS-007"
    },
    {
      "type": "Feature",
      "properties": {
        "id": "PS-008",
        "layer": "PUBLIC_SPACE",
        "source_type": "agent_generated_design",
        "confidence": "medium",
        "geometry_role": "design_proposal",
        "public_space_type": "plaza",
        "name_zh": "AI脉点广场 08",
        "name_en": "AI pulse-point plaza 08",
        "flow_intensity": 0.85,
        "area_sqm_declared": 16259.867,
        "design_note_zh": "概念建议公共空间节点，供专业团队深化。"
      },
      "geometry": {
        "type": "Polygon",
        "coordinates": [
          [
            [
              116.34806386574753,
              39.959181341818805
            ],
            [
              116.34805233059336,
              39.959118330476194
            ],
            [
              116.3480328251674,
              39.959056492619574
            ],
            [
              116.3480055373376,
              39.95899642377755
            ],
            [
              116.34797072991844,
              39.95893870244072
            ],
            [
              116.3479287381391,
              39.958883884490724
            ],
            [
              116.34787996641438,
              39.95883249784697
            ],
            [
              116.34782488444978,
              39.95878503738287
            ],
            [
              116.34776402271746,
              39.95874196016016
            ],
            [
              116.34769796734753,
              39.95870368102752
            ],
            [
              116.34762735448332,
              39.95867056862567
            ],
            [
              116.34755286415526,
              39.95864294183745
            ],
            [
              116.34747521373208,
              39.95862106671715
            ],
            [
              116.3473951510128,
              39.95860515392845
            ],
            [
              116.34731344702568,
              39.95859535671595
            ],
            [
              116.34723088860339,
              39.9585917694294
            ],
            [
              116.3471482708064,
              39.95859442661515
            ],
            [
              116.34706638926686,
              39.95860330268361
            ],
            [
              116.34698603252706,
              39.958618312155565
            ],
            [
              116.34690797444628,
              39.95863931048534
            ],
            [
              116.3468329667488,
              39.95866609545272
            ],
            [
              116.34676173178508,
              39.958698409110255
            ],
            [
              116.34669495557564,
              39.95873594026713
            ],
            [
              116.3466332812048,
              39.95877832748587
            ],
            [
              116.34657730262778,
              39.95882516256287
            ],
            [
              116.34652755895044,
              39.95887599445925
            ],
            [
              116.34648452923761,
              39.958930333644304
            ],
            [
              116.34644862789904,
              39.958987656809676
            ],
            [
              116.34642020069805,
              39.95904741190874
            ],
            [
              116.3463995214211,
              39.95910902347286
            ],
            [
              116.3463867892405,
              39.95917189815332
            ],
            [
              116.34638212679545,
              39.95923543043532
            ],
            [
              116.3463855790101,
              39.95929900846942
            ],
            [
              116.3463971126602,
              39.95936201996385
            ],
            [
              116.34641661669201,
              39.95942385808127
            ],
            [
              116.34644390329116,
              39.959483927283074
            ],
            [
              116.34647870969046,
              39.95954164906484
            ],
            [
              116.34652070069998,
              39.95959646752783
            ],
            [
              116.3465694719344,
              39.95964785473289
            ],
            [
              116.34662455370714,
              39.95969531578506
            ],
            [
              116.3466854155534,
              39.959738393600034
            ],
            [
              116.34675147133868,
              39.95977667330631
            ],
            [
              116.34682208490365,
              39.95980978624118
            ],
            [
              116.34689657619103,
              39.95983741350128
            ],
            [
              116.34697422779517,
              39.95985928901422
            ],
            [
              116.34705429187166,
              39.95987520210119
            ],
            [
              116.34713599734015,
              39.959884999506144
            ],
            [
              116.34721855731097,
              39.959888586871976
            ],
            [
              116.34730117666417,
              39.95988592964924
            ],
            [
              116.34738305970778,
              39.95987705342896
            ],
            [
              116.34746341784174,
              39.9598620436962
            ],
            [
              116.34754147715316,
              39.95984104500664
            ],
            [
              116.34761648587046,
              39.95981425959431
            ],
            [
              116.34768772160407,
              39.95978194542381
            ],
            [
              116.3477544983038,
              39.95974441370562
            ],
            [
              116.34781617286646,
              39.95970202589879
            ],
            [
              116.3478721513296,
              39.959655190229554
            ],
            [
              116.34792189459158,
              39.95960435775954
            ],
            [
              116.3479649236036,
              39.95955001804146
            ],
            [
              116.34800082398289,
              39.95949269440421
            ],
            [
              116.34802925000292,
              39.95943293891251
            ],
            [
              116.34804992792264,
              39.95937132705011
            ],
            [
              116.3480626586219,
              39.959308452177176
            ],
            [
              116.3480673195184,
              39.959244919815916
            ],
            [
              116.34806386574753,
              39.959181341818805
            ]
          ]
        ]
      },
      "id": "PS-008"
    },
    {
      "type": "Feature",
      "properties": {
        "id": "PS-009",
        "layer": "PUBLIC_SPACE",
        "source_type": "agent_generated_design",
        "confidence": "medium",
        "geometry_role": "design_proposal",
        "public_space_type": "plaza",
        "name_zh": "AI脉点广场 09",
        "name_en": "AI pulse-point plaza 09",
        "flow_intensity": 0.8142,
        "area_sqm_declared": 16259.867,
        "design_note_zh": "概念建议公共空间节点，供专业团队深化。"
      },
      "geometry": {
        "type": "Polygon",
        "coordinates": [
          [
            [
              116.34999386794183,
              40.01488079615377
            ],
            [
              116.34998232233194,
              40.014817785517465
            ],
            [
              116.3499627999926,
              40.01475594843703
            ],
            [
              116.34993548895473,
              40.0146958804336
            ],
            [
              116.34990065225632,
              40.014638159989694
            ],
            [
              116.34985862540859,
              40.014583342978305
            ],
            [
              116.34980981316411,
              40.014531957309835
            ],
            [
              116.34975468561859,
              40.01448449784824
            ],
            [
              116.34969377368319,
              40.01444142164563
            ],
            [
              116.34962766397149,
              40.01440314354081
            ],
            [
              116.34955699315017,
              40.01437003216458
            ],
            [
              116.34948244180772,
              40.014342406389915
            ],
            [
              116.34940472790052,
              40.01432053226132
            ],
            [
              116.34932459983887,
              40.01430462043293
            ],
            [
              116.34924282928024,
              40.014294824140066
            ],
            [
              116.34916020369842,
              40.014291237723604
            ],
            [
              116.34907751880056,
              40.01429389572157
            ],
            [
              116.34899557086497,
              40.01430277253649
            ],
            [
              116.34891514907333,
              40.01431778268201
            ],
            [
              116.34883702791134,
              40.01433878160594
            ],
            [
              116.34876195971073,
              40.0143655670824
            ],
            [
              116.34869066740457,
              40.01439788115902
            ],
            [
              116.34862383756565,
              40.01443541264097
            ],
            [
              116.34856211379476,
              40.01447780008766
            ],
            [
              116.34850609052278,
              40.0145246352933
            ],
            [
              116.34845630728607,
              40.01457546721779
            ],
            [
              116.34841324353046,
              40.0146298063302
            ],
            [
              116.34837731399358,
              40.01468712932285
            ],
            [
              116.34834886471032,
              40.01474688415079
            ],
            [
              116.34832816967989,
              40.01480849534806
            ],
            [
              116.34831542822636,
              40.014871369569406
            ],
            [
              116.3483107630783,
              40.0149349013045
            ],
            [
              116.34831421918595,
              40.01499847870916
            ],
            [
              116.34832576328763,
              40.015061489497675
            ],
            [
              116.34834528422901,
              40.01512332683951
            ],
            [
              116.34837259403288,
              40.0151833952035
            ],
            [
              116.34840742970869,
              40.015241116093286
            ],
            [
              116.34844945578457,
              40.01529593361871
            ],
            [
              116.34849826753752,
              40.01534731984963
            ],
            [
              116.34855339489077,
              40.01539477990049
            ],
            [
              116.34861430694055,
              40.01543785669651
            ],
            [
              116.34868041706886,
              40.015476135376105
            ],
            [
              116.34875108859306,
              40.015509247286346
            ],
            [
              116.34882564089759,
              40.01553687353377
            ],
            [
              116.34890335598915,
              40.01555874805572
            ],
            [
              116.34898348541186,
              40.0155746601829
            ],
            [
              116.349065257456,
              40.01558445666853
            ],
            [
              116.3491478845907,
              40.01558804316432
            ],
            [
              116.3492305710491,
              40.01558538512922
            ],
            [
              116.34931252049293,
              40.01557650816209
            ],
            [
              116.34939294368253,
              40.01556149775517
            ],
            [
              116.34947106607852,
              40.01554049847066
            ],
            [
              116.34954613530171,
              40.01551371254833
            ],
            [
              116.34961742837974,
              40.01548139795768
            ],
            [
              116.3496842587102,
              40.01544386591327
            ],
            [
              116.34974598267335,
              40.015401477877326
            ],
            [
              116.34980200583097,
              40.01535464207827
            ],
            [
              116.34985178865101,
              40.01530380957902
            ],
            [
              116.34989485170377,
              40.01524946993258
            ],
            [
              116.34993078027858,
              40.01519214646717
            ],
            [
              116.3499592283775,
              40.01513239124588
            ],
            [
              116.34997992204683,
              40.01507077974984
            ],
            [
              116.34999266201483,
              40.01500790533572
            ],
            [
              116.34999732561005,
              40.014944373521274
            ],
            [
              116.34999386794183,
              40.01488079615377
            ]
          ]
        ]
      },
      "id": "PS-009"
    }
  ]
}
