{
  "type": "FeatureCollection",
  "name": "openworks_building_footprints",
  "features": [
    {
      "type": "Feature",
      "id": "BD-001",
      "properties": {
        "id": "BD-001",
        "layer": "BUILDING_FOOTPRINT",
        "name_zh": "源码区更新研究体量 1（留改为主）",
        "building_type": "mixed_use",
        "reversibility": "renewal_study",
        "renewal_action_zh": "留改为主（建议）",
        "host_land_use_code": "0802",
        "source_type": "agent_generated_design",
        "confidence": "low",
        "geometry_role": "design_proposal",
        "area_sqm_declared": 8018.985,
        "usage_note": "研究体量示意，不构成建筑高度、容积率、拆改留或工程结论；需在取得权属与现状建筑底数后重做。"
      },
      "geometry": {
        "type": "Polygon",
        "coordinates": [
          [
            [
              116.3471449063803,
              40.022105826765404
            ],
            [
              116.34701431844172,
              40.02195315857958
            ],
            [
              116.34681768067998,
              40.02185053237741
            ],
            [
              116.34658492916337,
              40.021813571821866
            ],
            [
              116.34635149756889,
              40.02184790371339
            ],
            [
              116.34615292309589,
              40.02194830142444
            ],
            [
              116.34611740501661,
              40.02198852716653
            ],
            [
              116.34608452053905,
              40.02215290965739
            ],
            [
              116.34608394572122,
              40.02215571882768
            ],
            [
              116.34601980379756,
              40.02246232420124
            ],
            [
              116.34614660119213,
              40.022610563463076
            ],
            [
              116.34634324009944,
              40.02271319080007
            ],
            [
              116.34657599452953,
              40.022750151858844
            ],
            [
              116.34680942909876,
              40.02271581954418
            ],
            [
              116.34700800486517,
              40.022615420731476
            ],
            [
              116.34714149018806,
              40.02246424046867
            ],
            [
              116.34718129641935,
              40.02231606743212
            ],
            [
              116.34717948835,
              40.02224480516369
            ],
            [
              116.3471449063803,
              40.022105826765404
            ]
          ]
        ]
      }
    },
    {
      "type": "Feature",
      "id": "BD-002",
      "properties": {
        "id": "BD-002",
        "layer": "BUILDING_FOOTPRINT",
        "name_zh": "源码区更新研究体量 2（留改为主）",
        "building_type": "mixed_use",
        "reversibility": "renewal_study",
        "renewal_action_zh": "留改为主（建议）",
        "host_land_use_code": "0802",
        "source_type": "agent_generated_design",
        "confidence": "low",
        "geometry_role": "design_proposal",
        "area_sqm_declared": 7998.611,
        "usage_note": "研究体量示意，不构成建筑高度、容积率、拆改留或工程结论；需在取得权属与现状建筑底数后重做。"
      },
      "geometry": {
        "type": "Polygon",
        "coordinates": [
          [
            [
              116.35033276882119,
              40.02151851722793
            ],
            [
              116.35020217483064,
              40.021365852571456
            ],
            [
              116.35000553389351,
              40.02126323174387
            ],
            [
              116.34977278256152,
              40.021226277589946
            ],
            [
              116.34953935448351,
              40.02126061593557
            ],
            [
              116.34934078632355,
              40.021361019170676
            ],
            [
              116.34930436888,
              40.02140226702307
            ],
            [
              116.34923888402139,
              40.02176853808603
            ],
            [
              116.34923825354284,
              40.0217719586838
            ],
            [
              116.34921668581082,
              40.02188555970869
            ],
            [
              116.34933449537195,
              40.022023281697095
            ],
            [
              116.34953113745496,
              40.02212590365941
            ],
            [
              116.34976389170048,
              40.022162858316364
            ],
            [
              116.349997322753,
              40.0221285195474
            ],
            [
              116.35019589220599,
              40.02202811521057
            ],
            [
              116.35032936937999,
              40.02187693119482
            ],
            [
              116.35037743383364,
              40.02169798414206
            ],
            [
              116.35033276882119,
              40.02151851722793
            ]
          ]
        ]
      }
    },
    {
      "type": "Feature",
      "id": "BD-003",
      "properties": {
        "id": "BD-003",
        "layer": "BUILDING_FOOTPRINT",
        "name_zh": "源码区更新研究体量 3（留改为主）",
        "building_type": "mixed_use",
        "reversibility": "renewal_study",
        "renewal_action_zh": "留改为主（建议）",
        "host_land_use_code": "0802",
        "source_type": "agent_generated_design",
        "confidence": "low",
        "geometry_role": "design_proposal",
        "area_sqm_declared": 8278.208,
        "usage_note": "研究体量示意，不构成建筑高度、容积率、拆改留或工程结论；需在取得权属与现状建筑底数后重做。"
      },
      "geometry": {
        "type": "Polygon",
        "coordinates": [
          [
            [
              116.35303521889567,
              40.020225467063206
            ],
            [
              116.35290462126746,
              40.02007280539015
            ],
            [
              116.35270797990583,
              40.01997018912302
            ],
            [
              116.35247523142709,
              40.019933240412364
            ],
            [
              116.35224180904568,
              40.01996758425542
            ],
            [
              116.35204324855852,
              40.0200679922052
            ],
            [
              116.35190977871962,
              40.020219178300366
            ],
            [
              116.35186171935042,
              40.02039812607441
            ],
            [
              116.35190638768582,
              40.02057759245986
            ],
            [
              116.35203698402141,
              40.02073025523467
            ],
            [
              116.35223362652916,
              40.02083287263638
            ],
            [
              116.35246637792139,
              40.020869821849885
            ],
            [
              116.35269980327699,
              40.02083547758336
            ],
            [
              116.35289836505679,
              40.02073506853185
            ],
            [
              116.3530318337496,
              40.02058388130206
            ],
            [
              116.35307989020528,
              40.0204049330252
            ],
            [
              116.35303521889567,
              40.020225467063206
            ]
          ]
        ]
      }
    },
    {
      "type": "Feature",
      "id": "BD-004",
      "properties": {
        "id": "BD-004",
        "layer": "BUILDING_FOOTPRINT",
        "name_zh": "源码区更新研究体量 4（留白用地可逆轻构）",
        "building_type": "incubator",
        "reversibility": "reversible_light",
        "renewal_action_zh": "可逆轻构（建议）",
        "host_land_use_code": "16",
        "source_type": "agent_generated_design",
        "confidence": "low",
        "geometry_role": "design_proposal",
        "area_sqm_declared": 3669.609,
        "usage_note": "研究体量示意，不构成建筑高度、容积率、拆改留或工程结论；需在取得权属与现状建筑底数后重做。"
      },
      "geometry": {
        "type": "Polygon",
        "coordinates": [
          [
            [
              116.34375751734392,
              40.01927459863706
            ],
            [
              116.34354189246135,
              40.01930630741321
            ],
            [
              116.34354149801355,
              40.020178293387694
            ],
            [
              116.34374854485655,
              40.02021117855615
            ],
            [
              116.34395325919446,
              40.02018107424583
            ],
            [
              116.34398658337645,
              40.019310981064656
            ],
            [
              116.34375751734392,
              40.01927459863706
            ]
          ]
        ]
      }
    },
    {
      "type": "Feature",
      "id": "BD-005",
      "properties": {
        "id": "BD-005",
        "layer": "BUILDING_FOOTPRINT",
        "name_zh": "源码区更新研究体量 5（留改为主）",
        "building_type": "mixed_use",
        "reversibility": "renewal_study",
        "renewal_action_zh": "留改为主（建议）",
        "host_land_use_code": "0802",
        "source_type": "agent_generated_design",
        "confidence": "low",
        "geometry_role": "design_proposal",
        "area_sqm_declared": 8278.208,
        "usage_note": "研究体量示意，不构成建筑高度、容积率、拆改留或工程结论；需在取得权属与现状建筑底数后重做。"
      },
      "geometry": {
        "type": "Polygon",
        "coordinates": [
          [
            [
              116.3530285390389,
              40.01039647491786
            ],
            [
              116.35289795986625,
              40.0102438131283
            ],
            [
              116.3527013465262,
              40.01014119690089
            ],
            [
              116.3524686313691,
              40.01010424838017
            ],
            [
              116.35223524253684,
              40.01013859253452
            ],
            [
              116.35203671071903,
              40.01023900086952
            ],
            [
              116.35190326030518,
              40.01039018736512
            ],
            [
              116.35185520815939,
              40.01056913549371
            ],
            [
              116.35189987041646,
              40.01074860213388
            ],
            [
              116.3520304482971,
              40.010901265024785
            ],
            [
              116.35222706278269,
              40.011003882386404
            ],
            [
              116.35245978085186,
              40.0110408314098
            ],
            [
              116.35269317265687,
              40.01100648683214
            ],
            [
              116.35289170576668,
              40.010906077395795
            ],
            [
              116.35302515503498,
              40.01075488976598
            ],
            [
              116.35307320426874,
              40.010575941134704
            ],
            [
              116.3530285390389,
              40.01039647491786
            ]
          ]
        ]
      }
    },
    {
      "type": "Feature",
      "id": "BD-006",
      "properties": {
        "id": "BD-006",
        "layer": "BUILDING_FOOTPRINT",
        "name_zh": "源码区更新研究体量 6（留白用地可逆轻构）",
        "building_type": "incubator",
        "reversibility": "reversible_light",
        "renewal_action_zh": "可逆轻构（建议）",
        "host_land_use_code": "16",
        "source_type": "agent_generated_design",
        "confidence": "low",
        "geometry_role": "design_proposal",
        "area_sqm_declared": 5814.296,
        "usage_note": "研究体量示意，不构成建筑高度、容积率、拆改留或工程结论；需在取得权属与现状建筑底数后重做。"
      },
      "geometry": {
        "type": "Polygon",
        "coordinates": [
          [
            [
              116.34412800032187,
              40.010084569155325
            ],
            [
              116.34389529021394,
              40.01004760345641
            ],
            [
              116.3436618975131,
              40.01008193031161
            ],
            [
              116.34353873955722,
              40.01014420498754
            ],
            [
              116.34353874539804,
              40.01088725615781
            ],
            [
              116.34365360951897,
              40.01094721869499
            ],
            [
              116.34388632253851,
              40.01098418489711
            ],
            [
              116.34411971821247,
              40.01094985761912
            ],
            [
              116.34423799525125,
              40.010890050706706
            ],
            [
              116.34425280653197,
              40.010149721422216
            ],
            [
              116.34412800032187,
              40.010084569155325
            ]
          ]
        ]
      }
    },
    {
      "type": "Feature",
      "id": "BD-007",
      "properties": {
        "id": "BD-007",
        "layer": "BUILDING_FOOTPRINT",
        "name_zh": "源码区更新研究体量 7（留改为主）",
        "building_type": "mixed_use",
        "reversibility": "renewal_study",
        "renewal_action_zh": "留改为主（建议）",
        "host_land_use_code": "0802",
        "source_type": "agent_generated_design",
        "confidence": "low",
        "geometry_role": "design_proposal",
        "area_sqm_declared": 3955.242,
        "usage_note": "研究体量示意，不构成建筑高度、容积率、拆改留或工程结论；需在取得权属与现状建筑底数后重做。"
      },
      "geometry": {
        "type": "Polygon",
        "coordinates": [
          [
            [
              116.34664896743229,
              40.00989738499098
            ],
            [
              116.3464155765482,
              40.00993171740819
            ],
            [
              116.34638253346442,
              40.00994842676735
            ],
            [
              116.34638553717528,
              40.009986578494235
            ],
            [
              116.34638557666611,
              40.009987085231415
            ],
            [
              116.34643905785455,
              40.01068045122482
            ],
            [
              116.34643911803406,
              40.010681244289735
            ],
            [
              116.34644824258874,
              40.01080350526259
            ],
            [
              116.34664003744012,
              40.01083396697162
            ],
            [
              116.3468734312972,
              40.010799634131466
            ],
            [
              116.34688890303994,
              40.01079181028365
            ],
            [
              116.34686708863926,
              40.00993202793055
            ],
            [
              116.34664896743229,
              40.00989738499098
            ]
          ]
        ]
      }
    },
    {
      "type": "Feature",
      "id": "BD-008",
      "properties": {
        "id": "BD-008",
        "layer": "BUILDING_FOOTPRINT",
        "name_zh": "源码区更新研究体量 8（留白用地可逆轻构）",
        "building_type": "incubator",
        "reversibility": "reversible_light",
        "renewal_action_zh": "可逆轻构（建议）",
        "host_land_use_code": "16",
        "source_type": "agent_generated_design",
        "confidence": "low",
        "geometry_role": "design_proposal",
        "area_sqm_declared": 7212.778,
        "usage_note": "研究体量示意，不构成建筑高度、容积率、拆改留或工程结论；需在取得权属与现状建筑底数后重做。"
      },
      "geometry": {
        "type": "Polygon",
        "coordinates": [
          [
            [
              116.35036239969799,
              40.010082478350654
            ],
            [
              116.35016579067279,
              40.00997985785251
            ],
            [
              116.34993307749845,
              40.00994290425428
            ],
            [
              116.34969968801497,
              40.009977243297286
            ],
            [
              116.34950115301112,
              40.01007764726527
            ],
            [
              116.34944764191151,
              40.01013826663477
            ],
            [
              116.34947895647153,
              40.01054401609524
            ],
            [
              116.34947901668615,
              40.010544809158866
            ],
            [
              116.34949346370644,
              40.01073827139232
            ],
            [
              116.34949486612051,
              40.010739911106135
            ],
            [
              116.34969147629093,
              40.01084253273855
            ],
            [
              116.34992419237722,
              40.01087948683961
            ],
            [
              116.35015758483352,
              40.010845147373445
            ],
            [
              116.35035612112966,
              40.0107447423042
            ],
            [
              116.35039325604872,
              40.010702673806186
            ],
            [
              116.35039326064214,
              40.010118560597455
            ],
            [
              116.35036239969799,
              40.010082478350654
            ]
          ]
        ]
      }
    },
    {
      "type": "Feature",
      "id": "BD-009",
      "properties": {
        "id": "BD-009",
        "layer": "BUILDING_FOOTPRINT",
        "name_zh": "编译区更新研究体量 9（留改为主）",
        "building_type": "mixed_use",
        "reversibility": "renewal_study",
        "renewal_action_zh": "留改为主（建议）",
        "host_land_use_code": "0804",
        "source_type": "agent_generated_design",
        "confidence": "low",
        "geometry_role": "design_proposal",
        "area_sqm_declared": 8278.208,
        "usage_note": "研究体量示意，不构成建筑高度、容积率、拆改留或工程结论；需在取得权属与现状建筑底数后重做。"
      },
      "geometry": {
        "type": "Polygon",
        "coordinates": [
          [
            [
              116.34391473668974,
              39.99232534083358
            ],
            [
              116.3437842118288,
              39.99217266874146
            ],
            [
              116.34358766380332,
              39.992070037260895
            ],
            [
              116.34335501502056,
              39.99203307085868
            ],
            [
              116.34312168351823,
              39.992067397225426
            ],
            [
              116.34292319125845,
              39.99216779057455
            ],
            [
              116.34278975660841,
              39.992318967167265
            ],
            [
              116.34274169403183,
              39.99249791198345
            ],
            [
              116.34278632125087,
              39.99267738240604
            ],
            [
              116.34291684481994,
              39.99283005559855
            ],
            [
              116.3431133939889,
              39.992932688212846
            ],
            [
              116.34334604568062,
              39.992969655117975
            ],
            [
              116.34357938015343,
              39.99293532832875
            ],
            [
              116.34377787370508,
              39.99283493387924
            ],
            [
              116.34391130721167,
              39.992683756152815
            ],
            [
              116.34395936687926,
              39.992504810833694
            ],
            [
              116.34391473668974,
              39.99232534083358
            ]
          ]
        ]
      }
    },
    {
      "type": "Feature",
      "id": "BD-010",
      "properties": {
        "id": "BD-010",
        "layer": "BUILDING_FOOTPRINT",
        "name_zh": "编译区更新研究体量 10（留改为主）",
        "building_type": "mixed_use",
        "reversibility": "renewal_study",
        "renewal_action_zh": "留改为主（建议）",
        "host_land_use_code": "0802",
        "source_type": "agent_generated_design",
        "confidence": "low",
        "geometry_role": "design_proposal",
        "area_sqm_declared": 7566.128,
        "usage_note": "研究体量示意，不构成建筑高度、容积率、拆改留或工程结论；需在取得权属与现状建筑底数后重做。"
      },
      "geometry": {
        "type": "Polygon",
        "coordinates": [
          [
            [
              116.35239964056105,
              39.99217127496214
            ],
            [
              116.35220307944651,
              39.99206865798929
            ],
            [
              116.35197042579001,
              39.99203170884429
            ],
            [
              116.35173709837106,
              39.9920660525906
            ],
            [
              116.35153861853027,
              39.992166460795886
            ],
            [
              116.35147059921304,
              39.99224354023272
            ],
            [
              116.35147060324256,
              39.99275651088438
            ],
            [
              116.3515323553014,
              39.99282872695728
            ],
            [
              116.35172891756041,
              39.992931345063646
            ],
            [
              116.3519615741263,
              39.99296829471106
            ],
            [
              116.35219490451536,
              39.99293395054172
            ],
            [
              116.35239338564708,
              39.992833541235804
            ],
            [
              116.35246139679111,
              39.992756469821856
            ],
            [
              116.35246140082064,
              39.99224349939048
            ],
            [
              116.35239964056105,
              39.99217127496214
            ]
          ]
        ]
      }
    },
    {
      "type": "Feature",
      "id": "BD-011",
      "properties": {
        "id": "BD-011",
        "layer": "BUILDING_FOOTPRINT",
        "name_zh": "编译区更新研究体量 11（留白用地可逆轻构）",
        "building_type": "incubator",
        "reversibility": "reversible_light",
        "renewal_action_zh": "可逆轻构（建议）",
        "host_land_use_code": "16",
        "source_type": "agent_generated_design",
        "confidence": "low",
        "geometry_role": "design_proposal",
        "area_sqm_declared": 8258.568,
        "usage_note": "研究体量示意，不构成建筑高度、容积率、拆改留或工程结论；需在取得权属与现状建筑底数后重做。"
      },
      "geometry": {
        "type": "Polygon",
        "coordinates": [
          [
            [
              116.34639669503589,
              39.99232433371049
            ],
            [
              116.34626616461236,
              39.99217166436909
            ],
            [
              116.34606961281742,
              39.9920690370677
            ],
            [
              116.34583696263213,
              39.99203207563691
            ],
            [
              116.34560363230766,
              39.992066407010505
            ],
            [
              116.34540514362686,
              39.99216680463968
            ],
            [
              116.3452717144121,
              39.99231798413406
            ],
            [
              116.34523861924993,
              39.992441220143206
            ],
            [
              116.34524104433106,
              39.99256683821158
            ],
            [
              116.3452682920278,
              39.99267639955109
            ],
            [
              116.34539882115972,
              39.99282906999296
            ],
            [
              116.3455953740984,
              39.99293169842801
            ],
            [
              116.34582802719278,
              39.99296866036156
            ],
            [
              116.34606136048761,
              39.99293432856535
            ],
            [
              116.34625985046003,
              39.992833929835705
            ],
            [
              116.34639327853102,
              39.99268274920767
            ],
            [
              116.34642631843349,
              39.99255971117451
            ],
            [
              116.34642303325595,
              39.99243023080253
            ],
            [
              116.34639669503589,
              39.99232433371049
            ]
          ]
        ]
      }
    },
    {
      "type": "Feature",
      "id": "BD-012",
      "properties": {
        "id": "BD-012",
        "layer": "BUILDING_FOOTPRINT",
        "name_zh": "编译区更新研究体量 12（留改为主）",
        "building_type": "mixed_use",
        "reversibility": "renewal_study",
        "renewal_action_zh": "留改为主（建议）",
        "host_land_use_code": "0804",
        "source_type": "agent_generated_design",
        "confidence": "low",
        "geometry_role": "design_proposal",
        "area_sqm_declared": 8278.208,
        "usage_note": "研究体量示意，不构成建筑高度、容积率、拆改留或工程结论；需在取得权属与现状建筑底数后重做。"
      },
      "geometry": {
        "type": "Polygon",
        "coordinates": [
          [
            [
              116.3438575786634,
              39.986401624261056
            ],
            [
              116.34372706502545,
              39.98624895204119
            ],
            [
              116.34353053394376,
              39.98614632049708
            ],
            [
              116.34329790524616,
              39.98610935410524
            ],
            [
              116.3430645939127,
              39.98614368055472
            ],
            [
              116.34286611883525,
              39.98624407404634
            ],
            [
              116.34273269576512,
              39.98639525081954
            ],
            [
              116.3426846374031,
              39.986574195826705
            ],
            [
              116.34272926082951,
              39.98675366642165
            ],
            [
              116.34285977317595,
              39.98690633974167
            ],
            [
              116.34305630540074,
              39.98700897241926
            ],
            [
              116.34328893700646,
              39.98704593931393
            ],
            [
              116.3435222513095,
              39.98701161244207
            ],
            [
              116.34372072767849,
              39.986911217850285
            ],
            [
              116.34385414960549,
              39.98676003994362
            ],
            [
              116.3439022050594,
              39.986581094433625
            ],
            [
              116.3438575786634,
              39.986401624261056
            ]
          ]
        ]
      }
    },
    {
      "type": "Feature",
      "id": "BD-013",
      "properties": {
        "id": "BD-013",
        "layer": "BUILDING_FOOTPRINT",
        "name_zh": "编译区更新研究体量 13（留改为主）",
        "building_type": "mixed_use",
        "reversibility": "renewal_study",
        "renewal_action_zh": "留改为主（建议）",
        "host_land_use_code": "0802",
        "source_type": "agent_generated_design",
        "confidence": "low",
        "geometry_role": "design_proposal",
        "area_sqm_declared": 7566.995,
        "usage_note": "研究体量示意，不构成建筑高度、容积率、拆改留或工程结论；需在取得权属与现状建筑底数后重做。"
      },
      "geometry": {
        "type": "Polygon",
        "coordinates": [
          [
            [
              116.35239915521097,
              39.98622599437494
            ],
            [
              116.35220261101819,
              39.98612337743224
            ],
            [
              116.3519699774887,
              39.986086428409436
            ],
            [
              116.35173667033801,
              39.98612077235138
            ],
            [
              116.35153820782132,
              39.98622118079594
            ],
            [
              116.35147055268952,
              39.986297854411504
            ],
            [
              116.35147055672512,
              39.98681164977585
            ],
            [
              116.35153194590619,
              39.986883447638654
            ],
            [
              116.35172849124307,
              39.9869860657146
            ],
            [
              116.35196112768108,
              39.98702301523973
            ],
            [
              116.35219443780097,
              39.98698867087488
            ],
            [
              116.3523929016082,
              39.98688826132993
            ],
            [
              116.35246144365159,
              39.986810581328285
            ],
            [
              116.35246144767096,
              39.98629884742434
            ],
            [
              116.35239915521097,
              39.98622599437494
            ]
          ]
        ]
      }
    },
    {
      "type": "Feature",
      "id": "BD-014",
      "properties": {
        "id": "BD-014",
        "layer": "BUILDING_FOOTPRINT",
        "name_zh": "编译区更新研究体量 14（留改为主）",
        "building_type": "mixed_use",
        "reversibility": "renewal_study",
        "renewal_action_zh": "留改为主（建议）",
        "host_land_use_code": "0802",
        "source_type": "agent_generated_design",
        "confidence": "low",
        "geometry_role": "design_proposal",
        "area_sqm_declared": 6769.903,
        "usage_note": "研究体量示意，不构成建筑高度、容积率、拆改留或工程结论；需在取得权属与现状建筑底数后重做。"
      },
      "geometry": {
        "type": "Polygon",
        "coordinates": [
          [
            [
              116.34597783148789,
              39.98607641191439
            ],
            [
              116.34578129747689,
              39.98597378416063
            ],
            [
              116.34554866808853,
              39.98593682228018
            ],
            [
              116.34531535840799,
              39.985971153275315
            ],
            [
              116.34511688707555,
              39.98607155065483
            ],
            [
              116.34511261173671,
              39.98607639515979
            ],
            [
              116.34511891186675,
              39.98639981230445
            ],
            [
              116.34512571765298,
              39.986741730193266
            ],
            [
              116.34530709834299,
              39.98683644555568
            ],
            [
              116.34553973063954,
              39.986873407938816
            ],
            [
              116.34577304328953,
              39.98683907652116
            ],
            [
              116.34595361708274,
              39.986747732264334
            ],
            [
              116.34598282189573,
              39.98608224928629
            ],
            [
              116.34597783148789,
              39.98607641191439
            ]
          ]
        ]
      }
    },
    {
      "type": "Feature",
      "id": "BD-015",
      "properties": {
        "id": "BD-015",
        "layer": "BUILDING_FOOTPRINT",
        "name_zh": "发行区更新研究体量 15（留改为主）",
        "building_type": "mixed_use",
        "reversibility": "renewal_study",
        "renewal_action_zh": "留改为主（建议）",
        "host_land_use_code": "05",
        "source_type": "agent_generated_design",
        "confidence": "low",
        "geometry_role": "design_proposal",
        "area_sqm_declared": 8278.208,
        "usage_note": "研究体量示意，不构成建筑高度、容积率、拆改留或工程结论；需在取得权属与现状建筑底数后重做。"
      },
      "geometry": {
        "type": "Polygon",
        "coordinates": [
          [
            [
              116.35352202457652,
              39.945624346736984
            ],
            [
              116.35339156559169,
              39.945471684776116
            ],
            [
              116.35319513574905,
              39.945369069715895
            ],
            [
              116.35296263946393,
              39.94533212352369
            ],
            [
              116.35272947155894,
              39.94536647081369
            ],
            [
              116.35253112909169,
              39.94546688261384
            ],
            [
              116.35239780762565,
              39.94561807237602
            ],
            [
              116.35234980439296,
              39.94579702307476
            ],
            [
              116.35239442807982,
              39.945976491197094
            ],
            [
              116.35252488577682,
              39.94612915425677
            ],
            [
              116.35272131676135,
              39.94623177044861
            ],
            [
              116.35295381594912,
              39.94626871714236
            ],
            [
              116.3531869868172,
              39.946234369430044
            ],
            [
              116.3533853305723,
              39.946133956531085
            ],
            [
              116.35351865089648,
              39.94598276563729
            ],
            [
              116.35356665122653,
              39.945803814437
            ],
            [
              116.35352202457652,
              39.945624346736984
            ]
          ]
        ]
      }
    },
    {
      "type": "Feature",
      "id": "BD-016",
      "properties": {
        "id": "BD-016",
        "layer": "BUILDING_FOOTPRINT",
        "name_zh": "发行区更新研究体量 16（留改为主）",
        "building_type": "mixed_use",
        "reversibility": "renewal_study",
        "renewal_action_zh": "留改为主（建议）",
        "host_land_use_code": "05",
        "source_type": "agent_generated_design",
        "confidence": "low",
        "geometry_role": "design_proposal",
        "area_sqm_declared": 8278.208,
        "usage_note": "研究体量示意，不构成建筑高度、容积率、拆改留或工程结论；需在取得权属与现状建筑底数后重做。"
      },
      "geometry": {
        "type": "Polygon",
        "coordinates": [
          [
            [
              116.34397634354106,
              39.94562307050333
            ],
            [
              116.34384590592322,
              39.94547039797199
            ],
            [
              116.34364949056705,
              39.945367766853145
            ],
            [
              116.34341699968265,
              39.94533080155894
            ],
            [
              116.3431838272706,
              39.94536512961147
            ],
            [
              116.34298547107446,
              39.94546552496736
            ],
            [
              116.34285212874762,
              39.94561670358186
            ],
            [
              116.34280410069788,
              39.94579565012674
            ],
            [
              116.3428486993895,
              39.94597512172151
            ],
            [
              116.34297913571842,
              39.94612779535141
            ],
            [
              116.34317555221541,
              39.9462304276021
            ],
            [
              116.34340804600197,
              39.94626739339843
            ],
            [
              116.34364122137758,
              39.946233064924165
            ],
            [
              116.34383957886261,
              39.94613266846974
            ],
            [
              116.34397292004867,
              39.945981488723355
            ],
            [
              116.34402094519623,
              39.94580254167637
            ],
            [
              116.34397634354106,
              39.94562307050333
            ]
          ]
        ]
      }
    }
  ]
}
