{
  "type": "FeatureCollection",
  "name": "openworks_phasing_versions",
  "features": [
    {
      "type": "Feature",
      "id": "PH-001",
      "properties": {
        "id": "PH-001",
        "layer": "PHASE",
        "phase_version": "v0",
        "name_zh": "v0 可逆启动版（0-12个月）",
        "irreversibility": "low",
        "rollback_trigger_zh": "指标未达阈值或official资料与假设冲突时回滚该版本增量。",
        "source_type": "agent_generated_design",
        "confidence": "medium",
        "geometry_role": "design_proposal",
        "area_sqm_declared": 720454.219,
        "scope_note_zh": "导视、铺装、轻构筑、场景试点等完全可逆干预；不依赖官方红线。",
        "usage_note": "分期为概念建议，不构成开发时序、投资或审批结论。"
      },
      "geometry": {
        "type": "Polygon",
        "coordinates": [
          [
            [
              116.342,
              39.94984
            ],
            [
              116.355,
              39.94984
            ],
            [
              116.355,
              39.944
            ],
            [
              116.342,
              39.944
            ],
            [
              116.342,
              39.94984
            ]
          ]
        ]
      }
    },
    {
      "type": "Feature",
      "id": "PH-002",
      "properties": {
        "id": "PH-002",
        "layer": "PHASE",
        "phase_version": "v1",
        "name_zh": "v1 缝合联通版（12-36个月）",
        "irreversibility": "medium",
        "rollback_trigger_zh": "指标未达阈值或official资料与假设冲突时回滚该版本增量。",
        "source_type": "agent_generated_design",
        "confidence": "medium",
        "geometry_role": "design_proposal",
        "area_sqm_declared": 1043236.909,
        "scope_note_zh": "慢行缝合、公共空间联通、留白用地试运营；部分依赖道路与权属资料。",
        "usage_note": "分期为概念建议，不构成开发时序、投资或审批结论。"
      },
      "geometry": {
        "type": "Polygon",
        "coordinates": [
          [
            [
              116.342,
              39.9935
            ],
            [
              116.353,
              39.9935
            ],
            [
              116.353,
              39.9835
            ],
            [
              116.342,
              39.9835
            ],
            [
              116.342,
              39.9935
            ]
          ]
        ]
      }
    },
    {
      "type": "Feature",
      "id": "PH-003",
      "properties": {
        "id": "PH-003",
        "layer": "PHASE",
        "phase_version": "v2",
        "name_zh": "v2 结构更新版（36个月以后）",
        "irreversibility": "high",
        "rollback_trigger_zh": "指标未达阈值或official资料与假设冲突时回滚该版本增量。",
        "source_type": "agent_generated_design",
        "confidence": "medium",
        "geometry_role": "design_proposal",
        "area_sqm_declared": 1929201.877,
        "scope_note_zh": "结构性更新与产业载体建设；必须在官方红线、控规与权属资料补齐后重新论证。",
        "usage_note": "分期为概念建议，不构成开发时序、投资或审批结论。"
      },
      "geometry": {
        "type": "Polygon",
        "coordinates": [
          [
            [
              116.343,
              40.026
            ],
            [
              116.354,
              40.026
            ],
            [
              116.354,
              40.0075
            ],
            [
              116.343,
              40.0075
            ],
            [
              116.343,
              40.026
            ]
          ]
        ]
      }
    }
  ]
}
