{
  "type": "FeatureCollection",
  "name": "openworks_road_centerlines",
  "features": [
    {
      "type": "Feature",
      "id": "RD-001",
      "properties": {
        "id": "RD-001",
        "layer": "ROAD_CENTERLINE",
        "road_class": "greenway",
        "design_role_zh": "开物主轴慢行脊线",
        "name_zh": "开物主轴慢行脊线（京张遗址公园南北贯通步行+骑行，概念线位）",
        "source_type": "agent_generated_design",
        "confidence": "medium",
        "geometry_role": "design_proposal",
        "length_m": 9585.971,
        "usage_note": "概念线位建议，不构成道路红线、工程线形或轨道线位结论。"
      },
      "geometry": {
        "type": "LineString",
        "coordinates": [
          [
            116.3471,
            39.9398
          ],
          [
            116.34714977241693,
            39.93993874715521
          ],
          [
            116.34721001365499,
            39.940081693218026
          ],
          [
            116.34727980200272,
            39.94022966431497
          ],
          [
            116.34735821574874,
            39.9403834865726
          ],
          [
            116.3474443331816,
            39.94054398611743
          ],
          [
            116.3475372325899,
            39.940711989076014
          ],
          [
            116.34763599226218,
            39.940888321574874
          ],
          [
            116.34773969048702,
            39.94107380974055
          ],
          [
            116.34784740555303,
            39.9412692796996
          ],
          [
            116.34795821574875,
            39.94147555757852
          ],
          [
            116.34807119936276,
            39.941693469503875
          ],
          [
            116.34818543468366,
            39.94192384160219
          ],
          [
            116.3483,
            39.942167500000004
          ],
          [
            116.34841397360036,
            39.942425270823854
          ],
          [
            116.34852643377333,
            39.942697980200286
          ],
          [
            116.34863645880746,
            39.94298645425581
          ],
          [
            116.34874312699134,
            39.94329151911699
          ],
          [
            116.34884551661357,
            39.943614000910344
          ],
          [
            116.34894270596267,
            39.94395472576241
          ],
          [
            116.34903377332726,
            39.94431451979973
          ],
          [
            116.34911779699591,
            39.94469420914885
          ],
          [
            116.34919385525716,
            39.945094619936285
          ],
          [
            116.34926102639963,
            39.94551657828858
          ],
          [
            116.34931838871188,
            39.94596091033228
          ],
          [
            116.34936502048247,
            39.94642844219391
          ],
          [
            116.3494,
            39.946920000000006
          ],
          [
            116.34942413518434,
            39.94743876593082
          ],
          [
            116.3494392353209,
            39.94798639963588
          ],
          [
            116.34944588074647,
            39.948561443445605
          ],
          [
            116.34944465179791,
            39.9491624396905
          ],
          [
            116.34943612881202,
            39.949787930700964
          ],
          [
            116.34942089212562,
            39.950436458807474
          ],
          [
            116.34939952207557,
            39.95110656634047
          ],
          [
            116.34937259899863,
            39.95179679563041
          ],
          [
            116.34934070323168,
            39.95250568900774
          ],
          [
            116.3493044151115,
            39.95323178880292
          ],
          [
            116.34926431497496,
            39.95397363734639
          ],
          [
            116.34922098315884,
            39.9547297769686
          ],
          [
            116.34917499999999,
            39.95549875000001
          ],
          [
            116.34912694583521,
            39.956279098771056
          ],
          [
            116.34907740100135,
            39.9570693656122
          ],
          [
            116.34902694583522,
            39.9578680928539
          ],
          [
            116.34897616067362,
            39.95867382282659
          ],
          [
            116.34892562585341,
            39.95948509786073
          ],
          [
            116.34887592171141,
            39.96030046028676
          ],
          [
            116.3488276285844,
            39.961118452435144
          ],
          [
            116.34878132680926,
            39.96193761663633
          ],
          [
            116.34873759672278,
            39.962756495220766
          ],
          [
            116.3486970186618,
            39.963573630518894
          ],
          [
            116.3486601729631,
            39.96438756486118
          ],
          [
            116.34862763996354,
            39.965196840578066
          ],
          [
            116.34859999999999,
            39.966
          ],
          [
            116.34857600421029,
            39.9668124004324
          ],
          [
            116.34855389167045,
            39.96764873008648
          ],
          [
            116.34853347462449,
            39.96850652765134
          ],
          [
            116.34851456531634,
            39.96938333181611
          ],
          [
            116.34849697598999,
            39.97027668126991
          ],
          [
            116.34848051888937,
            39.97118411470186
          ],
          [
            116.34846500625854,
            39.97210317080109
          ],
          [
            116.34845025034137,
            39.973031388256715
          ],
          [
            116.34843606338188,
            39.973966305757855
          ],
          [
            116.34842225762404,
            39.97490546199363
          ],
          [
            116.34840864531179,
            39.975846395653164
          ],
          [
            116.34839503868912,
            39.97678664542558
          ],
          [
            116.34838125,
            39.977723749999996
          ],
          [
            116.3483670914884,
            39.97865524806554
          ],
          [
            116.34835237539826,
            39.979578678311334
          ],
          [
            116.34833691397361,
            39.98049157942649
          ],
          [
            116.34832051945835,
            39.98139149010014
          ],
          [
            116.3483030040965,
            39.98227594902139
          ],
          [
            116.34828418013201,
            39.98314249487938
          ],
          [
            116.34826385980884,
            39.98398866636322
          ],
          [
            116.34824185537097,
            39.98481200216204
          ],
          [
            116.34821797906235,
            39.98561004096495
          ],
          [
            116.348192043127,
            39.986380321461084
          ],
          [
            116.34816385980884,
            39.98712038233955
          ],
          [
            116.34813324135186,
            39.98782776228948
          ],
          [
            116.3481,
            39.9885
          ],
          [
            116.34806265930816,
            39.98913415310651
          ],
          [
            116.34802020937643,
            39.98973076923077
          ],
          [
            116.34797316226673,
            39.99029262204142
          ],
          [
            116.34792203004096,
            39.9908224852071
          ],
          [
            116.34786732476104,
            39.991323132396445
          ],
          [
            116.34780955848885,
            39.99179733727811
          ],
          [
            116.3477492432863,
            39.99224787352072
          ],
          [
            116.34768689121529,
            39.9926775147929
          ],
          [
            116.34762301433774,
            39.99308903476332
          ],
          [
            116.34755812471553,
            39.9934852071006
          ],
          [
            116.34749273441057,
            39.993868805473376
          ],
          [
            116.34742735548475,
            39.9942426035503
          ],
          [
            116.3473625,
            39.994609375
          ],
          [
            116.34729868001823,
            39.994971893491126
          ],
          [
            116.34723640760127,
            39.99533293269231
          ],
          [
            116.34717619481111,
            39.9956952662722
          ],
          [
            116.3471185537096,
            39.99606166789942
          ],
          [
            116.34706399635867,
            39.99643491124261
          ],
          [
            116.34701303482022,
            39.99681776997042
          ],
          [
            116.34696618115613,
            39.997213017751484
          ],
          [
            116.34692394742831,
            39.99762342825444
          ],
          [
            116.34688684569869,
            39.998051775147935
          ],
          [
            116.34685538802916,
            39.9985008321006
          ],
          [
            116.34683008648159,
            39.99897337278107
          ],
          [
            116.34681145311791,
            39.99947217085799
          ],
          [
            116.3468,
            40.0
          ],
          [
            116.34679713529815,
            40.000556433488846
          ],
          [
            116.34680341374602,
            40.001137710514335
          ],
          [
            116.34681806725081,
            40.001741603607194
          ],
          [
            116.34684032771962,
            40.00236588529813
          ],
          [
            116.34686942705963,
            40.003008328117886
          ],
          [
            116.34690459717797,
            40.00366670459718
          ],
          [
            116.3469450699818,
            40.004338787266725
          ],
          [
            116.34699007737825,
            40.00502234865726
          ],
          [
            116.34703885127448,
            40.0057151612995
          ],
          [
            116.3470906235776,
            40.00641499772417
          ],
          [
            116.3471446261948,
            40.00711963046199
          ],
          [
            116.34720009103322,
            40.0078268320437
          ],
          [
            116.34725624999999,
            40.008534375
          ],
          [
            116.34731233500227,
            40.00924003186163
          ],
          [
            116.3473675779472,
            40.00994157515931
          ],
          [
            116.34742121074193,
            40.01063677742376
          ],
          [
            116.34747246529358,
            40.01132341118571
          ],
          [
            116.34752057350933,
            40.011999248975876
          ],
          [
            116.34756476729629,
            40.01266206332499
          ],
          [
            116.34760427856166,
            40.01330962676377
          ],
          [
            116.34763833921255,
            40.01393971182294
          ],
          [
            116.34766618115611,
            40.01455009103323
          ],
          [
            116.34768703629949,
            40.01513853692535
          ],
          [
            116.34770013654983,
            40.01570282203004
          ],
          [
            116.34770471381428,
            40.01624071887802
          ],
          [
            116.3477,
            40.01675
          ],
          [
            116.34768605200274,
            40.017239279415115
          ],
          [
            116.34766385980883,
            40.01771852526172
          ],
          [
            116.3476340549613,
            40.01818754124943
          ],
          [
            116.34759726900317,
            40.01864613108785
          ],
          [
            116.34755413347747,
            40.01909409848657
          ],
          [
            116.34750527992718,
            40.019531247155214
          ],
          [
            116.34745133989533,
            40.01995738080337
          ],
          [
            116.3473929449249,
            40.02037230314065
          ],
          [
            116.34733072655894,
            40.020775817876654
          ],
          [
            116.34726531634047,
            40.02116772872099
          ],
          [
            116.34719734581248,
            40.02154783938325
          ],
          [
            116.34712744651797,
            40.021915953573064
          ],
          [
            116.34705625,
            40.022271875
          ],
          [
            116.34698438780154,
            40.022615407373685
          ],
          [
            116.34691249146562,
            40.02294635440373
          ],
          [
            116.34684119253527,
            40.02326451979973
          ],
          [
            116.34677112255346,
            40.023569707271285
          ],
          [
            116.34670291306325,
            40.023861720528
          ],
          [
            116.34663719560763,
            40.02414036327948
          ],
          [
            116.34657460172961,
            40.024405439235316
          ],
          [
            116.34651576297222,
            40.024656752105145
          ],
          [
            116.34646131087845,
            40.02489410559855
          ],
          [
            116.34641187699133,
            40.02511730342513
          ],
          [
            116.34636809285387,
            40.02532614929449
          ],
          [
            116.34633059000907,
            40.02552044691625
          ],
          [
            116.3463,
            40.0257
          ]
        ]
      }
    },
    {
      "type": "Feature",
      "id": "RD-002",
      "properties": {
        "id": "RD-002",
        "layer": "ROAD_CENTERLINE",
        "road_class": "pedestrian",
        "design_role_zh": "开物横缝东西缝合步行连接",
        "name_zh": "开物横缝慢行连接·北缝·众智园—清河（源码区横缝）（概念线位）",
        "seam_id": "SEAM-N",
        "source_type": "agent_generated_design",
        "confidence": "medium",
        "geometry_role": "design_proposal",
        "length_m": 1089.087,
        "usage_note": "概念线位建议，不构成道路红线、工程线形或轨道线位结论。"
      },
      "geometry": {
        "type": "LineString",
        "coordinates": [
          [
            116.34211475156134,
            40.014502407007456
          ],
          [
            116.34220859375002,
            40.0145191015625
          ],
          [
            116.34251440000001,
            40.01457283999999
          ],
          [
            116.34280910625002,
            40.0146238559375
          ],
          [
            116.34309005000001,
            40.014671592499994
          ],
          [
            116.34335456875002,
            40.01471549281249
          ],
          [
            116.3436,
            40.014755
          ],
          [
            116.34383109999999,
            40.014792224687504
          ],
          [
            116.34405479999998,
            40.0148294975
          ],
          [
            116.3442717,
            40.0148665915625
          ],
          [
            116.3444824,
            40.01490328
          ],
          [
            116.34468749999999,
            40.0149393359375
          ],
          [
            116.34488759999999,
            40.0149745325
          ],
          [
            116.34508329999998,
            40.0150086428125
          ],
          [
            116.3452752,
            40.01504144
          ],
          [
            116.3454639,
            40.0150726971875
          ],
          [
            116.34564999999999,
            40.015102187500005
          ],
          [
            116.34583409999999,
            40.015129684062494
          ],
          [
            116.3460168,
            40.01515496
          ],
          [
            116.3461987,
            40.0151777884375
          ],
          [
            116.3463804,
            40.0151979425
          ],
          [
            116.3465625,
            40.0152151953125
          ],
          [
            116.3467456,
            40.015229319999996
          ],
          [
            116.3469303,
            40.015240089687495
          ],
          [
            116.34711719999999,
            40.0152472775
          ],
          [
            116.34730689999999,
            40.0152506565625
          ],
          [
            116.3475,
            40.01525
          ],
          [
            116.3476931,
            40.01524483
          ],
          [
            116.3478828,
            40.01523504
          ],
          [
            116.3480697,
            40.01522096
          ],
          [
            116.3482544,
            40.01520292
          ],
          [
            116.34843749999999,
            40.01518125
          ],
          [
            116.34861959999999,
            40.01515628
          ],
          [
            116.3488013,
            40.015128340000004
          ],
          [
            116.34898319999999,
            40.015097759999996
          ],
          [
            116.3491659,
            40.01506487
          ],
          [
            116.34934999999999,
            40.015029999999996
          ],
          [
            116.3495361,
            40.01499348
          ],
          [
            116.3497248,
            40.01495564
          ],
          [
            116.3499167,
            40.014916809999995
          ],
          [
            116.3501124,
            40.01487731999999
          ],
          [
            116.35031250000002,
            40.0148375
          ],
          [
            116.3505176,
            40.014797679999994
          ],
          [
            116.35072830000001,
            40.01475818999999
          ],
          [
            116.35094520000003,
            40.01471935999999
          ],
          [
            116.35116890000002,
            40.01468151999999
          ],
          [
            116.3514,
            40.014645
          ],
          [
            116.35164543125,
            40.0146077340625
          ],
          [
            116.35190994999999,
            40.014567697500006
          ],
          [
            116.35219089374999,
            40.014525282187506
          ],
          [
            116.3524856,
            40.01448088
          ],
          [
            116.35279140624999,
            40.014434882812495
          ],
          [
            116.35310565000002,
            40.0143876825
          ],
          [
            116.35342566874999,
            40.014339670937495
          ],
          [
            116.3537488,
            40.01429124
          ],
          [
            116.35407238125,
            40.01424278156251
          ],
          [
            116.35439375,
            40.0141946875
          ],
          [
            116.35462385049227,
            40.01416027148401
          ]
        ]
      }
    },
    {
      "type": "Feature",
      "id": "RD-003",
      "properties": {
        "id": "RD-003",
        "layer": "ROAD_CENTERLINE",
        "road_class": "pedestrian",
        "design_role_zh": "开物横缝东西缝合步行连接",
        "name_zh": "开物横缝慢行连接·中缝·五道口—清华东路西口（编译区横缝）（概念线位）",
        "seam_id": "SEAM-C",
        "source_type": "agent_generated_design",
        "confidence": "medium",
        "geometry_role": "design_proposal",
        "length_m": 1101.598,
        "usage_note": "概念线位建议，不构成道路红线、工程线形或轨道线位结论。"
      },
      "geometry": {
        "type": "LineString",
        "coordinates": [
          [
            116.3406801698661,
            39.99019263292464
          ],
          [
            116.34092761875,
            39.99023806031251
          ],
          [
            116.34125120000002,
            39.990297120000015
          ],
          [
            116.34157433125002,
            39.99035568468751
          ],
          [
            116.34189435,
            39.990413197500004
          ],
          [
            116.34220859375002,
            39.99046910156251
          ],
          [
            116.34251440000001,
            39.99052284000001
          ],
          [
            116.34280910625002,
            39.99057385593751
          ],
          [
            116.34309005000001,
            39.990621592500005
          ],
          [
            116.34335456875002,
            39.99066549281251
          ],
          [
            116.3436,
            39.990705000000005
          ],
          [
            116.34383109999999,
            39.99074222468751
          ],
          [
            116.34405479999998,
            39.99077949750001
          ],
          [
            116.3442717,
            39.990816591562506
          ],
          [
            116.3444824,
            39.99085328
          ],
          [
            116.34468749999999,
            39.9908893359375
          ],
          [
            116.34488759999999,
            39.9909245325
          ],
          [
            116.34508329999998,
            39.9909586428125
          ],
          [
            116.3452752,
            39.99099144000001
          ],
          [
            116.3454639,
            39.99102269718751
          ],
          [
            116.34564999999999,
            39.99105218750001
          ],
          [
            116.34583409999999,
            39.991079684062505
          ],
          [
            116.3460168,
            39.99110496000001
          ],
          [
            116.3461987,
            39.99112778843751
          ],
          [
            116.3463804,
            39.991147942500014
          ],
          [
            116.3465625,
            39.99116519531251
          ],
          [
            116.3467456,
            39.991179320000015
          ],
          [
            116.3469303,
            39.99119008968751
          ],
          [
            116.34711719999999,
            39.991197277500014
          ],
          [
            116.34730689999999,
            39.99120065656251
          ],
          [
            116.3475,
            39.991200000000006
          ],
          [
            116.3476931,
            39.991194830000005
          ],
          [
            116.3478828,
            39.991185040000005
          ],
          [
            116.3480697,
            39.991170960000005
          ],
          [
            116.3482544,
            39.991152920000005
          ],
          [
            116.34843749999999,
            39.99113125
          ],
          [
            116.34861959999999,
            39.99110628000001
          ],
          [
            116.3488013,
            39.99107834000001
          ],
          [
            116.34898319999999,
            39.99104776000001
          ],
          [
            116.3491659,
            39.99101487000001
          ],
          [
            116.34934999999999,
            39.99098000000001
          ],
          [
            116.3495361,
            39.990943480000006
          ],
          [
            116.3497248,
            39.99090564
          ],
          [
            116.3499167,
            39.990866810000014
          ],
          [
            116.3501124,
            39.99082732000001
          ],
          [
            116.35031250000002,
            39.99078750000001
          ],
          [
            116.3505176,
            39.99074768000001
          ],
          [
            116.35072830000001,
            39.99070819000001
          ],
          [
            116.35094520000003,
            39.990669360000005
          ],
          [
            116.35116890000002,
            39.99063152000001
          ],
          [
            116.3514,
            39.990595000000006
          ],
          [
            116.35164543125,
            39.990557734062506
          ],
          [
            116.35190994999999,
            39.99051769750001
          ],
          [
            116.35219089374999,
            39.99047528218751
          ],
          [
            116.3524856,
            39.990430880000005
          ],
          [
            116.35279140624999,
            39.990384882812506
          ],
          [
            116.35310565000002,
            39.990337682500005
          ],
          [
            116.35331676762107,
            39.990306009084435
          ]
        ]
      }
    },
    {
      "type": "Feature",
      "id": "RD-004",
      "properties": {
        "id": "RD-004",
        "layer": "ROAD_CENTERLINE",
        "road_class": "pedestrian",
        "design_role_zh": "开物横缝东西缝合步行连接",
        "name_zh": "开物横缝慢行连接·南缝·大钟寺站四象限（发行区横缝）（概念线位）",
        "seam_id": "SEAM-S",
        "source_type": "agent_generated_design",
        "confidence": "medium",
        "geometry_role": "design_proposal",
        "length_m": 1295.549,
        "usage_note": "概念线位建议，不构成道路红线、工程线形或轨道线位结论。"
      },
      "geometry": {
        "type": "LineString",
        "coordinates": [
          [
            116.3404452951813,
            39.94816937347322
          ],
          [
            116.34060625,
            39.9481990625
          ],
          [
            116.34092761875,
            39.948258060312504
          ],
          [
            116.34125120000002,
            39.94831712000001
          ],
          [
            116.34157433125002,
            39.948375684687505
          ],
          [
            116.34189435,
            39.9484331975
          ],
          [
            116.34220859375002,
            39.9484891015625
          ],
          [
            116.34251440000001,
            39.94854284000001
          ],
          [
            116.34280910625002,
            39.94859385593751
          ],
          [
            116.34309005000001,
            39.94864159250001
          ],
          [
            116.34335456875002,
            39.94868549281251
          ],
          [
            116.3436,
            39.948725
          ],
          [
            116.34383109999999,
            39.948762224687506
          ],
          [
            116.34405479999998,
            39.948799497500005
          ],
          [
            116.3442717,
            39.948836591562504
          ],
          [
            116.3444824,
            39.94887328
          ],
          [
            116.34468749999999,
            39.9489093359375
          ],
          [
            116.34488759999999,
            39.9489445325
          ],
          [
            116.34508329999998,
            39.948978642812506
          ],
          [
            116.3452752,
            39.94901144000001
          ],
          [
            116.3454639,
            39.94904269718751
          ],
          [
            116.34564999999999,
            39.94907218750001
          ],
          [
            116.34583409999999,
            39.9490996840625
          ],
          [
            116.3460168,
            39.949124960000006
          ],
          [
            116.3461987,
            39.94914778843751
          ],
          [
            116.3463804,
            39.949167942500004
          ],
          [
            116.3465625,
            39.9491851953125
          ],
          [
            116.3467456,
            39.949199320000005
          ],
          [
            116.3469303,
            39.949210089687504
          ],
          [
            116.34711719999999,
            39.94921727750002
          ],
          [
            116.34730689999999,
            39.94922065656252
          ],
          [
            116.3475,
            39.949220000000004
          ],
          [
            116.3476931,
            39.94921483
          ],
          [
            116.3478828,
            39.94920504
          ],
          [
            116.3480697,
            39.94919096
          ],
          [
            116.3482544,
            39.94917292
          ],
          [
            116.34843749999999,
            39.94915125
          ],
          [
            116.34861959999999,
            39.94912628000001
          ],
          [
            116.3488013,
            39.949098340000006
          ],
          [
            116.34898319999999,
            39.949067760000005
          ],
          [
            116.3491659,
            39.949034870000006
          ],
          [
            116.34934999999999,
            39.949000000000005
          ],
          [
            116.3495361,
            39.94896348
          ],
          [
            116.3497248,
            39.948925640000006
          ],
          [
            116.3499167,
            39.948886810000005
          ],
          [
            116.3501124,
            39.948847320000006
          ],
          [
            116.35031250000002,
            39.9488075
          ],
          [
            116.3505176,
            39.94876768
          ],
          [
            116.35072830000001,
            39.94872819000001
          ],
          [
            116.35094520000003,
            39.94868936000001
          ],
          [
            116.35116890000002,
            39.94865152000001
          ],
          [
            116.3514,
            39.948615000000004
          ],
          [
            116.35164543125,
            39.9485777340625
          ],
          [
            116.35190994999999,
            39.94853769750001
          ],
          [
            116.35219089374999,
            39.94849528218751
          ],
          [
            116.3524856,
            39.94845088
          ],
          [
            116.35279140624999,
            39.9484048828125
          ],
          [
            116.35310565000002,
            39.9483576825
          ],
          [
            116.35342566874999,
            39.9483096709375
          ],
          [
            116.3537488,
            39.94826124
          ],
          [
            116.35407238125,
            39.9482127815625
          ],
          [
            116.35439375,
            39.948164687500004
          ],
          [
            116.35471024374999,
            39.9481173496875
          ],
          [
            116.35501920000002,
            39.948071160000005
          ],
          [
            116.3553,
            39.94802919390808
          ]
        ]
      }
    }
  ]
}
