{
 "type": "FeatureCollection",
 "features": [
  {
   "type": "Feature",
   "properties": {
    "id": "GR-01",
    "name": "京张遗址公园主轴",
    "zone_id": "OVR",
    "raci": "R-GREEN",
    "gate": "G0_REGISTERED",
    "status": "provisional",
    "layer": "GREEN_SPACE",
    "source_type": "agent_generated_design",
    "confidence": "low",
    "geometry_role": "provisional_constraint"
   },
   "geometry": {
    "type": "LineString",
    "coordinates": [
     [
      116.335,
      39.985
     ],
     [
      116.338,
      39.975
     ],
     [
      116.341,
      39.965
     ],
     [
      116.344,
      39.9605
     ]
    ]
   },
   "id": "GR-01"
  },
  {
   "type": "Feature",
   "properties": {
    "id": "GR-02",
    "name": "清河滨水绿带",
    "zone_id": "ZJ-01",
    "raci": "R-GREEN",
    "gate": "G0_REGISTERED",
    "status": "provisional",
    "layer": "GREEN_SPACE",
    "source_type": "agent_generated_design",
    "confidence": "low",
    "geometry_role": "provisional_constraint"
   },
   "geometry": {
    "type": "Polygon",
    "coordinates": [
     [
      [
       116.321,
       39.988
      ],
      [
       116.335,
       39.988
      ],
      [
       116.335,
       39.9865
      ],
      [
       116.321,
       39.9865
      ],
      [
       116.321,
       39.988
      ]
     ]
    ]
   },
   "id": "GR-02"
  }
 ]
}