{
 "type": "FeatureCollection",
 "features": [
  {
   "type": "Feature",
   "properties": {
    "id": "LU-001",
    "name": "研发创新",
    "zone_id": "LU-001",
    "raci": "R-LAND",
    "gate": "G0_REGISTERED",
    "status": "provisional",
    "layer": "LAND_USE",
    "source_type": "agent_generated_design",
    "confidence": "low",
    "geometry_role": "provisional_constraint"
   },
   "geometry": {
    "type": "Polygon",
    "coordinates": [
     [
      [
       116.32,
       39.975
      ],
      [
       116.34,
       39.975
      ],
      [
       116.34,
       39.99
      ],
      [
       116.32,
       39.99
      ],
      [
       116.32,
       39.975
      ]
     ]
    ]
   },
   "id": "LU-001"
  },
  {
   "type": "Feature",
   "properties": {
    "id": "LU-002",
    "name": "绿意开敞",
    "zone_id": "LU-002",
    "raci": "R-LAND",
    "gate": "G0_REGISTERED",
    "status": "provisional",
    "layer": "LAND_USE",
    "source_type": "agent_generated_design",
    "confidence": "low",
    "geometry_role": "provisional_constraint"
   },
   "geometry": {
    "type": "Polygon",
    "coordinates": [
     [
      [
       116.34,
       39.975
      ],
      [
       116.36,
       39.975
      ],
      [
       116.36,
       39.99
      ],
      [
       116.34,
       39.99
      ],
      [
       116.34,
       39.975
      ]
     ]
    ]
   },
   "id": "LU-002"
  },
  {
   "type": "Feature",
   "properties": {
    "id": "LU-003",
    "name": "产业商业",
    "zone_id": "LU-003",
    "raci": "R-LAND",
    "gate": "G0_REGISTERED",
    "status": "provisional",
    "layer": "LAND_USE",
    "source_type": "agent_generated_design",
    "confidence": "low",
    "geometry_role": "provisional_constraint"
   },
   "geometry": {
    "type": "Polygon",
    "coordinates": [
     [
      [
       116.32,
       39.96
      ],
      [
       116.34,
       39.96
      ],
      [
       116.34,
       39.975
      ],
      [
       116.32,
       39.975
      ],
      [
       116.32,
       39.96
      ]
     ]
    ]
   },
   "id": "LU-003"
  },
  {
   "type": "Feature",
   "properties": {
    "id": "LU-004",
    "name": "人才社区",
    "zone_id": "LU-004",
    "raci": "R-LAND",
    "gate": "G0_REGISTERED",
    "status": "provisional",
    "layer": "LAND_USE",
    "source_type": "agent_generated_design",
    "confidence": "low",
    "geometry_role": "provisional_constraint"
   },
   "geometry": {
    "type": "Polygon",
    "coordinates": [
     [
      [
       116.34,
       39.96
      ],
      [
       116.36,
       39.96
      ],
      [
       116.36,
       39.975
      ],
      [
       116.34,
       39.975
      ],
      [
       116.34,
       39.96
      ]
     ]
    ]
   },
   "id": "LU-004"
  }
 ]
}