{
 "type": "FeatureCollection",
 "features": [
  {
   "type": "Feature",
   "properties": {
    "id": "PS-01",
    "name": "运行图正线主脊",
    "zone_id": "OVR",
    "raci": "R-GREEN",
    "gate": "G0_REGISTERED",
    "status": "provisional",
    "layer": "PUBLIC_SPACE",
    "source_type": "agent_generated_design",
    "confidence": "low",
    "geometry_role": "provisional_constraint"
   },
   "geometry": {
    "type": "LineString",
    "coordinates": [
     [
      116.335,
      39.985
     ],
     [
      116.34,
      39.97
     ],
     [
      116.342,
      39.955
     ],
     [
      116.345,
      39.948
     ]
    ]
   },
   "id": "PS-01"
  }
 ]
}