{
 "type": "FeatureCollection",
 "features": [
  {
   "type": "Feature",
   "id": "RD-01",
   "properties": {
    "id": "RD-01",
    "name": "主脊慢行路",
    "layer": "ROAD_CENTERLINE",
    "source_type": "agent_generated_design",
    "confidence": "low",
    "geometry_role": "provisional_constraint",
    "zone_id": "OVR",
    "raci": "R-MOBILITY",
    "gate": "G0_REGISTERED",
    "status": "provisional"
   },
   "geometry": {
    "type": "LineString",
    "coordinates": [
     [
      116.335,
      39.985
     ],
     [
      116.338,
      39.975
     ],
     [
      116.341,
      39.965
     ],
     [
      116.344,
      39.9605
     ]
    ]
   }
  }
 ]
}