{
 "type": "FeatureCollection",
 "features": [
  {
   "type": "Feature",
   "properties": {
    "id": "SITE-001",
    "name": "总体设计范围",
    "area_ha": 1141.0,
    "official_boundary": false,
    "geometry_role": "provisional_constraint",
    "zone_id": "OVR",
    "raci": "R-OVERALL",
    "gate": "G0_REGISTERED",
    "status": "provisional",
    "layer": "SITE_BOUNDARY",
    "source_type": "agent_inferred_from_public_data",
    "confidence": "low"
   },
   "geometry": {
    "type": "Polygon",
    "coordinates": [
     [
      [
       116.32,
       39.96
      ],
      [
       116.36,
       39.96
      ],
      [
       116.36,
       39.99
      ],
      [
       116.32,
       39.99
      ],
      [
       116.32,
       39.96
      ]
     ]
    ]
   },
   "id": "SITE-001"
  }
 ]
}