{
  "type": "FeatureCollection",
  "name": "public_space_design",
  "features": [
    {
      "type": "Feature",
      "id": "PUBLIC-001",
      "properties": {
        "id": "PUBLIC-001",
        "layer": "PUBLIC_SPACE",
        "source_type": "agent_generated_design",
        "confidence": "medium",
        "geometry_role": "design_proposal",
        "usage_note_zh": "概念性公共空间建议（参考方案），选址与规模待专业团队深化；不构成工程或审批结论。 应答钟为新铸概念构想，与大钟寺古钟博物馆为文化呼应关系，不涉及文物本体及其保护范围。",
        "name_zh": "钟声广场（大钟寺·应答钟概念广场与四象限步行缝合界面）",
        "area_sqm_declared": 27000.004
      },
      "geometry": {
        "type": "Polygon",
        "coordinates": [
          [
            [
              116.347580472,
              39.943723174
            ],
            [
              116.347567641,
              39.945074029
            ],
            [
              116.349673698,
              39.945085862
            ],
            [
              116.349686488,
              39.943735006
            ],
            [
              116.347580472,
              39.943723174
            ]
          ]
        ]
      }
    },
    {
      "type": "Feature",
      "id": "PUBLIC-002",
      "properties": {
        "id": "PUBLIC-002",
        "layer": "PUBLIC_SPACE",
        "source_type": "agent_generated_design",
        "confidence": "medium",
        "geometry_role": "design_proposal",
        "usage_note_zh": "概念性公共空间建议（参考方案），选址与规模待专业团队深化；不构成工程或审批结论。 清华园车站文保范围GIS缺失，本选点仅为待文物部门协商的概念选点，不得视为已确定落位。",
        "name_zh": "清华园车站站前纪念广场与零公里桩（概念选点，待文物部门协商）",
        "area_sqm_declared": 15399.993
      },
      "geometry": {
        "type": "Polygon",
        "coordinates": [
          [
            [
              116.342400382,
              39.987975845
            ],
            [
              116.342390883,
              39.988966463
            ],
            [
              116.344029974,
              39.988975751
            ],
            [
              116.344039449,
              39.987985133
            ],
            [
              116.342400382,
              39.987975845
            ]
          ]
        ]
      }
    },
    {
      "type": "Feature",
      "id": "PUBLIC-003",
      "properties": {
        "id": "PUBLIC-003",
        "layer": "PUBLIC_SPACE",
        "source_type": "agent_generated_design",
        "confidence": "medium",
        "geometry_role": "design_proposal",
        "usage_note_zh": "概念性公共空间建议（参考方案），选址与规模待专业团队深化；不构成工程或审批结论。 跨五环人字天桥为概念节点，不含桥梁工程结论。",
        "name_zh": "人字天桥北桥头·未来之问广场（概念节点）",
        "area_sqm_declared": 18200.005
      },
      "geometry": {
        "type": "Polygon",
        "coordinates": [
          [
            [
              116.346888659,
              40.016424733
            ],
            [
              116.346877498,
              40.017595459
            ],
            [
              116.348517275,
              40.01760469
            ],
            [
              116.348528408,
              40.016433963
            ],
            [
              116.346888659,
              40.016424733
            ]
          ]
        ]
      }
    },
    {
      "type": "Feature",
      "id": "PUBLIC-004",
      "properties": {
        "id": "PUBLIC-004",
        "layer": "PUBLIC_SPACE",
        "source_type": "agent_generated_design",
        "confidence": "medium",
        "geometry_role": "design_proposal",
        "usage_note_zh": "概念性公共空间建议（参考方案），选址与规模待专业团队深化；不构成工程或审批结论。 应答门依托遗址公园二期规划出入口表述，以实际建成为准。",
        "name_zh": "应答门社区微广场示范点（东翼·一页考卷界面，概念）",
        "area_sqm_declared": 4200.0
      },
      "geometry": {
        "type": "Polygon",
        "coordinates": [
          [
            [
              116.349764274,
              39.966412563
            ],
            [
              116.349759154,
              39.966952903
            ],
            [
              116.350578438,
              39.966957496
            ],
            [
              116.350583551,
              39.966417156
            ],
            [
              116.349764274,
              39.966412563
            ]
          ]
        ]
      }
    },
    {
      "type": "Feature",
      "id": "PUBLIC-005",
      "properties": {
        "id": "PUBLIC-005",
        "layer": "PUBLIC_SPACE",
        "source_type": "agent_generated_design",
        "confidence": "medium",
        "geometry_role": "design_proposal",
        "usage_note_zh": "概念性公共空间建议（参考方案），选址与规模待专业团队深化；不构成工程或审批结论。",
        "name_zh": "公园东翼慢行公共活动界面带（要素服务驿站与路演界面概念布点带）",
        "area_sqm_declared": 384138.271
      },
      "geometry": {
        "type": "Polygon",
        "coordinates": [
          [
            [
              116.347522362,
              39.949840126
            ],
            [
              116.346973749,
              40.007497036
            ],
            [
              116.347676407,
              40.007500993
            ],
            [
              116.348224429,
              39.949844075
            ],
            [
              116.347522362,
              39.949840126
            ]
          ]
        ]
      }
    }
  ]
}
