{
  "type": "FeatureCollection",
  "name": "open_model_loop_scenario_and_landmark_nodes",
  "features": [
    {
      "type": "Feature",
      "id": "SC-01",
      "properties": {
        "id": "SC-01",
        "layer": "SCENARIO_NODE",
        "source_type": "agent_generated_design",
        "confidence": "medium",
        "geometry_role": "design_proposal",
        "scenario_id": "SC-01",
        "name_zh": "开放模型评测场",
        "category_zh": "产业测试验证",
        "test_validation": true,
        "privacy_boundary_zh": "最小必要、聚合优先、明确告知、可退出、人工复核",
        "operation_status": "conceptual_pilot_subject_to_authorization"
      },
      "geometry": {
        "type": "Point",
        "coordinates": [
          116.3475,
          39.945125
        ]
      }
    },
    {
      "type": "Feature",
      "id": "SC-02",
      "properties": {
        "id": "SC-02",
        "layer": "SCENARIO_NODE",
        "source_type": "agent_generated_design",
        "confidence": "medium",
        "geometry_role": "design_proposal",
        "scenario_id": "SC-02",
        "name_zh": "端侧智能安全沙盒",
        "category_zh": "产业测试验证",
        "test_validation": true,
        "privacy_boundary_zh": "最小必要、聚合优先、明确告知、可退出、人工复核",
        "operation_status": "conceptual_pilot_subject_to_authorization"
      },
      "geometry": {
        "type": "Point",
        "coordinates": [
          116.3480414489865,
          39.9516875
        ]
      }
    },
    {
      "type": "Feature",
      "id": "SC-03",
      "properties": {
        "id": "SC-03",
        "layer": "SCENARIO_NODE",
        "source_type": "agent_generated_design",
        "confidence": "medium",
        "geometry_role": "design_proposal",
        "scenario_id": "SC-03",
        "name_zh": "城市机器人共存试验段",
        "category_zh": "产业测试验证",
        "test_validation": true,
        "privacy_boundary_zh": "最小必要、聚合优先、明确告知、可退出、人工复核",
        "operation_status": "conceptual_pilot_subject_to_authorization"
      },
      "geometry": {
        "type": "Point",
        "coordinates": [
          116.34736047455829,
          39.95825
        ]
      }
    },
    {
      "type": "Feature",
      "id": "SC-04",
      "properties": {
        "id": "SC-04",
        "layer": "SCENARIO_NODE",
        "source_type": "agent_generated_design",
        "confidence": "medium",
        "geometry_role": "design_proposal",
        "scenario_id": "SC-04",
        "name_zh": "京张记忆智能导览",
        "category_zh": "公共文化",
        "test_validation": false,
        "privacy_boundary_zh": "最小必要、聚合优先、明确告知、可退出、人工复核",
        "operation_status": "conceptual_pilot_subject_to_authorization"
      },
      "geometry": {
        "type": "Point",
        "coordinates": [
          116.34699450518345,
          39.9648125
        ]
      }
    },
    {
      "type": "Feature",
      "id": "SC-05",
      "properties": {
        "id": "SC-05",
        "layer": "SCENARIO_NODE",
        "source_type": "agent_generated_design",
        "confidence": "medium",
        "geometry_role": "design_proposal",
        "scenario_id": "SC-05",
        "name_zh": "无障碍慢行协助",
        "category_zh": "公共服务",
        "test_validation": false,
        "privacy_boundary_zh": "最小必要、聚合优先、明确告知、可退出、人工复核",
        "operation_status": "conceptual_pilot_subject_to_authorization"
      },
      "geometry": {
        "type": "Point",
        "coordinates": [
          116.34776978588972,
          39.971375
        ]
      }
    },
    {
      "type": "Feature",
      "id": "SC-06",
      "properties": {
        "id": "SC-06",
        "layer": "SCENARIO_NODE",
        "source_type": "agent_generated_design",
        "confidence": "medium",
        "geometry_role": "design_proposal",
        "scenario_id": "SC-06",
        "name_zh": "近校成果转化台",
        "category_zh": "创新服务",
        "test_validation": false,
        "privacy_boundary_zh": "最小必要、聚合优先、明确告知、可退出、人工复核",
        "operation_status": "conceptual_pilot_subject_to_authorization"
      },
      "geometry": {
        "type": "Point",
        "coordinates": [
          116.34793597396349,
          39.977937499999996
        ]
      }
    },
    {
      "type": "Feature",
      "id": "SC-07",
      "properties": {
        "id": "SC-07",
        "layer": "SCENARIO_NODE",
        "source_type": "agent_generated_design",
        "confidence": "medium",
        "geometry_role": "design_proposal",
        "scenario_id": "SC-07",
        "name_zh": "公共数据授权舱",
        "category_zh": "数据治理",
        "test_validation": false,
        "privacy_boundary_zh": "最小必要、聚合优先、明确告知、可退出、人工复核",
        "operation_status": "conceptual_pilot_subject_to_authorization"
      },
      "geometry": {
        "type": "Point",
        "coordinates": [
          116.34711786842057,
          39.9845
        ]
      }
    },
    {
      "type": "Feature",
      "id": "SC-08",
      "properties": {
        "id": "SC-08",
        "layer": "SCENARIO_NODE",
        "source_type": "agent_generated_design",
        "confidence": "medium",
        "geometry_role": "design_proposal",
        "scenario_id": "SC-08",
        "name_zh": "低碳算力驿站",
        "category_zh": "新型基础设施",
        "test_validation": false,
        "privacy_boundary_zh": "最小必要、聚合优先、明确告知、可退出、人工复核",
        "operation_status": "conceptual_pilot_subject_to_authorization"
      },
      "geometry": {
        "type": "Point",
        "coordinates": [
          116.34716249713672,
          39.9910625
        ]
      }
    },
    {
      "type": "Feature",
      "id": "SC-09",
      "properties": {
        "id": "SC-09",
        "layer": "SCENARIO_NODE",
        "source_type": "agent_generated_design",
        "confidence": "medium",
        "geometry_role": "design_proposal",
        "scenario_id": "SC-09",
        "name_zh": "社区法律与政务协作台",
        "category_zh": "公共服务",
        "test_validation": false,
        "privacy_boundary_zh": "最小必要、聚合优先、明确告知、可退出、人工复核",
        "operation_status": "conceptual_pilot_subject_to_authorization"
      },
      "geometry": {
        "type": "Point",
        "coordinates": [
          116.3479691023509,
          39.997625
        ]
      }
    },
    {
      "type": "Feature",
      "id": "SC-10",
      "properties": {
        "id": "SC-10",
        "layer": "SCENARIO_NODE",
        "source_type": "agent_generated_design",
        "confidence": "medium",
        "geometry_role": "design_proposal",
        "scenario_id": "SC-10",
        "name_zh": "国际开发者会客厅",
        "category_zh": "全球交流",
        "test_validation": false,
        "privacy_boundary_zh": "最小必要、聚合优先、明确告知、可退出、人工复核",
        "operation_status": "conceptual_pilot_subject_to_authorization"
      },
      "geometry": {
        "type": "Point",
        "coordinates": [
          116.34771662035293,
          40.0041875
        ]
      }
    },
    {
      "type": "Feature",
      "id": "SC-11",
      "properties": {
        "id": "SC-11",
        "layer": "SCENARIO_NODE",
        "source_type": "agent_generated_design",
        "confidence": "medium",
        "geometry_role": "design_proposal",
        "scenario_id": "SC-11",
        "name_zh": "智能终端体验街",
        "category_zh": "智能原生业态",
        "test_validation": false,
        "privacy_boundary_zh": "最小必要、聚合优先、明确告知、可退出、人工复核",
        "operation_status": "conceptual_pilot_subject_to_authorization"
      },
      "geometry": {
        "type": "Point",
        "coordinates": [
          116.34697507696943,
          40.01075
        ]
      }
    },
    {
      "type": "Feature",
      "id": "SC-12",
      "properties": {
        "id": "SC-12",
        "layer": "SCENARIO_NODE",
        "source_type": "agent_generated_design",
        "confidence": "medium",
        "geometry_role": "design_proposal",
        "scenario_id": "SC-12",
        "name_zh": "活动安全人工复核台",
        "category_zh": "公共治理",
        "test_validation": false,
        "privacy_boundary_zh": "最小必要、聚合优先、明确告知、可退出、人工复核",
        "operation_status": "conceptual_pilot_subject_to_authorization"
      },
      "geometry": {
        "type": "Point",
        "coordinates": [
          116.3474186465319,
          40.017312499999996
        ]
      }
    },
    {
      "type": "Feature",
      "id": "LM-01",
      "properties": {
        "id": "LM-01",
        "layer": "SCENARIO_NODE",
        "source_type": "agent_generated_design",
        "confidence": "medium",
        "geometry_role": "design_proposal",
        "scenario_id": "LM-01",
        "name_zh": "原点开源碑",
        "category_zh": "AI朝圣地标与荣誉展示",
        "test_validation": false,
        "narrative_zh": "记录公共代码、模型卡与城市贡献",
        "operation_status": "conceptual_landmark_subject_to_heritage_and_public_space_review"
      },
      "geometry": {
        "type": "Point",
        "coordinates": [
          116.3485,
          39.946920000000006
        ]
      }
    },
    {
      "type": "Feature",
      "id": "LM-02",
      "properties": {
        "id": "LM-02",
        "layer": "SCENARIO_NODE",
        "source_type": "agent_generated_design",
        "confidence": "medium",
        "geometry_role": "design_proposal",
        "scenario_id": "LM-02",
        "name_zh": "京张时空信标",
        "category_zh": "AI朝圣地标与荣誉展示",
        "test_validation": false,
        "narrative_zh": "把铁路里程、城市记忆和AI迭代并置",
        "operation_status": "conceptual_landmark_subject_to_heritage_and_public_space_review"
      },
      "geometry": {
        "type": "Point",
        "coordinates": [
          116.3475,
          39.9885
        ]
      }
    },
    {
      "type": "Feature",
      "id": "LM-03",
      "properties": {
        "id": "LM-03",
        "layer": "SCENARIO_NODE",
        "source_type": "agent_generated_design",
        "confidence": "medium",
        "geometry_role": "design_proposal",
        "scenario_id": "LM-03",
        "name_zh": "模型治理罗盘",
        "category_zh": "AI朝圣地标与荣誉展示",
        "test_validation": false,
        "narrative_zh": "展示测试边界、责任链与人类最终判断",
        "operation_status": "conceptual_landmark_subject_to_heritage_and_public_space_review"
      },
      "geometry": {
        "type": "Point",
        "coordinates": [
          116.3485,
          40.01675
        ]
      }
    }
  ]
}
