{
 "type": "FeatureCollection",
 "name": "ren_axis_roads",
 "features": [
  {
   "type": "Feature",
   "id": "RD-SPINE",
   "properties": {
    "id": "RD-SPINE",
    "layer": "ROAD_CENTERLINE",
    "source_type": "agent_generated_design",
    "confidence": "medium",
    "geometry_role": "design_proposal",
    "road_class": "greenway",
    "name_zh": "人字轴漫步道（京张遗址公园主轴慢行道）",
    "note_zh": "慢行与接驳概念线位，仅为参考方案，不构成道路红线或工程线形结论。"
   },
   "geometry": {
    "type": "LineString",
    "coordinates": [
     [
      116.34725,
      39.9395
     ],
     [
      116.34725,
      40.026
     ]
    ]
   }
  },
  {
   "type": "Feature",
   "id": "RD-CYC-W",
   "properties": {
    "id": "RD-CYC-W",
    "layer": "ROAD_CENTERLINE",
    "source_type": "agent_generated_design",
    "confidence": "medium",
    "geometry_role": "design_proposal",
    "road_class": "cycleway",
    "name_zh": "西翼骑行联络线（中关村科技服务翼方向）",
    "note_zh": "慢行与接驳概念线位，仅为参考方案，不构成道路红线或工程线形结论。"
   },
   "geometry": {
    "type": "LineString",
    "coordinates": [
     [
      116.3435,
      39.946
     ],
     [
      116.3435,
      40.023
     ]
    ]
   }
  },
  {
   "type": "Feature",
   "id": "RD-CYC-E",
   "properties": {
    "id": "RD-CYC-E",
    "layer": "ROAD_CENTERLINE",
    "source_type": "agent_generated_design",
    "confidence": "medium",
    "geometry_role": "design_proposal",
    "road_class": "cycleway",
    "name_zh": "东翼骑行联络线（小月河场景赋能翼方向）",
    "note_zh": "慢行与接驳概念线位，仅为参考方案，不构成道路红线或工程线形结论。"
   },
   "geometry": {
    "type": "LineString",
    "coordinates": [
     [
      116.352,
      39.945
     ],
     [
      116.352,
      40.023
     ]
    ]
   }
  },
  {
   "type": "Feature",
   "id": "RD-EW-1",
   "properties": {
    "id": "RD-EW-1",
    "layer": "ROAD_CENTERLINE",
    "source_type": "agent_generated_design",
    "confidence": "medium",
    "geometry_role": "design_proposal",
    "road_class": "pedestrian",
    "name_zh": "大钟寺站前四象限步行连通（概念）",
    "note_zh": "慢行与接驳概念线位，仅为参考方案，不构成道路红线或工程线形结论。"
   },
   "geometry": {
    "type": "LineString",
    "coordinates": [
     [
      116.34107777777778,
      39.947
     ],
     [
      116.3547,
      39.947
     ]
    ]
   }
  },
  {
   "type": "Feature",
   "id": "RD-EW-2",
   "properties": {
    "id": "RD-EW-2",
    "layer": "ROAD_CENTERLINE",
    "source_type": "agent_generated_design",
    "confidence": "medium",
    "geometry_role": "design_proposal",
    "road_class": "branch",
    "name_zh": "北三环西路慢行缝合段（概念下穿/过街改善）",
    "note_zh": "慢行与接驳概念线位，仅为参考方案，不构成道路红线或工程线形结论。"
   },
   "geometry": {
    "type": "LineString",
    "coordinates": [
     [
      116.34071111111112,
      39.9602
     ],
     [
      116.3547,
      39.9602
     ]
    ]
   }
  },
  {
   "type": "Feature",
   "id": "RD-EW-3",
   "properties": {
    "id": "RD-EW-3",
    "layer": "ROAD_CENTERLINE",
    "source_type": "agent_generated_design",
    "confidence": "medium",
    "geometry_role": "design_proposal",
    "road_class": "branch",
    "name_zh": "知春路慢行缝合段（概念过街优化）",
    "note_zh": "慢行与接驳概念线位，仅为参考方案，不构成道路红线或工程线形结论。"
   },
   "geometry": {
    "type": "LineString",
    "coordinates": [
     [
      116.3403,
      39.975
     ],
     [
      116.3539,
      39.975
     ]
    ]
   }
  },
  {
   "type": "Feature",
   "id": "RD-EW-4",
   "properties": {
    "id": "RD-EW-4",
    "layer": "ROAD_CENTERLINE",
    "source_type": "agent_generated_design",
    "confidence": "medium",
    "geometry_role": "design_proposal",
    "road_class": "branch",
    "name_zh": "北四环学院桥绿桥缝合段（概念）",
    "note_zh": "慢行与接驳概念线位，仅为参考方案，不构成道路红线或工程线形结论。"
   },
   "geometry": {
    "type": "LineString",
    "coordinates": [
     [
      116.34082258064517,
      39.9831
     ],
     [
      116.353252,
      39.9831
     ]
    ]
   }
  },
  {
   "type": "Feature",
   "id": "RD-EW-5",
   "properties": {
    "id": "RD-EW-5",
    "layer": "ROAD_CENTERLINE",
    "source_type": "agent_generated_design",
    "confidence": "medium",
    "geometry_role": "design_proposal",
    "road_class": "pedestrian",
    "name_zh": "原点社区校区园区连廊（概念步行优先街）",
    "note_zh": "慢行与接驳概念线位，仅为参考方案，不构成道路红线或工程线形结论。"
   },
   "geometry": {
    "type": "LineString",
    "coordinates": [
     [
      116.34117096774195,
      39.9885
     ],
     [
      116.35282,
      39.9885
     ]
    ]
   }
  },
  {
   "type": "Feature",
   "id": "RD-EW-6",
   "properties": {
    "id": "RD-EW-6",
    "layer": "ROAD_CENTERLINE",
    "source_type": "agent_generated_design",
    "confidence": "medium",
    "geometry_role": "design_proposal",
    "road_class": "local_access",
    "name_zh": "众智园创新环路（概念微循环）",
    "note_zh": "慢行与接驳概念线位，仅为参考方案，不构成道路红线或工程线形结论。"
   },
   "geometry": {
    "type": "LineString",
    "coordinates": [
     [
      116.34278780487806,
      40.016
     ],
     [
      116.35412465753424,
      40.016
     ]
    ]
   }
  },
  {
   "type": "Feature",
   "id": "RD-TC-1",
   "properties": {
    "id": "RD-TC-1",
    "layer": "ROAD_CENTERLINE",
    "source_type": "agent_generated_design",
    "confidence": "medium",
    "geometry_role": "design_proposal",
    "road_class": "transit_connection",
    "name_zh": "大钟寺轨道站接驳通道（概念）",
    "note_zh": "慢行与接驳概念线位，仅为参考方案，不构成道路红线或工程线形结论。"
   },
   "geometry": {
    "type": "LineString",
    "coordinates": [
     [
      116.3495,
      39.9445
     ],
     [
      116.34725,
      39.947
     ]
    ]
   }
  },
  {
   "type": "Feature",
   "id": "RD-TC-2",
   "properties": {
    "id": "RD-TC-2",
    "layer": "ROAD_CENTERLINE",
    "source_type": "agent_generated_design",
    "confidence": "medium",
    "geometry_role": "design_proposal",
    "road_class": "transit_connection",
    "name_zh": "五道口方向轨道接驳通道（概念）",
    "note_zh": "慢行与接驳概念线位，仅为参考方案，不构成道路红线或工程线形结论。"
   },
   "geometry": {
    "type": "LineString",
    "coordinates": [
     [
      116.352,
      39.988
     ],
     [
      116.34725,
      39.9885
     ]
    ]
   }
  },
  {
   "type": "Feature",
   "id": "RD-TC-3",
   "properties": {
    "id": "RD-TC-3",
    "layer": "ROAD_CENTERLINE",
    "source_type": "agent_generated_design",
    "confidence": "medium",
    "geometry_role": "design_proposal",
    "road_class": "transit_connection",
    "name_zh": "清华东路西口方向接驳通道（概念）",
    "note_zh": "慢行与接驳概念线位，仅为参考方案，不构成道路红线或工程线形结论。"
   },
   "geometry": {
    "type": "LineString",
    "coordinates": [
     [
      116.3435,
      39.993
     ],
     [
      116.34725,
      39.9935
     ]
    ]
   }
  }
 ]
}
