{
 "type": "FeatureCollection",
 "name": "buildings.geojson",
 "features": [
  {
   "type": "Feature",
   "id": "BLD-CF-01-0",
   "properties": {
    "id": "BLD-CF-01-0",
    "layer": "BUILDING_FOOTPRINT",
    "source_type": "agent_generated_design",
    "confidence": "medium",
    "geometry_role": "design_proposal",
    "name_zh": "混合功能",
    "building_type": "mixed_use",
    "est_floors": 8,
    "area_sqm_declared": 23038.895
   },
   "geometry": {
    "type": "Polygon",
    "coordinates": [
     [
      [
       116.343568,
       39.9398
      ],
      [
       116.343568,
       39.943200000000004
      ],
      [
       116.34428199999999,
       39.943200000000004
      ],
      [
       116.34428199999999,
       39.9398
      ],
      [
       116.343568,
       39.9398
      ]
     ]
    ]
   }
  },
  {
   "type": "Feature",
   "id": "BLD-CF-01-1",
   "properties": {
    "id": "BLD-CF-01-1",
    "layer": "BUILDING_FOOTPRINT",
    "source_type": "agent_generated_design",
    "confidence": "medium",
    "geometry_role": "design_proposal",
    "name_zh": "混合功能",
    "building_type": "mixed_use",
    "est_floors": 8,
    "area_sqm_declared": 23038.89
   },
   "geometry": {
    "type": "Polygon",
    "coordinates": [
     [
      [
       116.344618,
       39.9398
      ],
      [
       116.344618,
       39.943200000000004
      ],
      [
       116.345332,
       39.943200000000004
      ],
      [
       116.345332,
       39.9398
      ],
      [
       116.344618,
       39.9398
      ]
     ]
    ]
   }
  },
  {
   "type": "Feature",
   "id": "BLD-DZ-M1-0",
   "properties": {
    "id": "BLD-DZ-M1-0",
    "layer": "BUILDING_FOOTPRINT",
    "source_type": "agent_generated_design",
    "confidence": "medium",
    "geometry_role": "design_proposal",
    "name_zh": "混合功能",
    "building_type": "mixed_use",
    "est_floors": 10,
    "area_sqm_declared": 16656.931
   },
   "geometry": {
    "type": "Polygon",
    "coordinates": [
     [
      [
       116.340804,
       39.9449344
      ],
      [
       116.340804,
       39.9489056
      ],
      [
       116.341246,
       39.9489056
      ],
      [
       116.341246,
       39.9449344
      ],
      [
       116.340804,
       39.9449344
      ]
     ]
    ]
   }
  },
  {
   "type": "Feature",
   "id": "BLD-DZ-M1-1",
   "properties": {
    "id": "BLD-DZ-M1-1",
    "layer": "BUILDING_FOOTPRINT",
    "source_type": "agent_generated_design",
    "confidence": "medium",
    "geometry_role": "design_proposal",
    "name_zh": "混合功能",
    "building_type": "mixed_use",
    "est_floors": 10,
    "area_sqm_declared": 16656.928
   },
   "geometry": {
    "type": "Polygon",
    "coordinates": [
     [
      [
       116.341454,
       39.9449344
      ],
      [
       116.341454,
       39.9489056
      ],
      [
       116.341896,
       39.9489056
      ],
      [
       116.341896,
       39.9449344
      ],
      [
       116.341454,
       39.9449344
      ]
     ]
    ]
   }
  },
  {
   "type": "Feature",
   "id": "BLD-DT-G1-0",
   "properties": {
    "id": "BLD-DT-G1-0",
    "layer": "BUILDING_FOOTPRINT",
    "source_type": "agent_generated_design",
    "confidence": "medium",
    "geometry_role": "design_proposal",
    "name_zh": "实验室",
    "building_type": "lab",
    "est_floors": 8,
    "area_sqm_declared": 26907.331
   },
   "geometry": {
    "type": "Polygon",
    "coordinates": [
     [
      [
       116.343568,
       39.9449344
      ],
      [
       116.343568,
       39.9489056
      ],
      [
       116.34428199999999,
       39.9489056
      ],
      [
       116.34428199999999,
       39.9449344
      ],
      [
       116.343568,
       39.9449344
      ]
     ]
    ]
   }
  },
  {
   "type": "Feature",
   "id": "BLD-DT-G1-1",
   "properties": {
    "id": "BLD-DT-G1-1",
    "layer": "BUILDING_FOOTPRINT",
    "source_type": "agent_generated_design",
    "confidence": "medium",
    "geometry_role": "design_proposal",
    "name_zh": "实验室",
    "building_type": "lab",
    "est_floors": 8,
    "area_sqm_declared": 26907.325
   },
   "geometry": {
    "type": "Polygon",
    "coordinates": [
     [
      [
       116.344618,
       39.9449344
      ],
      [
       116.344618,
       39.9489056
      ],
      [
       116.345332,
       39.9489056
      ],
      [
       116.345332,
       39.9449344
      ],
      [
       116.344618,
       39.9449344
      ]
     ]
    ]
   }
  },
  {
   "type": "Feature",
   "id": "BLD-DT-G2-0",
   "properties": {
    "id": "BLD-DT-G2-0",
    "layer": "BUILDING_FOOTPRINT",
    "source_type": "agent_generated_design",
    "confidence": "medium",
    "geometry_role": "design_proposal",
    "name_zh": "孵化器/加速器",
    "building_type": "incubator",
    "est_floors": 6,
    "area_sqm_declared": 26907.331
   },
   "geometry": {
    "type": "Polygon",
    "coordinates": [
     [
      [
       116.343568,
       39.9449344
      ],
      [
       116.343568,
       39.9489056
      ],
      [
       116.34428199999999,
       39.9489056
      ],
      [
       116.34428199999999,
       39.9449344
      ],
      [
       116.343568,
       39.9449344
      ]
     ]
    ]
   }
  },
  {
   "type": "Feature",
   "id": "BLD-DT-G2-1",
   "properties": {
    "id": "BLD-DT-G2-1",
    "layer": "BUILDING_FOOTPRINT",
    "source_type": "agent_generated_design",
    "confidence": "medium",
    "geometry_role": "design_proposal",
    "name_zh": "孵化器/加速器",
    "building_type": "incubator",
    "est_floors": 6,
    "area_sqm_declared": 26907.325
   },
   "geometry": {
    "type": "Polygon",
    "coordinates": [
     [
      [
       116.344618,
       39.9449344
      ],
      [
       116.344618,
       39.9489056
      ],
      [
       116.345332,
       39.9489056
      ],
      [
       116.345332,
       39.9449344
      ],
      [
       116.344618,
       39.9449344
      ]
     ]
    ]
   }
  },
  {
   "type": "Feature",
   "id": "BLD-RES-01-0",
   "properties": {
    "id": "BLD-RES-01-0",
    "layer": "BUILDING_FOOTPRINT",
    "source_type": "agent_generated_design",
    "confidence": "medium",
    "geometry_role": "design_proposal",
    "name_zh": "居住",
    "building_type": "residential",
    "est_floors": 12,
    "area_sqm_declared": 70188.985
   },
   "geometry": {
    "type": "Polygon",
    "coordinates": [
     [
      [
       116.34571333333334,
       39.96192
      ],
      [
       116.34571333333334,
       39.97008
      ],
      [
       116.34662,
       39.97008
      ],
      [
       116.34662,
       39.96192
      ],
      [
       116.34571333333334,
       39.96192
      ]
     ]
    ]
   }
  },
  {
   "type": "Feature",
   "id": "BLD-RES-01-1",
   "properties": {
    "id": "BLD-RES-01-1",
    "layer": "BUILDING_FOOTPRINT",
    "source_type": "agent_generated_design",
    "confidence": "medium",
    "geometry_role": "design_proposal",
    "name_zh": "居住",
    "building_type": "residential",
    "est_floors": 12,
    "area_sqm_declared": 70188.963
   },
   "geometry": {
    "type": "Polygon",
    "coordinates": [
     [
      [
       116.34704666666667,
       39.96192
      ],
      [
       116.34704666666667,
       39.97008
      ],
      [
       116.34795333333334,
       39.97008
      ],
      [
       116.34795333333334,
       39.96192
      ],
      [
       116.34704666666667,
       39.96192
      ]
     ]
    ]
   }
  },
  {
   "type": "Feature",
   "id": "BLD-RES-01-2",
   "properties": {
    "id": "BLD-RES-01-2",
    "layer": "BUILDING_FOOTPRINT",
    "source_type": "agent_generated_design",
    "confidence": "medium",
    "geometry_role": "design_proposal",
    "name_zh": "居住",
    "building_type": "residential",
    "est_floors": 12,
    "area_sqm_declared": 70188.941
   },
   "geometry": {
    "type": "Polygon",
    "coordinates": [
     [
      [
       116.34838,
       39.96192
      ],
      [
       116.34838,
       39.97008
      ],
      [
       116.34928666666667,
       39.97008
      ],
      [
       116.34928666666667,
       39.96192
      ],
      [
       116.34838,
       39.96192
      ]
     ]
    ]
   }
  },
  {
   "type": "Feature",
   "id": "BLD-OR-G1-0",
   "properties": {
    "id": "BLD-OR-G1-0",
    "layer": "BUILDING_FOOTPRINT",
    "source_type": "agent_generated_design",
    "confidence": "medium",
    "geometry_role": "design_proposal",
    "name_zh": "孵化器/加速器",
    "building_type": "incubator",
    "est_floors": 10,
    "area_sqm_declared": 30697.747
   },
   "geometry": {
    "type": "Polygon",
    "coordinates": [
     [
      [
       116.343512,
       39.985099999999996
      ],
      [
       116.343512,
       39.9919
      ],
      [
       116.343988,
       39.9919
      ],
      [
       116.343988,
       39.985099999999996
      ],
      [
       116.343512,
       39.985099999999996
      ]
     ]
    ]
   }
  },
  {
   "type": "Feature",
   "id": "BLD-OR-G1-1",
   "properties": {
    "id": "BLD-OR-G1-1",
    "layer": "BUILDING_FOOTPRINT",
    "source_type": "agent_generated_design",
    "confidence": "medium",
    "geometry_role": "design_proposal",
    "name_zh": "孵化器/加速器",
    "building_type": "incubator",
    "est_floors": 10,
    "area_sqm_declared": 30697.742
   },
   "geometry": {
    "type": "Polygon",
    "coordinates": [
     [
      [
       116.344212,
       39.985099999999996
      ],
      [
       116.344212,
       39.9919
      ],
      [
       116.344688,
       39.9919
      ],
      [
       116.344688,
       39.985099999999996
      ],
      [
       116.344212,
       39.985099999999996
      ]
     ]
    ]
   }
  },
  {
   "type": "Feature",
   "id": "BLD-OR-G1-2",
   "properties": {
    "id": "BLD-OR-G1-2",
    "layer": "BUILDING_FOOTPRINT",
    "source_type": "agent_generated_design",
    "confidence": "medium",
    "geometry_role": "design_proposal",
    "name_zh": "孵化器/加速器",
    "building_type": "incubator",
    "est_floors": 10,
    "area_sqm_declared": 30697.737
   },
   "geometry": {
    "type": "Polygon",
    "coordinates": [
     [
      [
       116.34491200000001,
       39.985099999999996
      ],
      [
       116.34491200000001,
       39.9919
      ],
      [
       116.345388,
       39.9919
      ],
      [
       116.345388,
       39.985099999999996
      ],
      [
       116.34491200000001,
       39.985099999999996
      ]
     ]
    ]
   }
  },
  {
   "type": "Feature",
   "id": "BLD-WDC-M1-0",
   "properties": {
    "id": "BLD-WDC-M1-0",
    "layer": "BUILDING_FOOTPRINT",
    "source_type": "agent_generated_design",
    "confidence": "medium",
    "geometry_role": "design_proposal",
    "name_zh": "商业服务",
    "building_type": "retail",
    "est_floors": 6,
    "area_sqm_declared": 175415.544
   },
   "geometry": {
    "type": "Polygon",
    "coordinates": [
     [
      [
       116.34614,
       39.985099999999996
      ],
      [
       116.34614,
       39.9919
      ],
      [
       116.34886,
       39.9919
      ],
      [
       116.34886,
       39.985099999999996
      ],
      [
       116.34614,
       39.985099999999996
      ]
     ]
    ]
   }
  },
  {
   "type": "Feature",
   "id": "BLD-ZZ-G1-0",
   "properties": {
    "id": "BLD-ZZ-G1-0",
    "layer": "BUILDING_FOOTPRINT",
    "source_type": "agent_generated_design",
    "confidence": "medium",
    "geometry_role": "design_proposal",
    "name_zh": "实验室",
    "building_type": "lab",
    "est_floors": 12,
    "area_sqm_declared": 46039.983
   },
   "geometry": {
    "type": "Polygon",
    "coordinates": [
     [
      [
       116.343568,
       39.9951
      ],
      [
       116.343568,
       40.0019
      ],
      [
       116.34428199999999,
       40.0019
      ],
      [
       116.34428199999999,
       39.9951
      ],
      [
       116.343568,
       39.9951
      ]
     ]
    ]
   }
  },
  {
   "type": "Feature",
   "id": "BLD-ZZ-G1-1",
   "properties": {
    "id": "BLD-ZZ-G1-1",
    "layer": "BUILDING_FOOTPRINT",
    "source_type": "agent_generated_design",
    "confidence": "medium",
    "geometry_role": "design_proposal",
    "name_zh": "实验室",
    "building_type": "lab",
    "est_floors": 12,
    "area_sqm_declared": 46039.971
   },
   "geometry": {
    "type": "Polygon",
    "coordinates": [
     [
      [
       116.344618,
       39.9951
      ],
      [
       116.344618,
       40.0019
      ],
      [
       116.345332,
       40.0019
      ],
      [
       116.345332,
       39.9951
      ],
      [
       116.344618,
       39.9951
      ]
     ]
    ]
   }
  },
  {
   "type": "Feature",
   "id": "BLD-TA-A-0",
   "properties": {
    "id": "BLD-TA-A-0",
    "layer": "BUILDING_FOOTPRINT",
    "source_type": "agent_generated_design",
    "confidence": "medium",
    "geometry_role": "design_proposal",
    "name_zh": "人才公寓",
    "building_type": "talent_apartment",
    "est_floors": 18,
    "area_sqm_declared": 87695.152
   },
   "geometry": {
    "type": "Polygon",
    "coordinates": [
     [
      [
       116.34582,
       39.9951
      ],
      [
       116.34582,
       40.0019
      ],
      [
       116.34718,
       40.0019
      ],
      [
       116.34718,
       39.9951
      ],
      [
       116.34582,
       39.9951
      ]
     ]
    ]
   }
  },
  {
   "type": "Feature",
   "id": "BLD-TA-A-1",
   "properties": {
    "id": "BLD-TA-A-1",
    "layer": "BUILDING_FOOTPRINT",
    "source_type": "agent_generated_design",
    "confidence": "medium",
    "geometry_role": "design_proposal",
    "name_zh": "人才公寓",
    "building_type": "talent_apartment",
    "est_floors": 18,
    "area_sqm_declared": 87695.111
   },
   "geometry": {
    "type": "Polygon",
    "coordinates": [
     [
      [
       116.34782,
       39.9951
      ],
      [
       116.34782,
       40.0019
      ],
      [
       116.34918,
       40.0019
      ],
      [
       116.34918,
       39.9951
      ],
      [
       116.34782,
       39.9951
      ]
     ]
    ]
   }
  },
  {
   "type": "Feature",
   "id": "BLD-AI-G1-0",
   "properties": {
    "id": "BLD-AI-G1-0",
    "layer": "BUILDING_FOOTPRINT",
    "source_type": "agent_generated_design",
    "confidence": "medium",
    "geometry_role": "design_proposal",
    "name_zh": "AI研发",
    "building_type": "ai_r_and_d",
    "est_floors": 12,
    "area_sqm_declared": 338.015
   },
   "geometry": {
    "type": "Polygon",
    "coordinates": [
     [
      [
       116.3418684390244,
       40.008244
      ],
      [
       116.34180946341463,
       40.008244
      ],
      [
       116.3418684390244,
       40.009453000000036
      ],
      [
       116.3418684390244,
       40.008244
      ]
     ]
    ]
   }
  },
  {
   "type": "Feature",
   "id": "BLD-AI-G1-1",
   "properties": {
    "id": "BLD-AI-G1-1",
    "layer": "BUILDING_FOOTPRINT",
    "source_type": "agent_generated_design",
    "confidence": "medium",
    "geometry_role": "design_proposal",
    "name_zh": "AI研发",
    "building_type": "ai_r_and_d",
    "est_floors": 12,
    "area_sqm_declared": 1974.054
   },
   "geometry": {
    "type": "Polygon",
    "coordinates": [
     [
      [
       116.34198185365854,
       40.01140599999997
      ],
      [
       116.34198185365854,
       40.008244
      ],
      [
       116.34190473170732,
       40.008244
      ],
      [
       116.34190473170732,
       40.010196999999934
      ],
      [
       116.34196370731708,
       40.01140599999997
      ],
      [
       116.34198185365854,
       40.01140599999997
      ]
     ]
    ]
   }
  },
  {
   "type": "Feature",
   "id": "BLD-AI-G2-0",
   "properties": {
    "id": "BLD-AI-G2-0",
    "layer": "BUILDING_FOOTPRINT",
    "source_type": "agent_generated_design",
    "confidence": "medium",
    "geometry_role": "design_proposal",
    "name_zh": "AI研发",
    "building_type": "ai_r_and_d",
    "est_floors": 10,
    "area_sqm_declared": 29920.703
   },
   "geometry": {
    "type": "Polygon",
    "coordinates": [
     [
      [
       116.343568,
       40.00854
      ],
      [
       116.343568,
       40.01296
      ],
      [
       116.34428199999999,
       40.01296
      ],
      [
       116.34428199999999,
       40.00854
      ],
      [
       116.343568,
       40.00854
      ]
     ]
    ]
   }
  },
  {
   "type": "Feature",
   "id": "BLD-AI-G2-1",
   "properties": {
    "id": "BLD-AI-G2-1",
    "layer": "BUILDING_FOOTPRINT",
    "source_type": "agent_generated_design",
    "confidence": "medium",
    "geometry_role": "design_proposal",
    "name_zh": "AI研发",
    "building_type": "ai_r_and_d",
    "est_floors": 10,
    "area_sqm_declared": 29920.696
   },
   "geometry": {
    "type": "Polygon",
    "coordinates": [
     [
      [
       116.344618,
       40.00854
      ],
      [
       116.344618,
       40.01296
      ],
      [
       116.345332,
       40.01296
      ],
      [
       116.345332,
       40.00854
      ],
      [
       116.344618,
       40.00854
      ]
     ]
    ]
   }
  },
  {
   "type": "Feature",
   "id": "BLD-TH-C-0",
   "properties": {
    "id": "BLD-TH-C-0",
    "layer": "BUILDING_FOOTPRINT",
    "source_type": "agent_generated_design",
    "confidence": "medium",
    "geometry_role": "design_proposal",
    "name_zh": "居住",
    "building_type": "residential",
    "est_floors": 15,
    "area_sqm_declared": 56991.782
   },
   "geometry": {
    "type": "Polygon",
    "coordinates": [
     [
      [
       116.34582,
       40.00854
      ],
      [
       116.34582,
       40.01296
      ],
      [
       116.34718,
       40.01296
      ],
      [
       116.34718,
       40.00854
      ],
      [
       116.34582,
       40.00854
      ]
     ]
    ]
   }
  },
  {
   "type": "Feature",
   "id": "BLD-TH-C-1",
   "properties": {
    "id": "BLD-TH-C-1",
    "layer": "BUILDING_FOOTPRINT",
    "source_type": "agent_generated_design",
    "confidence": "medium",
    "geometry_role": "design_proposal",
    "name_zh": "居住",
    "building_type": "residential",
    "est_floors": 15,
    "area_sqm_declared": 56991.755
   },
   "geometry": {
    "type": "Polygon",
    "coordinates": [
     [
      [
       116.34782,
       40.00854
      ],
      [
       116.34782,
       40.01296
      ],
      [
       116.34918,
       40.01296
      ],
      [
       116.34918,
       40.00854
      ],
      [
       116.34782,
       40.00854
      ]
     ]
    ]
   }
  },
  {
   "type": "Feature",
   "id": "BLD-HQ-C-0",
   "properties": {
    "id": "BLD-HQ-C-0",
    "layer": "BUILDING_FOOTPRINT",
    "source_type": "agent_generated_design",
    "confidence": "medium",
    "geometry_role": "design_proposal",
    "name_zh": "AI研发",
    "building_type": "ai_r_and_d",
    "est_floors": 16,
    "area_sqm_declared": 38354.621
   },
   "geometry": {
    "type": "Polygon",
    "coordinates": [
     [
      [
       116.343512,
       40.016000000000005
      ],
      [
       116.343512,
       40.024499999999996
      ],
      [
       116.343988,
       40.024499999999996
      ],
      [
       116.343988,
       40.016000000000005
      ],
      [
       116.343512,
       40.016000000000005
      ]
     ]
    ]
   }
  },
  {
   "type": "Feature",
   "id": "BLD-HQ-C-1",
   "properties": {
    "id": "BLD-HQ-C-1",
    "layer": "BUILDING_FOOTPRINT",
    "source_type": "agent_generated_design",
    "confidence": "medium",
    "geometry_role": "design_proposal",
    "name_zh": "AI研发",
    "building_type": "ai_r_and_d",
    "est_floors": 16,
    "area_sqm_declared": 38354.615
   },
   "geometry": {
    "type": "Polygon",
    "coordinates": [
     [
      [
       116.344212,
       40.016000000000005
      ],
      [
       116.344212,
       40.024499999999996
      ],
      [
       116.344688,
       40.024499999999996
      ],
      [
       116.344688,
       40.016000000000005
      ],
      [
       116.344212,
       40.016000000000005
      ]
     ]
    ]
   }
  },
  {
   "type": "Feature",
   "id": "BLD-HQ-C-2",
   "properties": {
    "id": "BLD-HQ-C-2",
    "layer": "BUILDING_FOOTPRINT",
    "source_type": "agent_generated_design",
    "confidence": "medium",
    "geometry_role": "design_proposal",
    "name_zh": "AI研发",
    "building_type": "ai_r_and_d",
    "est_floors": 16,
    "area_sqm_declared": 38354.609
   },
   "geometry": {
    "type": "Polygon",
    "coordinates": [
     [
      [
       116.34491200000001,
       40.016000000000005
      ],
      [
       116.34491200000001,
       40.024499999999996
      ],
      [
       116.345388,
       40.024499999999996
      ],
      [
       116.345388,
       40.016000000000005
      ],
      [
       116.34491200000001,
       40.016000000000005
      ]
     ]
    ]
   }
  }
 ]
}
