{
  "type": "FeatureCollection",
  "name": "commons_spine_green_space",
  "features": [
    {
      "type": "Feature",
      "id": "GREEN-002",
      "properties": {
        "id": "GREEN-002",
        "layer": "GREEN_SPACE",
        "source_type": "agent_generated_design",
        "confidence": "medium",
        "geometry_role": "design_proposal",
        "green_type": "heritage_commons_or_civic_open_space",
        "design_intent": "连续公共能力脊柱中的低干预蓝绿与开放空间概念单元。",
        "area_sqm_declared": 609478.832
      },
      "geometry": {
        "type": "Polygon",
        "coordinates": [
          [
            [
              116.34540776470587,
              40.0265
            ],
            [
              116.34909976470587,
              40.0265
            ],
            [
              116.34926187377106,
              40.009938376754356
            ],
            [
              116.34522379249672,
              40.00979312203226
            ],
            [
              116.34540776470587,
              40.0265
            ]
          ]
        ]
      }
    },
    {
      "type": "Feature",
      "id": "GREEN-005",
      "properties": {
        "id": "GREEN-005",
        "layer": "GREEN_SPACE",
        "source_type": "agent_generated_design",
        "confidence": "medium",
        "geometry_role": "design_proposal",
        "green_type": "heritage_commons_or_civic_open_space",
        "design_intent": "连续公共能力脊柱中的低干预蓝绿与开放空间概念单元。",
        "area_sqm_declared": 663829.276
      },
      "geometry": {
        "type": "Polygon",
        "coordinates": [
          [
            [
              116.34522379249672,
              40.00979312203226
            ],
            [
              116.34926187377106,
              40.009938376754356
            ],
            [
              116.34942454590681,
              39.993319228270025
            ],
            [
              116.34504064936428,
              39.99316153414979
            ],
            [
              116.34522379249672,
              40.00979312203226
            ]
          ]
        ]
      }
    },
    {
      "type": "Feature",
      "id": "GREEN-007",
      "properties": {
        "id": "GREEN-007",
        "layer": "GREEN_SPACE",
        "source_type": "agent_generated_design",
        "confidence": "medium",
        "geometry_role": "design_proposal",
        "green_type": "heritage_commons_or_civic_open_space",
        "design_intent": "连续公共能力脊柱中的低干预蓝绿与开放空间概念单元。",
        "area_sqm_declared": 836967.796
      },
      "geometry": {
        "type": "Polygon",
        "coordinates": [
          [
            [
              116.34504064936428,
              39.99316153414979
            ],
            [
              116.34942454590681,
              39.993319228270025
            ],
            [
              116.34961290311662,
              39.97407600370922
            ],
            [
              116.34482858889513,
              39.97390390607536
            ],
            [
              116.34504064936428,
              39.99316153414979
            ]
          ]
        ]
      }
    },
    {
      "type": "Feature",
      "id": "GREEN-012",
      "properties": {
        "id": "GREEN-012",
        "layer": "GREEN_SPACE",
        "source_type": "agent_generated_design",
        "confidence": "medium",
        "geometry_role": "design_proposal",
        "green_type": "heritage_commons_or_civic_open_space",
        "design_intent": "连续公共能力脊柱中的低干预蓝绿与开放空间概念单元。",
        "area_sqm_declared": 824537.994
      },
      "geometry": {
        "type": "Polygon",
        "coordinates": [
          [
            [
              116.34482858889513,
              39.97390390607536
            ],
            [
              116.34961290311662,
              39.97407600370922
            ],
            [
              116.34978413694374,
              39.956582163199414
            ],
            [
              116.34463580665044,
              39.95639697146225
            ],
            [
              116.34482858889513,
              39.97390390607536
            ]
          ]
        ]
      }
    },
    {
      "type": "Feature",
      "id": "GREEN-015",
      "properties": {
        "id": "GREEN-015",
        "layer": "GREEN_SPACE",
        "source_type": "agent_generated_design",
        "confidence": "medium",
        "geometry_role": "design_proposal",
        "green_type": "heritage_commons_or_civic_open_space",
        "design_intent": "连续公共能力脊柱中的低干预蓝绿与开放空间概念单元。",
        "area_sqm_declared": 884631.682
      },
      "geometry": {
        "type": "Polygon",
        "coordinates": [
          [
            [
              116.34995623529412,
              39.939
            ],
            [
              116.34444423529412,
              39.939
            ],
            [
              116.34463580665044,
              39.95639697146225
            ],
            [
              116.34978413694374,
              39.956582163199414
            ],
            [
              116.34995623529412,
              39.939
            ]
          ]
        ]
      }
    }
  ]
}
