{
 "type": "FeatureCollection",
 "name": "green_space",
 "features": [
  {
   "type": "Feature",
   "id": "GS-SPINE-001",
   "properties": {
    "id": "GS-SPINE-001",
    "layer": "GREEN_SPACE",
    "source_type": "agent_generated_design",
    "confidence": "low",
    "geometry_role": "design_proposal",
    "status_class": "conceptual",
    "name_zh": "同廊绿轴策略带（概念，由 land_use LU-G 派生）",
    "note": "概念性绿地策略范围，非现状绿地实测；遗址公园本体 polygon 未公开，不单独表达。[source:PARK-P2-OPEN-20260806]",
    "area_sqm_declared": 495120.803,
    "source_id": "DATA-SRC-PROVISIONAL-BOUNDARIES-20260605",
    "assumption_ids": [
     "A-BLUEGREEN-008",
     "A-BOUNDARY-OVERSPAN-002"
    ]
   },
   "geometry": {
    "type": "MultiPolygon",
    "coordinates": [
     [
      [
       [
        116.34252648786473,
        40.02294376327671
       ],
       [
        116.34270000000001,
        40.0265
       ],
       [
        116.34464485366631,
        40.026500089419464
       ],
       [
        116.34486984056288,
        40.026000073666054
       ],
       [
        116.34299999999999,
        40.025999999999996
       ],
       [
        116.34300000589371,
        40.0218914212142
       ],
       [
        116.34252648786473,
        40.02294376327671
       ]
      ]
     ],
     [
      [
       [
        116.34175302776579,
        40.00708733603349
       ],
       [
        116.34207395737724,
        40.01366737027316
       ],
       [
        116.34300000825783,
        40.01510351711071
       ],
       [
        116.34300000257439,
        40.0090213659295
       ],
       [
        116.34175302776579,
        40.00708733603349
       ]
      ]
     ],
     [
      [
       [
        116.34828369708178,
        39.95499695789682
       ],
       [
        116.34833908851839,
        39.95487142858999
       ],
       [
        116.34837822520588,
        39.954742325403046
       ],
       [
        116.34840073032355,
        39.95461089168735
       ],
       [
        116.3484063872287,
        39.95447839323181
       ],
       [
        116.3483951415395,
        39.95434610607217
       ],
       [
        116.34836710165482,
        39.95421530420206
       ],
       [
        116.34832253770678,
        39.95408724730382
       ],
       [
        116.34826187895546,
        39.95396316861754
       ],
       [
        116.34818570965182,
        39.95384426306495
       ],
       [
        116.34809476340801,
        39.9537316757426
       ],
       [
        116.34798991613017,
        39.95362649089507
       ],
       [
        116.34787217758112,
        39.95352972147428
       ],
       [
        116.34774268165486,
        39.953442299385785
       ],
       [
        116.34760267545627,
        39.953365066515204
       ],
       [
        116.34745350729126,
        39.953298766621934
       ],
       [
        116.34729661368291,
        39.9532440381777
       ],
       [
        116.34713350553896,
        39.95320140821894
       ],
       [
        116.34696575360333,
        39.95317128727227
       ],
       [
        116.34679497333188,
        39.95315396540177
       ],
       [
        116.34662280933806,
        39.95314960941615
       ],
       [
        116.34645091955808,
        39.953158261262715
       ],
       [
        116.34628095928767,
        39.9531798376235
       ],
       [
        116.34611456524453,
        39.953214130717534
       ],
       [
        116.34595333980931,
        39.9532608103014
       ],
       [
        116.34579883559707,
        39.95331942684903
       ],
       [
        116.34565254050766,
        39.95338941587995
       ],
       [
        116.34551586339873,
        39.95347010339444
       ],
       [
        116.34539012051928,
        39.95356071236319
       ],
       [
        116.34527652283458,
        39.95366037020927
       ],
       [
        116.34517616436406,
        39.95376811720999
       ],
       [
        116.34509001164504,
        39.95388291573819
       ],
       [
        116.34007826404036,
        39.96138805990411
       ],
       [
        116.33990690346806,
        39.96755535796766
       ],
       [
        116.34821258426916,
        39.95511770438447
       ],
       [
        116.34828369708178,
        39.95499695789682
       ]
      ]
     ]
    ]
   }
  }
 ]
}
