{
 "type": "FeatureCollection",
 "name": "land_use",
 "features": [
  {
   "type": "Feature",
   "id": "LU-A",
   "properties": {
    "id": "LU-A",
    "layer": "LAND_USE",
    "source_type": "agent_generated_design",
    "confidence": "low",
    "geometry_role": "design_proposal",
    "status_class": "conceptual",
    "land_use_code": "08",
    "name_zh": "产业更新策略区（众智园方向，科研/产业服务为主）",
    "verification_status": "conceptual",
    "note": "概念策略分区，非控规用地性质；由 provisional site boundary 拓扑切割生成，正式控规资料发布后整体重做。",
    "area_sqm_declared": 1929201.877,
    "source_id": "DATA-SRC-PROVISIONAL-BOUNDARIES-20260605",
    "assumption_ids": [
     "A-CONTROLS-001",
     "A-BOUNDARY-OVERSPAN-002"
    ],
    "area_id": "zhongzhiyuan_ai_acceleration_area"
   },
   "geometry": {
    "type": "Polygon",
    "coordinates": [
     [
      [
       116.34299999999999,
       40.0075
      ],
      [
       116.354,
       40.007499999999986
      ],
      [
       116.354,
       40.02600000000001
      ],
      [
       116.34299999999999,
       40.025999999999996
      ],
      [
       116.34299999999999,
       40.0075
      ]
     ]
    ]
   }
  },
  {
   "type": "Feature",
   "id": "LU-B",
   "properties": {
    "id": "LU-B",
    "layer": "LAND_USE",
    "source_type": "agent_generated_design",
    "confidence": "low",
    "geometry_role": "design_proposal",
    "status_class": "conceptual",
    "land_use_code": "08",
    "name_zh": "校地溢出策略区（原点社区方向，教育/科研接口为主）",
    "verification_status": "conceptual",
    "note": "概念策略分区，非控规用地性质；由 provisional site boundary 拓扑切割生成，正式控规资料发布后整体重做。",
    "area_sqm_declared": 1043236.909,
    "source_id": "DATA-SRC-PROVISIONAL-BOUNDARIES-20260605",
    "assumption_ids": [
     "A-CONTROLS-001",
     "A-BOUNDARY-OVERSPAN-002"
    ],
    "area_id": "beijing_ai_origin_community"
   },
   "geometry": {
    "type": "Polygon",
    "coordinates": [
     [
      [
       116.34200000000001,
       39.98349999999999
      ],
      [
       116.353,
       39.9835
      ],
      [
       116.353,
       39.99349999999998
      ],
      [
       116.34200000000001,
       39.99349999999999
      ],
      [
       116.34200000000001,
       39.98349999999999
      ]
     ]
    ]
   }
  },
  {
   "type": "Feature",
   "id": "LU-C",
   "properties": {
    "id": "LU-C",
    "layer": "LAND_USE",
    "source_type": "agent_generated_design",
    "confidence": "low",
    "geometry_role": "design_proposal",
    "status_class": "conceptual",
    "land_use_code": "05",
    "name_zh": "枢纽再生策略区（大钟寺方向，商业服务/内容街区为主）",
    "verification_status": "conceptual",
    "note": "概念策略分区，非控规用地性质；由 provisional site boundary 拓扑切割生成，正式控规资料发布后整体重做。",
    "area_sqm_declared": 720454.219,
    "source_id": "DATA-SRC-PROVISIONAL-BOUNDARIES-20260605",
    "assumption_ids": [
     "A-CONTROLS-001",
     "A-BOUNDARY-OVERSPAN-002"
    ],
    "area_id": "dazhongsi_ai_industry_cluster"
   },
   "geometry": {
    "type": "Polygon",
    "coordinates": [
     [
      [
       116.34200000000001,
       39.943999999999996
      ],
      [
       116.35500000000002,
       39.944
      ],
      [
       116.35500000000002,
       39.94983999999999
      ],
      [
       116.34200000000001,
       39.94984
      ],
      [
       116.34200000000001,
       39.943999999999996
      ]
     ]
    ]
   }
  },
  {
   "type": "Feature",
   "id": "LU-G",
   "properties": {
    "id": "LU-G",
    "layer": "LAND_USE",
    "source_type": "agent_generated_design",
    "confidence": "low",
    "geometry_role": "design_proposal",
    "status_class": "conceptual",
    "land_use_code": "14",
    "name_zh": "同廊绿轴与公共接口策略带（公园绿地/开敞空间方向）",
    "verification_status": "conceptual",
    "note": "概念策略分区，非控规用地性质；由 provisional site boundary 拓扑切割生成，正式控规资料发布后整体重做。",
    "area_sqm_declared": 495120.803,
    "source_id": "DATA-SRC-PROVISIONAL-BOUNDARIES-20260605",
    "assumption_ids": [
     "A-CONTROLS-001",
     "A-BOUNDARY-OVERSPAN-002"
    ]
   },
   "geometry": {
    "type": "MultiPolygon",
    "coordinates": [
     [
      [
       [
        116.34252648786473,
        40.02294376327671
       ],
       [
        116.34270000000001,
        40.0265
       ],
       [
        116.34464485366631,
        40.026500089419464
       ],
       [
        116.34486984056288,
        40.026000073666054
       ],
       [
        116.34299999999999,
        40.025999999999996
       ],
       [
        116.34300000589371,
        40.0218914212142
       ],
       [
        116.34252648786473,
        40.02294376327671
       ]
      ]
     ],
     [
      [
       [
        116.34175302776579,
        40.00708733603349
       ],
       [
        116.34207395737724,
        40.01366737027316
       ],
       [
        116.34300000825783,
        40.01510351711071
       ],
       [
        116.34300000257439,
        40.0090213659295
       ],
       [
        116.34175302776579,
        40.00708733603349
       ]
      ]
     ],
     [
      [
       [
        116.34828369708178,
        39.95499695789682
       ],
       [
        116.34833908851839,
        39.95487142858999
       ],
       [
        116.34837822520588,
        39.954742325403046
       ],
       [
        116.34840073032355,
        39.95461089168735
       ],
       [
        116.3484063872287,
        39.95447839323181
       ],
       [
        116.3483951415395,
        39.95434610607217
       ],
       [
        116.34836710165482,
        39.95421530420206
       ],
       [
        116.34832253770678,
        39.95408724730382
       ],
       [
        116.34826187895546,
        39.95396316861754
       ],
       [
        116.34818570965182,
        39.95384426306495
       ],
       [
        116.34809476340801,
        39.9537316757426
       ],
       [
        116.34798991613017,
        39.95362649089507
       ],
       [
        116.34787217758112,
        39.95352972147428
       ],
       [
        116.34774268165486,
        39.953442299385785
       ],
       [
        116.34760267545627,
        39.953365066515204
       ],
       [
        116.34745350729126,
        39.953298766621934
       ],
       [
        116.34729661368291,
        39.9532440381777
       ],
       [
        116.34713350553896,
        39.95320140821894
       ],
       [
        116.34696575360333,
        39.95317128727227
       ],
       [
        116.34679497333188,
        39.95315396540177
       ],
       [
        116.34662280933806,
        39.95314960941615
       ],
       [
        116.34645091955808,
        39.953158261262715
       ],
       [
        116.34628095928767,
        39.9531798376235
       ],
       [
        116.34611456524453,
        39.953214130717534
       ],
       [
        116.34595333980931,
        39.9532608103014
       ],
       [
        116.34579883559707,
        39.95331942684903
       ],
       [
        116.34565254050766,
        39.95338941587995
       ],
       [
        116.34551586339873,
        39.95347010339444
       ],
       [
        116.34539012051928,
        39.95356071236319
       ],
       [
        116.34527652283458,
        39.95366037020927
       ],
       [
        116.34517616436406,
        39.95376811720999
       ],
       [
        116.34509001164504,
        39.95388291573819
       ],
       [
        116.34007826404036,
        39.96138805990411
       ],
       [
        116.33990690346806,
        39.96755535796766
       ],
       [
        116.34821258426916,
        39.95511770438447
       ],
       [
        116.34828369708178,
        39.95499695789682
       ]
      ]
     ]
    ]
   }
  },
  {
   "type": "Feature",
   "id": "LU-R",
   "properties": {
    "id": "LU-R",
    "layer": "LAND_USE",
    "source_type": "agent_generated_design",
    "confidence": "low",
    "geometry_role": "design_proposal",
    "status_class": "conceptual",
    "land_use_code": "16",
    "name_zh": "城市更新背景留白区（留白用地，待正式资料深化）",
    "verification_status": "conceptual",
    "note": "概念策略分区，非控规用地性质；由 provisional site boundary 拓扑切割生成，正式控规资料发布后整体重做。",
    "area_sqm_declared": 7224811.578,
    "source_id": "DATA-SRC-PROVISIONAL-BOUNDARIES-20260605",
    "assumption_ids": [
     "A-CONTROLS-001",
     "A-BOUNDARY-OVERSPAN-002"
    ]
   },
   "geometry": {
    "type": "MultiPolygon",
    "coordinates": [
     [
      [
       [
        116.34007826404036,
        39.9613880599041
       ],
       [
        116.34007826404036,
        39.961388059904124
       ],
       [
        116.33999296523587,
        39.96445815301475
       ],
       [
        116.34007826404036,
        39.9613880599041
       ]
      ]
     ],
     [
      [
       [
        116.34299999999999,
        40.0075
       ],
       [
        116.354,
        40.00749999999998
       ],
       [
        116.354,
        40.02600000000001
       ],
       [
        116.34486984056288,
        40.02600007366605
       ],
       [
        116.34464485366631,
        40.026500089419464
       ],
       [
        116.34270000000001,
        40.0265
       ],
       [
        116.3553,
        40.0265
       ],
       [
        116.3533,
        39.989999999999995
       ],
       [
        116.3553,
        39.965
       ],
       [
        116.3553,
        39.939
       ],
       [
        116.34070000000001,
        39.938999999999986
       ],
       [
        116.34007826404036,
        39.9613880599041
       ],
       [
        116.34509001164504,
        39.95388291573819
       ],
       [
        116.34517616436406,
        39.95376811720999
       ],
       [
        116.34527652283458,
        39.95366037020927
       ],
       [
        116.34539012051928,
        39.953560712363185
       ],
       [
        116.34551586339873,
        39.95347010339444
       ],
       [
        116.34565254050766,
        39.95338941587994
       ],
       [
        116.34579883559707,
        39.95331942684902
       ],
       [
        116.34595333980931,
        39.9532608103014
       ],
       [
        116.34611456524453,
        39.953214130717534
       ],
       [
        116.34628095928767,
        39.9531798376235
       ],
       [
        116.34645091955808,
        39.9531582612627
       ],
       [
        116.34662280933806,
        39.95314960941615
       ],
       [
        116.34679497333188,
        39.95315396540176
       ],
       [
        116.34696575360333,
        39.95317128727227
       ],
       [
        116.34713350553896,
        39.95320140821894
       ],
       [
        116.34729661368291,
        39.9532440381777
       ],
       [
        116.34745350729126,
        39.95329876662194
       ],
       [
        116.34760267545627,
        39.953365066515204
       ],
       [
        116.34774268165486,
        39.953442299385785
       ],
       [
        116.34787217758112,
        39.953529721474276
       ],
       [
        116.34798991613017,
        39.95362649089507
       ],
       [
        116.34809476340801,
        39.9537316757426
       ],
       [
        116.34818570965182,
        39.95384426306495
       ],
       [
        116.34826187895546,
        39.95396316861754
       ],
       [
        116.34832253770678,
        39.954087247303825
       ],
       [
        116.34836710165482,
        39.95421530420206
       ],
       [
        116.3483951415395,
        39.95434610607217
       ],
       [
        116.3484063872287,
        39.95447839323181
       ],
       [
        116.34840073032355,
        39.95461089168735
       ],
       [
        116.34837822520588,
        39.95474232540304
       ],
       [
        116.34833908851839,
        39.95487142858999
       ],
       [
        116.34828369708178,
        39.95499695789682
       ],
       [
        116.34821258426916,
        39.95511770438447
       ],
       [
        116.33990690346806,
        39.96755535796766
       ],
       [
        116.3397,
        39.975
       ],
       [
        116.34169999999999,
        40.00600000000001
       ],
       [
        116.34175302776579,
        40.0070873360335
       ],
       [
        116.34300000257439,
        40.009021365929506
       ],
       [
        116.34299999999999,
        40.0075
       ]
      ],
      [
       [
        116.353,
        39.9835
       ],
       [
        116.353,
        39.99349999999998
       ],
       [
        116.34200000000001,
        39.99349999999998
       ],
       [
        116.34200000000001,
        39.983499999999985
       ],
       [
        116.353,
        39.9835
       ]
      ],
      [
       [
        116.35500000000002,
        39.944
       ],
       [
        116.35500000000002,
        39.94983999999999
       ],
       [
        116.34200000000001,
        39.94984
       ],
       [
        116.34200000000001,
        39.943999999999996
       ],
       [
        116.35500000000002,
        39.944
       ]
      ]
     ],
     [
      [
       [
        116.34207395737724,
        40.01366737027317
       ],
       [
        116.34188724655714,
        40.00983936310231
       ],
       [
        116.34207395737724,
        40.01366737027316
       ],
       [
        116.34207395737724,
        40.01366737027317
       ]
      ]
     ],
     [
      [
       [
        116.34207395737724,
        40.01366737027317
       ],
       [
        116.34252648786473,
        40.02294376327671
       ],
       [
        116.34300000589371,
        40.0218914212142
       ],
       [
        116.34300000825783,
        40.01510351711071
       ],
       [
        116.34207395737724,
        40.01366737027317
       ]
      ]
     ]
    ]
   }
  }
 ]
}
