{
  "type": "FeatureCollection",
  "name": "bounded_sky_ground_connections",
  "features": [
    {
      "type": "Feature",
      "id": "ROAD-001",
      "properties": {
        "id": "ROAD-001",
        "layer": "ROAD_CENTERLINE",
        "source_type": "agent_generated_design",
        "confidence": "medium",
        "geometry_role": "design_proposal",
        "road_class": "greenway",
        "name_zh": "贯穿三区的地面公共联系建议线",
        "name_en": "Proposed ground-level public link connecting the three areas",
        "ground_priority": true,
        "airspace_service_must_yield": true,
        "existing_road": false,
        "approved_alignment": false,
        "usage_note_zh": "概念联系线，不表示现状道路、道路红线、飞行航线或已批准工程线位。",
        "usage_note_en": "Conceptual connection only; not an existing road, road redline, flight route, or approved engineering alignment."
      },
      "geometry": {
        "type": "LineString",
        "coordinates": [
          [116.3485, 39.94692],
          [116.3475, 39.9885],
          [116.3485, 40.01675]
        ]
      }
    }
  ]
}
