{
  "type": "FeatureCollection",
  "name": "public_space_scaffold",
  "features": [
    {
      "type": "Feature",
      "id": "PUBLIC-001",
      "properties": {
        "id": "PUBLIC-001",
        "layer": "PUBLIC_SPACE",
        "source_type": "agent_generated_design",
        "confidence": "medium",
        "geometry_role": "design_proposal",
        "name_zh": "公共活动界面",
        "area_sqm_declared": 836345.643,
        "design_concept_zh": "屁股正义 / 平等落座权",
        "design_concept_en": "Seating Justice / Equal Right to Sit",
        "design_revision": "v0.4-seating-justice",
        "design_status": "conceptual_suggestion",
        "seating_prototypes": [
          "applause_circle",
          "care_companion_bench",
          "open_commons_table",
          "comfort_corner",
          "repair_cafe_table",
          "civic_forum_steps"
        ],
        "access_principles": [
          "non_commercial_access",
          "wheelchair_companion_seating",
          "multiple_seat_heights",
          "backrest_and_armrest_choice",
          "quiet_and_social_choice",
          "no_mandatory_digital_access"
        ],
        "ai_governance": [
          "opt_in_translation",
          "opt_in_captioning",
          "no_face_recognition",
          "no_emotion_inference",
          "no_social_scoring",
          "human_confirmed_minutes"
        ]
      },
      "geometry": {
        "type": "Polygon",
        "coordinates": [
          [
            [
              116.34734399999999,
              39.967
            ],
            [
              116.34734399999999,
              40.00025
            ],
            [
              116.349996,
              40.00025
            ],
            [
              116.349996,
              39.967
            ],
            [
              116.34734399999999,
              39.967
            ]
          ]
        ]
      }
    }
  ]
}
