{
  "type":"FeatureCollection",
  "name":"people_first_jingzhang_constraints_and_claim_boundaries",
  "features":[
    {"type":"Feature","id":"CN-001","properties":{"id":"CN-001","layer":"CONSTRAINT","source_type":"repository_provisional_data","confidence":"medium","geometry_role":"provisional_constraint","constraint_type":"boundary_precision_and_statutory_control_gap","name_zh":"总体设计范围精度与法定控制缺口","name_en":"Overall Design Area Precision and Statutory-Control Gap","official_boundary":false,"rule":"当前polygon仅用于概念设计；不得推出宗地、道路红线、开发强度、文保、市政、产权或审批结论。","resolution_trigger":"取得官方或清权CAD/GIS/PDF及控规、权属、文保、市政等专业资料后整体复算。"},"geometry":{"type":"Polygon","coordinates":[[[116.3407,39.939],[116.3553,39.939],[116.3553,39.965],[116.3533,39.99],[116.3553,40.0265],[116.3427,40.0265],[116.3417,40.006],[116.3397,39.975],[116.3407,39.939]]]}},
    {"type":"Feature","id":"CN-002","properties":{"id":"CN-002","layer":"CONSTRAINT","source_type":"agent_generated_design","confidence":"low","geometry_role":"design_constraint","constraint_type":"ordinary_public_service_priority","name_zh":"京张人民公共脊梁普通服务优先约束","name_en":"Jing-Zhang Civic Spine Ordinary-Service Priority Constraint","rule":"AI测试、屏幕、机器人和传感设施不得取消或实质降低普通慢行、无障碍、休息、人工服务和非AI导视。","official_control":false,"usage_note":"治理与设计自我约束，不是法定控制线。"},"geometry":{"type":"LineString","coordinates":[[116.3470,39.9446],[116.3467,39.9600],[116.3465,39.9838],[116.3467,39.9887],[116.3470,39.9932],[116.3475,40.0080],[116.3478,40.0165],[116.3480,40.0255]]}},
    {"type":"Feature","id":"CN-003","properties":{"id":"CN-003","layer":"CONSTRAINT","source_type":"agent_generated_design","confidence":"low","geometry_role":"design_constraint","constraint_type":"human_control_and_non_ai_fallback","name_zh":"三重点区人类控制与非AI兜底约束","name_en":"Three-Key-Area Human-Control and Non-AI-Fallback Constraint","rule":"进入公共服务的AI场景必须标明责任主体、人工接管、非AI路径、投诉复核和停止条件；不得由AI独立作出影响权益、安全、执法、支付、通行或资格的最终决定。","official_control":false,"usage_note":"方案治理约束的空间提示，不是法定规划或法律边界。"},"geometry":{"type":"MultiPolygon","coordinates":[[[[116.343,40.0075],[116.354,40.0075],[116.354,40.026],[116.343,40.026],[116.343,40.0075]]],[[[116.342,39.9835],[116.353,39.9835],[116.353,39.9935],[116.342,39.9935],[116.342,39.9835]]],[[[116.342,39.944],[116.355,39.944],[116.355,39.94984],[116.342,39.94984],[116.342,39.944]]]]}}
  ]
}
