{
  "type": "FeatureCollection",
  "name": "people_first_jingzhang_concept_land_use_cells",
  "features": [
    {"type":"Feature","id":"LU-Z01","properties":{"id":"LU-Z01","layer":"LAND_USE","source_type":"agent_generated_design","confidence":"low","geometry_role":"design_proposal","land_use_code":"0802","name_zh":"众智园｜开放研发与全栈创新界面","name_en":"Zhongzhiyuan | Open R&D and Full-Stack Innovation Edge","official_parcel":false,"people_first_rule":"研发测试不得取消普通通行与公众知情；真实场景测试须有人工接管和停止条件。","usage_note":"概念功能单元，不是地籍宗地、控规用地或审批边界。"},"geometry":{"type":"Polygon","coordinates":[[[116.343,40.0075],[116.3455,40.0075],[116.3455,40.026],[116.343,40.026],[116.343,40.0075]]]}},
    {"type":"Feature","id":"LU-Z02","properties":{"id":"LU-Z02","layer":"LAND_USE","source_type":"agent_generated_design","confidence":"low","geometry_role":"design_proposal","land_use_code":"0802","name_zh":"众智园｜产学研与开源协作界面","name_en":"Zhongzhiyuan | Research-Education-Open Collaboration Edge","official_parcel":false,"people_first_rule":"优先共享实验、教育和开源协作空间，不把科研园区做成封闭园中园。","usage_note":"概念功能单元，不是地籍宗地、控规用地或审批边界。"},"geometry":{"type":"Polygon","coordinates":[[[116.3455,40.0075],[116.3485,40.0075],[116.3485,40.026],[116.3455,40.026],[116.3455,40.0075]]]}},
    {"type":"Feature","id":"LU-Z03","properties":{"id":"LU-Z03","layer":"LAND_USE","source_type":"agent_generated_design","confidence":"low","geometry_role":"design_proposal","land_use_code":"05","name_zh":"众智园｜受控测试与工程转化界面","name_en":"Zhongzhiyuan | Controlled Testing and Engineering Translation Edge","official_parcel":false,"people_first_rule":"机器人和城市智能体只在受控区验证；普通行人、无障碍路线和非测试通道优先。","usage_note":"概念功能单元，不是地籍宗地、控规用地或审批边界。"},"geometry":{"type":"Polygon","coordinates":[[[116.3485,40.0075],[116.3515,40.0075],[116.3515,40.026],[116.3485,40.026],[116.3485,40.0075]]]}},
    {"type":"Feature","id":"LU-Z04","properties":{"id":"LU-Z04","layer":"LAND_USE","source_type":"agent_generated_design","confidence":"low","geometry_role":"design_proposal","land_use_code":"1401","name_zh":"众智园｜公共绿地与试验缓冲界面","name_en":"Zhongzhiyuan | Public Green and Test Buffer Edge","official_parcel":false,"people_first_rule":"公共绿地首先承担休憩、遮阴和慢行，再叠加可撤回测试设施。","usage_note":"概念功能单元，不是地籍宗地、控规用地或审批边界。"},"geometry":{"type":"Polygon","coordinates":[[[116.3515,40.0075],[116.354,40.0075],[116.354,40.026],[116.3515,40.026],[116.3515,40.0075]]]}},

    {"type":"Feature","id":"LU-O01","properties":{"id":"LU-O01","layer":"LAND_USE","source_type":"agent_generated_design","confidence":"low","geometry_role":"design_proposal","land_use_code":"1401","name_zh":"AI原点｜京张人民公共脊梁与文化界面","name_en":"AI Origin | Jing-Zhang Civic Spine and Cultural Edge","official_parcel":false,"people_first_rule":"遗址公共空间首先属于普通生活与文化记忆，AI设施轻附着、可撤回。","usage_note":"概念功能单元，不是地籍宗地、控规用地或审批边界。"},"geometry":{"type":"Polygon","coordinates":[[[116.342,39.9835],[116.3445,39.9835],[116.3445,39.9935],[116.342,39.9935],[116.342,39.9835]]]}},
    {"type":"Feature","id":"LU-O02","properties":{"id":"LU-O02","layer":"LAND_USE","source_type":"agent_generated_design","confidence":"low","geometry_role":"design_proposal","land_use_code":"0702","name_zh":"AI原点｜人民工程馆与公共文化服务界面","name_en":"AI Origin | Civic Engineering Hall and Public Cultural Service Edge","official_parcel":false,"people_first_rule":"文化、议事、算法审议和开源工坊形成持续公共服务，不做单纯纪念馆。","usage_note":"概念功能单元，不是地籍宗地、控规用地或审批边界；人民工程馆精确选址待文保、权属和工程复核。"},"geometry":{"type":"Polygon","coordinates":[[[116.3445,39.9835],[116.347,39.9835],[116.347,39.9935],[116.3445,39.9935],[116.3445,39.9835]]]}},
    {"type":"Feature","id":"LU-O03","properties":{"id":"LU-O03","layer":"LAND_USE","source_type":"agent_generated_design","confidence":"low","geometry_role":"design_proposal","land_use_code":"0802","name_zh":"AI原点｜开源学习、创业与共创界面","name_en":"AI Origin | Open Learning, Entrepreneurship and Co-Creation Edge","official_parcel":false,"people_first_rule":"人才空间同时服务学生、教师、创业者、居民和服务劳动者，避免高门槛封闭科技社区。","usage_note":"概念功能单元，不是地籍宗地、控规用地或审批边界。"},"geometry":{"type":"Polygon","coordinates":[[[116.347,39.9835],[116.35,39.9835],[116.35,39.9935],[116.347,39.9935],[116.347,39.9835]]]}},
    {"type":"Feature","id":"LU-O04","properties":{"id":"LU-O04","layer":"LAND_USE","source_type":"agent_generated_design","confidence":"low","geometry_role":"design_proposal","land_use_code":"0702","name_zh":"AI原点｜人民AI服务与日常生活界面","name_en":"AI Origin | People's AI Service and Everyday-Life Edge","official_parcel":false,"people_first_rule":"保留人工、纸质、无账号与无障碍服务；AI只能增加能力，不能成为新门槛。","usage_note":"概念功能单元，不是地籍宗地、控规用地或审批边界。"},"geometry":{"type":"Polygon","coordinates":[[[116.35,39.9835],[116.353,39.9835],[116.353,39.9935],[116.35,39.9935],[116.35,39.9835]]]}},

    {"type":"Feature","id":"LU-D01","properties":{"id":"LU-D01","layer":"LAND_USE","source_type":"agent_generated_design","confidence":"low","geometry_role":"design_proposal","land_use_code":"1401","name_zh":"大钟寺｜公共慢行与开放前场界面","name_en":"Dazhongsi | Public Walkability and Open Forecourt Edge","official_parcel":false,"people_first_rule":"产业展示不得侵占通行、休息、无障碍和普通公共空间。","usage_note":"概念功能单元，不是地籍宗地、控规用地或审批边界。"},"geometry":{"type":"Polygon","coordinates":[[[116.342,39.944],[116.345,39.944],[116.345,39.94984],[116.342,39.94984],[116.342,39.944]]]}},
    {"type":"Feature","id":"LU-D02","properties":{"id":"LU-D02","layer":"LAND_USE","source_type":"agent_generated_design","confidence":"low","geometry_role":"design_proposal","land_use_code":"0702","name_zh":"大钟寺｜小微商业与智能原生日常服务界面","name_en":"Dazhongsi | Small Business and AI-Native Everyday Service Edge","official_parcel":false,"people_first_rule":"AI能力帮助小微商户和普通消费场景，不以平台锁定或过度授权换取基本服务。","usage_note":"概念功能单元，不是地籍宗地、控规用地或审批边界。"},"geometry":{"type":"Polygon","coordinates":[[[116.345,39.944],[116.348,39.944],[116.348,39.94984],[116.345,39.94984],[116.345,39.944]]]}},
    {"type":"Feature","id":"LU-D03","properties":{"id":"LU-D03","layer":"LAND_USE","source_type":"agent_generated_design","confidence":"low","geometry_role":"design_proposal","land_use_code":"0802","name_zh":"大钟寺｜产业转化与公共智能廊界面","name_en":"Dazhongsi | Industry Translation and Civic Intelligence Arcade Edge","official_parcel":false,"people_first_rule":"产业展示同步公开AI用途、责任、数据边界、非AI路径和人工复核，不做企业单向展厅。","usage_note":"概念功能单元，不是地籍宗地、控规用地或审批边界。"},"geometry":{"type":"Polygon","coordinates":[[[116.348,39.944],[116.351,39.944],[116.351,39.94984],[116.348,39.94984],[116.348,39.944]]]}},
    {"type":"Feature","id":"LU-D04","properties":{"id":"LU-D04","layer":"LAND_USE","source_type":"agent_generated_design","confidence":"low","geometry_role":"design_proposal","land_use_code":"0702","name_zh":"大钟寺｜就业服务、商务与日夜公共生活界面","name_en":"Dazhongsi | Employment, Business and Day-Night Civic Life Edge","official_parcel":false,"people_first_rule":"产业收益通过就业支持、公共服务、社区活动和开放接口回到城市。","usage_note":"概念功能单元，不是地籍宗地、控规用地或审批边界。"},"geometry":{"type":"Polygon","coordinates":[[[116.351,39.944],[116.355,39.944],[116.355,39.94984],[116.351,39.94984],[116.351,39.944]]]}}
  ]
}
