{
  "type": "FeatureCollection",
  "name": "buildings_evidence_spine",
  "features": [
    {
      "type": "Feature",
      "id": "BLD-001",
      "properties": {
        "layer": "BUILDING_FOOTPRINT",
        "source_type": "agent_generated_design",
        "confidence": "medium",
        "geometry_role": "design_proposal",
        "building_type": "ai_r_and_d",
        "floors_assumed": 8,
        "name_zh": "research建筑1",
        "renewal_action": "new_build",
        "id": "BLD-001",
        "area_sqm_declared": 347.72
      },
      "geometry": {
        "type": "Polygon",
        "coordinates": [
          [
            [
              116.3405504929081,
              39.95854546163673
            ],
            [
              116.34026492780758,
              39.958543836821995
            ],
            [
              116.34026369456268,
              39.95867216518552
            ],
            [
              116.3405492601969,
              39.9586737900076
            ],
            [
              116.3405504929081,
              39.95854546163673
            ]
          ]
        ]
      }
    },
    {
      "type": "Feature",
      "id": "BLD-002",
      "properties": {
        "layer": "BUILDING_FOOTPRINT",
        "source_type": "agent_generated_design",
        "confidence": "medium",
        "geometry_role": "design_proposal",
        "building_type": "ai_r_and_d",
        "floors_assumed": 8,
        "name_zh": "research建筑2",
        "renewal_action": "new_build",
        "id": "BLD-002",
        "area_sqm_declared": 347.72
      },
      "geometry": {
        "type": "Polygon",
        "coordinates": [
          [
            [
              116.3416492550128,
              39.95855170683718
            ],
            [
              116.34136368982317,
              39.95855008472877
            ],
            [
              116.34136245863182,
              39.95867841312052
            ],
            [
              116.34164802435515,
              39.95868003523628
            ],
            [
              116.3416492550128,
              39.95855170683718
            ]
          ]
        ]
      }
    },
    {
      "type": "Feature",
      "id": "BLD-003",
      "properties": {
        "layer": "BUILDING_FOOTPRINT",
        "source_type": "agent_generated_design",
        "confidence": "medium",
        "geometry_role": "design_proposal",
        "building_type": "ai_r_and_d",
        "floors_assumed": 8,
        "name_zh": "research建筑3",
        "renewal_action": "renovate",
        "id": "BLD-003",
        "area_sqm_declared": 347.72
      },
      "geometry": {
        "type": "Polygon",
        "coordinates": [
          [
            [
              116.34274801746004,
              39.958557941624576
            ],
            [
              116.34246245218142,
              39.95855632222249
            ],
            [
              116.34246122304364,
              39.958684650642454
            ],
            [
              116.34274678885596,
              39.95868627005186
            ],
            [
              116.34274801746004,
              39.958557941624576
            ]
          ]
        ]
      }
    },
    {
      "type": "Feature",
      "id": "BLD-004",
      "properties": {
        "layer": "BUILDING_FOOTPRINT",
        "source_type": "agent_generated_design",
        "confidence": "medium",
        "geometry_role": "design_proposal",
        "building_type": "ai_r_and_d",
        "floors_assumed": 8,
        "name_zh": "research建筑4",
        "renewal_action": "new_build",
        "id": "BLD-004",
        "area_sqm_declared": 347.72
      },
      "geometry": {
        "type": "Polygon",
        "coordinates": [
          [
            [
              116.34384678024928,
              39.95856416599892
            ],
            [
              116.34356121488183,
              39.95856254930316
            ],
            [
              116.3435599877976,
              39.95869087775126
            ],
            [
              116.34384555369877,
              39.95869249445434
            ],
            [
              116.34384678024928,
              39.95856416599892
            ]
          ]
        ]
      }
    },
    {
      "type": "Feature",
      "id": "BLD-005",
      "properties": {
        "layer": "BUILDING_FOOTPRINT",
        "source_type": "agent_generated_design",
        "confidence": "medium",
        "geometry_role": "design_proposal",
        "building_type": "ai_r_and_d",
        "floors_assumed": 8,
        "name_zh": "research建筑5",
        "renewal_action": "new_build",
        "id": "BLD-005",
        "area_sqm_declared": 347.72
      },
      "geometry": {
        "type": "Polygon",
        "coordinates": [
          [
            [
              116.34494554337991,
              39.958570379960186
            ],
            [
              116.34465997792378,
              39.95856876597075
            ],
            [
              116.34465875289312,
              39.958697094446954
            ],
            [
              116.34494431888297,
              39.95869870844369
            ],
            [
              116.34494554337991,
              39.958570379960186
            ]
          ]
        ]
      }
    },
    {
      "type": "Feature",
      "id": "BLD-006",
      "properties": {
        "layer": "BUILDING_FOOTPRINT",
        "source_type": "agent_generated_design",
        "confidence": "medium",
        "geometry_role": "design_proposal",
        "building_type": "ai_r_and_d",
        "floors_assumed": 8,
        "name_zh": "research建筑6",
        "renewal_action": "renovate",
        "id": "BLD-006",
        "area_sqm_declared": 347.72
      },
      "geometry": {
        "type": "Polygon",
        "coordinates": [
          [
            [
              116.34604430685141,
              39.95857658350838
            ],
            [
              116.34575874130675,
              39.958574972225264
            ],
            [
              116.34575751832966,
              39.95870330072953
            ],
            [
              116.34604308440802,
              39.95870491201992
            ],
            [
              116.34604430685141,
              39.95857658350838
            ]
          ]
        ]
      }
    },
    {
      "type": "Feature",
      "id": "BLD-007",
      "properties": {
        "layer": "BUILDING_FOOTPRINT",
        "source_type": "agent_generated_design",
        "confidence": "medium",
        "geometry_role": "design_proposal",
        "building_type": "ai_r_and_d",
        "floors_assumed": 8,
        "name_zh": "research建筑7",
        "renewal_action": "new_build",
        "id": "BLD-007",
        "area_sqm_declared": 347.72
      },
      "geometry": {
        "type": "Polygon",
        "coordinates": [
          [
            [
              116.34054229150358,
              39.95939923318449
            ],
            [
              116.34025672285217,
              39.95939760832088
            ],
            [
              116.34025548955468,
              39.959525936665244
            ],
            [
              116.3405410587398,
              39.95952756153619
            ],
            [
              116.34054229150358,
              39.95939923318449
            ]
          ]
        ]
      }
    },
    {
      "type": "Feature",
      "id": "BLD-008",
      "properties": {
        "layer": "BUILDING_FOOTPRINT",
        "source_type": "agent_generated_design",
        "confidence": "medium",
        "geometry_role": "design_proposal",
        "building_type": "ai_r_and_d",
        "floors_assumed": 8,
        "name_zh": "research建筑8",
        "renewal_action": "new_build",
        "id": "BLD-008",
        "area_sqm_declared": 347.72
      },
      "geometry": {
        "type": "Polygon",
        "coordinates": [
          [
            [
              116.34164106727088,
              39.95940547857276
            ],
            [
              116.34135549853038,
              39.959403856415555
            ],
            [
              116.34135426728649,
              39.95953218478816
            ],
            [
              116.34163983656074,
              39.95953380695269
            ],
            [
              116.34164106727088,
              39.95940547857276
            ]
          ]
        ]
      }
    },
    {
      "type": "Feature",
      "id": "BLD-009",
      "properties": {
        "layer": "BUILDING_FOOTPRINT",
        "source_type": "agent_generated_design",
        "confidence": "medium",
        "geometry_role": "design_proposal",
        "building_type": "ai_r_and_d",
        "floors_assumed": 8,
        "name_zh": "research建筑9",
        "renewal_action": "renovate",
        "id": "BLD-009",
        "area_sqm_declared": 347.72
      },
      "geometry": {
        "type": "Polygon",
        "coordinates": [
          [
            [
              116.34273984338074,
              39.95941171354766
            ],
            [
              116.34245427455126,
              39.95941009409687
            ],
            [
              116.34245304536104,
              39.95953842249766
            ],
            [
              116.34273861472428,
              39.959540041955776
            ],
            [
              116.34273984338074,
              39.95941171354766
            ]
          ]
        ]
      }
    },
    {
      "type": "Feature",
      "id": "BLD-010",
      "properties": {
        "layer": "BUILDING_FOOTPRINT",
        "source_type": "agent_generated_design",
        "confidence": "medium",
        "geometry_role": "design_proposal",
        "building_type": "ai_r_and_d",
        "floors_assumed": 8,
        "name_zh": "research建筑10",
        "renewal_action": "new_build",
        "id": "BLD-010",
        "area_sqm_declared": 347.72
      },
      "geometry": {
        "type": "Polygon",
        "coordinates": [
          [
            [
              116.34383861983262,
              39.959417938109176
            ],
            [
              116.34355305091431,
              39.95941632136479
            ],
            [
              116.34355182377774,
              39.95954464979374
            ],
            [
              116.3438373932298,
              39.95954626654544
            ],
            [
              116.34383861983262,
              39.959417938109176
            ]
          ]
        ]
      }
    },
    {
      "type": "Feature",
      "id": "BLD-011",
      "properties": {
        "layer": "BUILDING_FOOTPRINT",
        "source_type": "agent_generated_design",
        "confidence": "medium",
        "geometry_role": "design_proposal",
        "building_type": "ai_r_and_d",
        "floors_assumed": 8,
        "name_zh": "research建筑11",
        "renewal_action": "new_build",
        "id": "BLD-011",
        "area_sqm_declared": 347.72
      },
      "geometry": {
        "type": "Polygon",
        "coordinates": [
          [
            [
              116.34493739662595,
              39.95942415225733
            ],
            [
              116.34465182761893,
              39.95942253821935
            ],
            [
              116.344650602536,
              39.959550866676395
            ],
            [
              116.34493617207676,
              39.95955248072166
            ],
            [
              116.34493739662595,
              39.95942415225733
            ]
          ]
        ]
      }
    },
    {
      "type": "Feature",
      "id": "BLD-012",
      "properties": {
        "layer": "BUILDING_FOOTPRINT",
        "source_type": "agent_generated_design",
        "confidence": "medium",
        "geometry_role": "design_proposal",
        "building_type": "ai_r_and_d",
        "floors_assumed": 8,
        "name_zh": "research建筑12",
        "renewal_action": "renovate",
        "id": "BLD-012",
        "area_sqm_declared": 347.72
      },
      "geometry": {
        "type": "Polygon",
        "coordinates": [
          [
            [
              116.3460361737601,
              39.959430355992076
            ],
            [
              116.34575060466457,
              39.95942874466051
            ],
            [
              116.34574938163531,
              39.959557073145604
            ],
            [
              116.34603495126457,
              39.959558684484456
            ],
            [
              116.3460361737601,
              39.959430355992076
            ]
          ]
        ]
      }
    },
    {
      "type": "Feature",
      "id": "BLD-013",
      "properties": {
        "layer": "BUILDING_FOOTPRINT",
        "source_type": "agent_generated_design",
        "confidence": "medium",
        "geometry_role": "design_proposal",
        "building_type": "ai_r_and_d",
        "floors_assumed": 8,
        "name_zh": "research建筑13",
        "renewal_action": "new_build",
        "id": "BLD-013",
        "area_sqm_declared": 347.72
      },
      "geometry": {
        "type": "Polygon",
        "coordinates": [
          [
            [
              116.34053408974918,
              39.96025300460472
            ],
            [
              116.34024851754678,
              39.96025137969226
            ],
            [
              116.34024728419665,
              39.96037970801744
            ],
            [
              116.34053285693284,
              39.96038133293726
            ],
            [
              116.34053408974918,
              39.96025300460472
            ]
          ]
        ]
      }
    },
    {
      "type": "Feature",
      "id": "BLD-014",
      "properties": {
        "layer": "BUILDING_FOOTPRINT",
        "source_type": "agent_generated_design",
        "confidence": "medium",
        "geometry_role": "design_proposal",
        "building_type": "ai_r_and_d",
        "floors_assumed": 8,
        "name_zh": "research建筑14",
        "renewal_action": "new_build",
        "id": "BLD-014",
        "area_sqm_declared": 347.72
      },
      "geometry": {
        "type": "Polygon",
        "coordinates": [
          [
            [
              116.3416328791797,
              39.960259250180805
            ],
            [
              116.34134730688815,
              39.960257627974826
            ],
            [
              116.34134607559176,
              39.96038595632826
            ],
            [
              116.34163164841706,
              39.96038757854157
            ],
            [
              116.3416328791797,
              39.960259250180805
            ]
          ]
        ]
      }
    },
    {
      "type": "Feature",
      "id": "BLD-015",
      "properties": {
        "layer": "BUILDING_FOOTPRINT",
        "source_type": "agent_generated_design",
        "confidence": "medium",
        "geometry_role": "design_proposal",
        "building_type": "ai_r_and_d",
        "floors_assumed": 8,
        "name_zh": "research建筑15",
        "renewal_action": "renovate",
        "id": "BLD-015",
        "area_sqm_declared": 347.72
      },
      "geometry": {
        "type": "Polygon",
        "coordinates": [
          [
            [
              116.34273166895278,
              39.960265485343214
            ],
            [
              116.34244609657227,
              39.960263865843714
            ],
            [
              116.34244486732962,
              39.96039219422534
            ],
            [
              116.3427304402439,
              39.96039381373217
            ],
            [
              116.34273166895278,
              39.960265485343214
            ]
          ]
        ]
      }
    },
    {
      "type": "Feature",
      "id": "BLD-016",
      "properties": {
        "layer": "BUILDING_FOOTPRINT",
        "source_type": "agent_generated_design",
        "confidence": "medium",
        "geometry_role": "design_proposal",
        "building_type": "ai_r_and_d",
        "floors_assumed": 8,
        "name_zh": "research建筑16",
        "renewal_action": "new_build",
        "id": "BLD-016",
        "area_sqm_declared": 347.72
      },
      "geometry": {
        "type": "Polygon",
        "coordinates": [
          [
            [
              116.3438304590679,
              39.96027171009193
            ],
            [
              116.34354488659854,
              39.96027009329892
            ],
            [
              116.34354365940962,
              39.960398421708696
            ],
            [
              116.34382923241274,
              39.96040003850901
            ],
            [
              116.3438304590679,
              39.96027171009193
            ]
          ]
        ]
      }
    },
    {
      "type": "Feature",
      "id": "BLD-017",
      "properties": {
        "layer": "BUILDING_FOOTPRINT",
        "source_type": "agent_generated_design",
        "confidence": "medium",
        "geometry_role": "design_proposal",
        "building_type": "ai_r_and_d",
        "floors_assumed": 8,
        "name_zh": "research建筑17",
        "renewal_action": "new_build",
        "id": "BLD-017",
        "area_sqm_declared": 347.72
      },
      "geometry": {
        "type": "Polygon",
        "coordinates": [
          [
            [
              116.34492924952445,
              39.96027792442694
            ],
            [
              116.34464367696641,
              39.960276310340426
            ],
            [
              116.34464245183122,
              39.960404638778314
            ],
            [
              116.34492802492304,
              39.96040625287212
            ],
            [
              116.34492924952445,
              39.96027792442694
            ]
          ]
        ]
      }
    },
    {
      "type": "Feature",
      "id": "BLD-018",
      "properties": {
        "layer": "BUILDING_FOOTPRINT",
        "source_type": "agent_generated_design",
        "confidence": "medium",
        "geometry_role": "design_proposal",
        "building_type": "ai_r_and_d",
        "floors_assumed": 8,
        "name_zh": "research建筑18",
        "renewal_action": "renovate",
        "id": "BLD-018",
        "area_sqm_declared": 347.72
      },
      "geometry": {
        "type": "Polygon",
        "coordinates": [
          [
            [
              116.34602804032188,
              39.96028412834826
            ],
            [
              116.3457424676753,
              39.96028251696824
            ],
            [
              116.34574124459385,
              39.96041084543417
            ],
            [
              116.34602681777419,
              39.96041245682148
            ],
            [
              116.34602804032188,
              39.96028412834826
            ]
          ]
        ]
      }
    },
    {
      "type": "Feature",
      "id": "BLD-019",
      "properties": {
        "layer": "BUILDING_FOOTPRINT",
        "source_type": "agent_generated_design",
        "confidence": "medium",
        "geometry_role": "design_proposal",
        "building_type": "ai_r_and_d",
        "floors_assumed": 8,
        "name_zh": "research建筑19",
        "renewal_action": "new_build",
        "id": "BLD-019",
        "area_sqm_declared": 347.72
      },
      "geometry": {
        "type": "Polygon",
        "coordinates": [
          [
            [
              116.34052588764493,
              39.961106775897434
            ],
            [
              116.34024031189135,
              39.9611051509361
            ],
            [
              116.34023907848861,
              39.96123347924211
            ],
            [
              116.34052465477599,
              39.96123510421079
            ],
            [
              116.34052588764493,
              39.961106775897434
            ]
          ]
        ]
      }
    },
    {
      "type": "Feature",
      "id": "BLD-020",
      "properties": {
        "layer": "BUILDING_FOOTPRINT",
        "source_type": "agent_generated_design",
        "confidence": "medium",
        "geometry_role": "design_proposal",
        "building_type": "ai_r_and_d",
        "floors_assumed": 8,
        "name_zh": "research建筑20",
        "renewal_action": "new_build",
        "id": "BLD-020",
        "area_sqm_declared": 347.72
      },
      "geometry": {
        "type": "Polygon",
        "coordinates": [
          [
            [
              116.34162469073922,
              39.96111302166134
            ],
            [
              116.34133911489648,
              39.96111139940657
            ],
            [
              116.3413378835476,
              39.961239727740825
            ],
            [
              116.34162345992408,
              39.96124135000293
            ],
            [
              116.34162469073922,
              39.96111302166134
            ]
          ]
        ]
      }
    },
    {
      "type": "Feature",
      "id": "BLD-021",
      "properties": {
        "layer": "BUILDING_FOOTPRINT",
        "source_type": "agent_generated_design",
        "confidence": "medium",
        "geometry_role": "design_proposal",
        "building_type": "ai_r_and_d",
        "floors_assumed": 8,
        "name_zh": "research建筑21",
        "renewal_action": "renovate",
        "id": "BLD-021",
        "area_sqm_declared": 347.72
      },
      "geometry": {
        "type": "Polygon",
        "coordinates": [
          [
            [
              116.34272349417611,
              39.961119257011255
            ],
            [
              116.34243791824439,
              39.96111763746305
            ],
            [
              116.34243668894932,
              39.961245965825505
            ],
            [
              116.3427222654148,
              39.96124758538103
            ],
            [
              116.34272349417611,
              39.961119257011255
            ]
          ]
        ]
      }
    },
    {
      "type": "Feature",
      "id": "BLD-022",
      "properties": {
        "layer": "BUILDING_FOOTPRINT",
        "source_type": "agent_generated_design",
        "confidence": "medium",
        "geometry_role": "design_proposal",
        "building_type": "ai_r_and_d",
        "floors_assumed": 8,
        "name_zh": "research建筑22",
        "renewal_action": "new_build",
        "id": "BLD-022",
        "area_sqm_declared": 347.72
      },
      "geometry": {
        "type": "Polygon",
        "coordinates": [
          [
            [
              116.34382229795504,
              39.961125481947164
            ],
            [
              116.3435367219345,
              39.961123865105534
            ],
            [
              116.34353549469321,
              39.961252193496136
            ],
            [
              116.34382107124753,
              39.96125381034508
            ],
            [
              116.34382229795504,
              39.961125481947164
            ]
          ]
        ]
      }
    },
    {
      "type": "Feature",
      "id": "BLD-023",
      "properties": {
        "layer": "BUILDING_FOOTPRINT",
        "source_type": "agent_generated_design",
        "confidence": "medium",
        "geometry_role": "design_proposal",
        "building_type": "ai_r_and_d",
        "floors_assumed": 8,
        "name_zh": "research建筑23",
        "renewal_action": "new_build",
        "id": "BLD-023",
        "area_sqm_declared": 347.72
      },
      "geometry": {
        "type": "Polygon",
        "coordinates": [
          [
            [
              116.3449211020754,
              39.96113169646907
            ],
            [
              116.34463552596618,
              39.96113008233401
            ],
            [
              116.34463430077874,
              39.96125841075272
            ],
            [
              116.34491987742176,
              39.96126002489506
            ],
            [
              116.3449211020754,
              39.96113169646907
            ]
          ]
        ]
      }
    },
    {
      "type": "Feature",
      "id": "BLD-024",
      "properties": {
        "layer": "BUILDING_FOOTPRINT",
        "source_type": "agent_generated_design",
        "confidence": "medium",
        "geometry_role": "design_proposal",
        "building_type": "ai_r_and_d",
        "floors_assumed": 8,
        "name_zh": "research建筑24",
        "renewal_action": "renovate",
        "id": "BLD-024",
        "area_sqm_declared": 347.72
      },
      "geometry": {
        "type": "Polygon",
        "coordinates": [
          [
            [
              116.34601990653668,
              39.961137900576944
            ],
            [
              116.34573433033891,
              39.96113628914846
            ],
            [
              116.34573310720529,
              39.961264617595226
            ],
            [
              116.34601868393686,
              39.96126622903099
            ],
            [
              116.34601990653668,
              39.961137900576944
            ]
          ]
        ]
      }
    },
    {
      "type": "Feature",
      "id": "BLD-025",
      "properties": {
        "layer": "BUILDING_FOOTPRINT",
        "source_type": "agent_generated_design",
        "confidence": "medium",
        "geometry_role": "design_proposal",
        "building_type": "ai_r_and_d",
        "floors_assumed": 8,
        "name_zh": "research建筑25",
        "renewal_action": "new_build",
        "id": "BLD-025",
        "area_sqm_declared": 347.72
      },
      "geometry": {
        "type": "Polygon",
        "coordinates": [
          [
            [
              116.34051768519079,
              39.961960547062596
            ],
            [
              116.34023210588587,
              39.9619589220524
            ],
            [
              116.34023087243054,
              39.96208725033925
            ],
            [
              116.34051645226924,
              39.962088875356805
            ],
            [
              116.34051768519079,
              39.961960547062596
            ]
          ]
        ]
      }
    },
    {
      "type": "Feature",
      "id": "BLD-026",
      "properties": {
        "layer": "BUILDING_FOOTPRINT",
        "source_type": "agent_generated_design",
        "confidence": "medium",
        "geometry_role": "design_proposal",
        "building_type": "ai_r_and_d",
        "floors_assumed": 8,
        "name_zh": "research建筑26",
        "renewal_action": "new_build",
        "id": "BLD-026",
        "area_sqm_declared": 347.72
      },
      "geometry": {
        "type": "Polygon",
        "coordinates": [
          [
            [
              116.34161650194946,
              39.96196679301433
            ],
            [
              116.34133092255539,
              39.96196517071079
            ],
            [
              116.34132969115394,
              39.96209349902587
            ],
            [
              116.34161527108182,
              39.962095121336766
            ],
            [
              116.34161650194946,
              39.96196679301433
            ]
          ]
        ]
      }
    },
    {
      "type": "Feature",
      "id": "BLD-027",
      "properties": {
        "layer": "BUILDING_FOOTPRINT",
        "source_type": "agent_generated_design",
        "confidence": "medium",
        "geometry_role": "design_proposal",
        "building_type": "ai_r_and_d",
        "floors_assumed": 8,
        "name_zh": "research建筑27",
        "renewal_action": "renovate",
        "id": "BLD-027",
        "area_sqm_declared": 347.72
      },
      "geometry": {
        "type": "Polygon",
        "coordinates": [
          [
            [
              116.34271531905071,
              39.96197302855176
            ],
            [
              116.34242973956766,
              39.96197140895486
            ],
            [
              116.34242851022013,
              39.96209973729816
            ],
            [
              116.342714090237,
              39.96210135690237
            ],
            [
              116.34271531905071,
              39.96197302855176
            ]
          ]
        ]
      }
    },
    {
      "type": "Feature",
      "id": "BLD-028",
      "properties": {
        "layer": "BUILDING_FOOTPRINT",
        "source_type": "agent_generated_design",
        "confidence": "medium",
        "geometry_role": "design_proposal",
        "building_type": "ai_r_and_d",
        "floors_assumed": 8,
        "name_zh": "research建筑28",
        "renewal_action": "new_build",
        "id": "BLD-028",
        "area_sqm_declared": 347.72
      },
      "geometry": {
        "type": "Polygon",
        "coordinates": [
          [
            [
              116.34381413649405,
              39.961979253674876
            ],
            [
              116.34352855692214,
              39.961977636784624
            ],
            [
              116.34352732962853,
              39.96210596515606
            ],
            [
              116.34381290973424,
              39.96210758205363
            ],
            [
              116.34381413649405,
              39.961979253674876
            ]
          ]
        ]
      }
    },
    {
      "type": "Feature",
      "id": "BLD-029",
      "properties": {
        "layer": "BUILDING_FOOTPRINT",
        "source_type": "agent_generated_design",
        "confidence": "medium",
        "geometry_role": "design_proposal",
        "building_type": "ai_r_and_d",
        "floors_assumed": 8,
        "name_zh": "research建筑29",
        "renewal_action": "new_build",
        "id": "BLD-029",
        "area_sqm_declared": 347.72
      },
      "geometry": {
        "type": "Polygon",
        "coordinates": [
          [
            [
              116.34491295427881,
              39.96198546838366
            ],
            [
              116.34462737461824,
              39.961983854200064
            ],
            [
              116.34462614937856,
              39.96211218259961
            ],
            [
              116.34491172957293,
              39.962113796790504
            ],
            [
              116.34491295427881,
              39.96198546838366
            ]
          ]
        ]
      }
    },
    {
      "type": "Feature",
      "id": "BLD-030",
      "properties": {
        "layer": "BUILDING_FOOTPRINT",
        "source_type": "agent_generated_design",
        "confidence": "medium",
        "geometry_role": "design_proposal",
        "building_type": "ai_r_and_d",
        "floors_assumed": 8,
        "name_zh": "research建筑30",
        "renewal_action": "renovate",
        "id": "BLD-030",
        "area_sqm_declared": 347.72
      },
      "geometry": {
        "type": "Polygon",
        "coordinates": [
          [
            [
              116.34601177240454,
              39.96199167267812
            ],
            [
              116.34572619265539,
              39.96199006120118
            ],
            [
              116.3457249694696,
              39.962118389628785
            ],
            [
              116.34601054975255,
              39.962120001113
            ],
            [
              116.34601177240454,
              39.96199167267812
            ]
          ]
        ]
      }
    },
    {
      "type": "Feature",
      "id": "BLD-031",
      "properties": {
        "layer": "BUILDING_FOOTPRINT",
        "source_type": "agent_generated_design",
        "confidence": "medium",
        "geometry_role": "design_proposal",
        "building_type": "ai_r_and_d",
        "floors_assumed": 8,
        "name_zh": "research建筑31",
        "renewal_action": "new_build",
        "id": "BLD-031",
        "area_sqm_declared": 347.72
      },
      "geometry": {
        "type": "Polygon",
        "coordinates": [
          [
            [
              116.34050948238675,
              39.962814318100236
            ],
            [
              116.34022389953036,
              39.96281269304117
            ],
            [
              116.3402226660224,
              39.96294102130885
            ],
            [
              116.34050824941262,
              39.96294264637527
            ],
            [
              116.34050948238675,
              39.962814318100236
            ]
          ]
        ]
      }
    },
    {
      "type": "Feature",
      "id": "BLD-032",
      "properties": {
        "layer": "BUILDING_FOOTPRINT",
        "source_type": "agent_generated_design",
        "confidence": "medium",
        "geometry_role": "design_proposal",
        "building_type": "ai_r_and_d",
        "floors_assumed": 8,
        "name_zh": "research建筑32",
        "renewal_action": "new_build",
        "id": "BLD-032",
        "area_sqm_declared": 347.72
      },
      "geometry": {
        "type": "Polygon",
        "coordinates": [
          [
            [
              116.34160831281037,
              39.962820564239806
            ],
            [
              116.34132272986481,
              39.962818941887456
            ],
            [
              116.34132149841085,
              39.96294727018339
            ],
            [
              116.3416070818902,
              39.96294889254307
            ],
            [
              116.34160831281037,
              39.962820564239806
            ]
          ]
        ]
      }
    },
    {
      "type": "Feature",
      "id": "BLD-033",
      "properties": {
        "layer": "BUILDING_FOOTPRINT",
        "source_type": "agent_generated_design",
        "confidence": "medium",
        "geometry_role": "design_proposal",
        "building_type": "ai_r_and_d",
        "floors_assumed": 8,
        "name_zh": "research建筑33",
        "renewal_action": "renovate",
        "id": "BLD-033",
        "area_sqm_declared": 347.72
      },
      "geometry": {
        "type": "Polygon",
        "coordinates": [
          [
            [
              116.34270714357658,
              39.962826799964745
            ],
            [
              116.34242156054205,
              39.96282518031914
            ],
            [
              116.34242033114207,
              39.96295350864327
            ],
            [
              116.34270591471045,
              39.962955128296194
            ],
            [
              116.34270714357658,
              39.962826799964745
            ]
          ]
        ]
      }
    },
    {
      "type": "Feature",
      "id": "BLD-034",
      "properties": {
        "layer": "BUILDING_FOOTPRINT",
        "source_type": "agent_generated_design",
        "confidence": "medium",
        "geometry_role": "design_proposal",
        "building_type": "ai_r_and_d",
        "floors_assumed": 8,
        "name_zh": "research建筑34",
        "renewal_action": "new_build",
        "id": "BLD-034",
        "area_sqm_declared": 347.72
      },
      "geometry": {
        "type": "Polygon",
        "coordinates": [
          [
            [
              116.34380597468487,
              39.96283302527507
            ],
            [
              116.34352039156151,
              39.9628314083362
            ],
            [
              116.34351916421554,
              39.962959736688475
            ],
            [
              116.34380474787275,
              39.96296135363466
            ],
            [
              116.34380597468487,
              39.96283302527507
            ]
          ]
        ]
      }
    },
    {
      "type": "Feature",
      "id": "BLD-035",
      "properties": {
        "layer": "BUILDING_FOOTPRINT",
        "source_type": "agent_generated_design",
        "confidence": "medium",
        "geometry_role": "design_proposal",
        "building_type": "ai_r_and_d",
        "floors_assumed": 8,
        "name_zh": "research建筑35",
        "renewal_action": "new_build",
        "id": "BLD-035",
        "area_sqm_declared": 347.72
      },
      "geometry": {
        "type": "Polygon",
        "coordinates": [
          [
            [
              116.34490480613468,
              39.96283924017076
            ],
            [
              116.34461922292259,
              39.96283762593861
            ],
            [
              116.34461799763062,
              39.962965954318996
            ],
            [
              116.34490358137653,
              39.962967568558426
            ],
            [
              116.34490480613468,
              39.96283924017076
            ]
          ]
        ]
      }
    },
    {
      "type": "Feature",
      "id": "BLD-036",
      "properties": {
        "layer": "BUILDING_FOOTPRINT",
        "source_type": "agent_generated_design",
        "confidence": "medium",
        "geometry_role": "design_proposal",
        "building_type": "ai_r_and_d",
        "floors_assumed": 8,
        "name_zh": "research建筑36",
        "renewal_action": "renovate",
        "id": "BLD-036",
        "area_sqm_declared": 347.72
      },
      "geometry": {
        "type": "Polygon",
        "coordinates": [
          [
            [
              116.34600363792539,
              39.962845444651784
            ],
            [
              116.34571805462475,
              39.96284383312638
            ],
            [
              116.34571683138678,
              39.962972161534815
            ],
            [
              116.34600241522125,
              39.9629737730675
            ],
            [
              116.34600363792539,
              39.962845444651784
            ]
          ]
        ]
      }
    },
    {
      "type": "Feature",
      "id": "BLD-037",
      "properties": {
        "layer": "BUILDING_FOOTPRINT",
        "source_type": "agent_generated_design",
        "confidence": "medium",
        "geometry_role": "design_proposal",
        "building_type": "ai_r_and_d",
        "floors_assumed": 8,
        "name_zh": "research建筑37",
        "renewal_action": "new_build",
        "id": "BLD-037",
        "area_sqm_declared": 347.72
      },
      "geometry": {
        "type": "Polygon",
        "coordinates": [
          [
            [
              116.34050127923278,
              39.96366808901034
            ],
            [
              116.34021569282478,
              39.96366646390241
            ],
            [
              116.3402144592642,
              39.96379479215092
            ],
            [
              116.34050004620606,
              39.96379641726621
            ],
            [
              116.34050127923278,
              39.96366808901034
            ]
          ]
        ]
      }
    },
    {
      "type": "Feature",
      "id": "BLD-038",
      "properties": {
        "layer": "BUILDING_FOOTPRINT",
        "source_type": "agent_generated_design",
        "confidence": "medium",
        "geometry_role": "design_proposal",
        "building_type": "ai_r_and_d",
        "floors_assumed": 8,
        "name_zh": "research建筑38",
        "renewal_action": "new_build",
        "id": "BLD-038",
        "area_sqm_declared": 347.72
      },
      "geometry": {
        "type": "Polygon",
        "coordinates": [
          [
            [
              116.34160012332191,
              39.96367433533774
            ],
            [
              116.34131453682475,
              39.963672712936614
            ],
            [
              116.34131330531825,
              39.96380104121338
            ],
            [
              116.34159889234927,
              39.96380266362184
            ],
            [
              116.34160012332191,
              39.96367433533774
            ]
          ]
        ]
      }
    },
    {
      "type": "Feature",
      "id": "BLD-039",
      "properties": {
        "layer": "BUILDING_FOOTPRINT",
        "source_type": "agent_generated_design",
        "confidence": "medium",
        "geometry_role": "design_proposal",
        "building_type": "ai_r_and_d",
        "floors_assumed": 8,
        "name_zh": "research建筑39",
        "renewal_action": "renovate",
        "id": "BLD-039",
        "area_sqm_declared": 347.72
      },
      "geometry": {
        "type": "Polygon",
        "coordinates": [
          [
            [
              116.3426989677537,
              39.96368057125022
            ],
            [
              116.34241338116753,
              39.9636789515559
            ],
            [
              116.34241215171511,
              39.96380727986086
            ],
            [
              116.34269773883514,
              39.963808899562494
            ],
            [
              116.3426989677537,
              39.96368057125022
            ]
          ]
        ]
      }
    },
    {
      "type": "Feature",
      "id": "BLD-040",
      "properties": {
        "layer": "BUILDING_FOOTPRINT",
        "source_type": "agent_generated_design",
        "confidence": "medium",
        "geometry_role": "design_proposal",
        "building_type": "ai_r_and_d",
        "floors_assumed": 8,
        "name_zh": "research建筑40",
        "renewal_action": "new_build",
        "id": "BLD-040",
        "area_sqm_declared": 347.72
      },
      "geometry": {
        "type": "Polygon",
        "coordinates": [
          [
            [
              116.34379781252757,
              39.96368679674774
            ],
            [
              116.34351222585255,
              39.96368517976024
            ],
            [
              116.3435109984542,
              39.96381350809335
            ],
            [
              116.34379658566307,
              39.96381512508815
            ],
            [
              116.34379781252757,
              39.96368679674774
            ]
          ]
        ]
      }
    },
    {
      "type": "Feature",
      "id": "BLD-041",
      "properties": {
        "layer": "BUILDING_FOOTPRINT",
        "source_type": "agent_generated_design",
        "confidence": "medium",
        "geometry_role": "design_proposal",
        "building_type": "ai_r_and_d",
        "floors_assumed": 8,
        "name_zh": "research建筑41",
        "renewal_action": "new_build",
        "id": "BLD-041",
        "area_sqm_declared": 347.72
      },
      "geometry": {
        "type": "Polygon",
        "coordinates": [
          [
            [
              116.34489665764292,
              39.96369301183033
            ],
            [
              116.3446110708792,
              39.96369139754963
            ],
            [
              116.34460984553496,
              39.96381972591085
            ],
            [
              116.34489543283253,
              39.96382134019883
            ],
            [
              116.34489665764292,
              39.96369301183033
            ]
          ]
        ]
      }
    },
    {
      "type": "Feature",
      "id": "BLD-042",
      "properties": {
        "layer": "BUILDING_FOOTPRINT",
        "source_type": "agent_generated_design",
        "confidence": "medium",
        "geometry_role": "design_proposal",
        "building_type": "ai_r_and_d",
        "floors_assumed": 8,
        "name_zh": "research建筑42",
        "renewal_action": "renovate",
        "id": "BLD-042",
        "area_sqm_declared": 347.72
      },
      "geometry": {
        "type": "Polygon",
        "coordinates": [
          [
            [
              116.34599550309923,
              39.96369921649793
            ],
            [
              116.34570991624696,
              39.96369760492408
            ],
            [
              116.3457086929568,
              39.96382593331335
            ],
            [
              116.34599428034295,
              39.96382754489449
            ],
            [
              116.34599550309923,
              39.96369921649793
            ]
          ]
        ]
      }
    },
    {
      "type": "Feature",
      "id": "BLD-043",
      "properties": {
        "layer": "BUILDING_FOOTPRINT",
        "source_type": "agent_generated_design",
        "confidence": "medium",
        "geometry_role": "design_proposal",
        "building_type": "ai_r_and_d",
        "floors_assumed": 8,
        "name_zh": "research建筑43",
        "renewal_action": "new_build",
        "id": "BLD-043",
        "area_sqm_declared": 347.72
      },
      "geometry": {
        "type": "Polygon",
        "coordinates": [
          [
            [
              116.34049307572892,
              39.96452185979292
            ],
            [
              116.34020748576911,
              39.964520234636105
            ],
            [
              116.3402062521559,
              39.96464856286545
            ],
            [
              116.34049184264957,
              39.9646501880296
            ],
            [
              116.34049307572892,
              39.96452185979292
            ]
          ]
        ]
      }
    },
    {
      "type": "Feature",
      "id": "BLD-044",
      "properties": {
        "layer": "BUILDING_FOOTPRINT",
        "source_type": "agent_generated_design",
        "confidence": "medium",
        "geometry_role": "design_proposal",
        "building_type": "ai_r_and_d",
        "floors_assumed": 8,
        "name_zh": "research建筑44",
        "renewal_action": "new_build",
        "id": "BLD-044",
        "area_sqm_declared": 347.72
      },
      "geometry": {
        "type": "Polygon",
        "coordinates": [
          [
            [
              116.34159193348414,
              39.964528106308165
            ],
            [
              116.34130634343519,
              39.96452648385824
            ],
            [
              116.34130511187615,
              39.96465481211582
            ],
            [
              116.34159070245897,
              39.96465643457307
            ],
            [
              116.34159193348414,
              39.964528106308165
            ]
          ]
        ]
      }
    },
    {
      "type": "Feature",
      "id": "BLD-045",
      "properties": {
        "layer": "BUILDING_FOOTPRINT",
        "source_type": "agent_generated_design",
        "confidence": "medium",
        "geometry_role": "design_proposal",
        "building_type": "ai_r_and_d",
        "floors_assumed": 8,
        "name_zh": "research建筑45",
        "renewal_action": "renovate",
        "id": "BLD-045",
        "area_sqm_declared": 347.72
      },
      "geometry": {
        "type": "Polygon",
        "coordinates": [
          [
            [
              116.34269079158204,
              39.96453434240816
            ],
            [
              116.34240520144408,
              39.96453272266513
            ],
            [
              116.34240397193922,
              39.964661050950916
            ],
            [
              116.34268956261106,
              39.96466267070126
            ],
            [
              116.34269079158204,
              39.96453434240816
            ]
          ]
        ]
      }
    },
    {
      "type": "Feature",
      "id": "BLD-046",
      "properties": {
        "layer": "BUILDING_FOOTPRINT",
        "source_type": "agent_generated_design",
        "confidence": "medium",
        "geometry_role": "design_proposal",
        "building_type": "ai_r_and_d",
        "floors_assumed": 8,
        "name_zh": "research建筑46",
        "renewal_action": "new_build",
        "id": "BLD-046",
        "area_sqm_declared": 347.72
      },
      "geometry": {
        "type": "Polygon",
        "coordinates": [
          [
            [
              116.34378965002206,
              39.9645405680929
            ],
            [
              116.34350405979525,
              39.964538951056774
            ],
            [
              116.34350283234454,
              39.9646672793707
            ],
            [
              116.34378842310522,
              39.964668896414146
            ],
            [
              116.34378965002206,
              39.9645405680929
            ]
          ]
        ]
      }
    },
    {
      "type": "Feature",
      "id": "BLD-047",
      "properties": {
        "layer": "BUILDING_FOOTPRINT",
        "source_type": "agent_generated_design",
        "confidence": "medium",
        "geometry_role": "design_proposal",
        "building_type": "ai_r_and_d",
        "floors_assumed": 8,
        "name_zh": "research建筑47",
        "renewal_action": "new_build",
        "id": "BLD-047",
        "area_sqm_declared": 347.72
      },
      "geometry": {
        "type": "Polygon",
        "coordinates": [
          [
            [
              116.34488850880356,
              39.96454678336237
            ],
            [
              116.34460291848805,
              39.96454516903315
            ],
            [
              116.34460169309156,
              39.964673497375195
            ],
            [
              116.34488728394093,
              39.96467511171171
            ],
            [
              116.34488850880356,
              39.96454678336237
            ]
          ]
        ]
      }
    },
    {
      "type": "Feature",
      "id": "BLD-048",
      "properties": {
        "layer": "BUILDING_FOOTPRINT",
        "source_type": "agent_generated_design",
        "confidence": "medium",
        "geometry_role": "design_proposal",
        "building_type": "ai_r_and_d",
        "floors_assumed": 8,
        "name_zh": "research建筑48",
        "renewal_action": "renovate",
        "id": "BLD-048",
        "area_sqm_declared": 347.72
      },
      "geometry": {
        "type": "Polygon",
        "coordinates": [
          [
            [
              116.34598736792606,
              39.96455298821659
            ],
            [
              116.34570177752197,
              39.96455137659426
            ],
            [
              116.34570055417966,
              39.96467970496436
            ],
            [
              116.3459861451176,
              39.96468131659397
            ],
            [
              116.34598736792606,
              39.96455298821659
            ]
          ]
        ]
      }
    }
  ]
}
