{
  "type": "FeatureCollection",
  "name": "green_space_evidence_spine",
  "features": [
    {
      "type": "Feature",
      "id": "GS-SPINE",
      "properties": {
        "layer": "GREEN_SPACE",
        "source_type": "agent_generated_design",
        "confidence": "medium",
        "geometry_role": "design_proposal",
        "name_zh": "证据脊梁公园与节点绿地",
        "green_type": "park_and_pocket",
        "id": "GS-SPINE",
        "area_sqm_declared": 2208629.482
      },
      "geometry": {
        "type": "MultiPolygon",
        "coordinates": [
          [
            [
              [
                116.34708750000001,
                39.939
              ],
              [
                116.34663720415057,
                39.93900000001156
              ],
              [
                116.34636263961421,
                39.967848453380306
              ],
              [
                116.34925733617932,
                39.96786473975865
              ],
              [
                116.34953083903818,
                39.93900000020562
              ],
              [
                116.34936875,
                39.938999999999986
              ],
              [
                116.3489125,
                39.939
              ],
              [
                116.34845625000001,
                39.93899999999999
              ],
              [
                116.348,
                39.93899999999999
              ],
              [
                116.34754375,
                39.939
              ],
              [
                116.34708750000001,
                39.939
              ]
            ]
          ],
          [
            [
              [
                116.3517329309256,
                39.963237556064946
              ],
              [
                116.35169808374279,
                39.9632128954005
              ],
              [
                116.35166026312926,
                39.96319098176325
              ],
              [
                116.35161983331622,
                39.96317202619072
              ],
              [
                116.35157718366155,
                39.96315621123298
              ],
              [
                116.35153272490025,
                39.96314368919445
              ],
              [
                116.35148688518892,
                39.963134580667386
              ],
              [
                116.3514401059826,
                39.96312897337047
              ],
              [
                116.35139283778365,
                39.963126921304095
              ],
              [
                116.35134553580333,
                39.96312844423046
              ],
              [
                116.35129865557823,
                39.96313352748309
              ],
              [
                116.35125264858344,
                39.96314212210821
              ],
              [
                116.35120795788494,
                39.96315414533613
              ],
              [
                116.3511650138727,
                39.96316948137826
              ],
              [
                116.3511242301163,
                39.96318798254225
              ],
              [
                116.35108599938188,
                39.96320947065418
              ],
              [
                116.35105068985008,
                39.96323373877449
              ],
              [
                116.35101864157008,
                39.963260553190615
              ],
              [
                116.35099016318486,
                39.96328965566792
              ],
              [
                116.35096552895878,
                39.96332076593634
              ],
              [
                116.3509449761362,
                39.96335358438947
              ],
              [
                116.35092870265663,
                39.96338779496992
              ],
              [
                116.35091686524812,
                39.96342306821293
              ],
              [
                116.35090957791778,
                39.96345906441933
              ],
              [
                116.35090691085357,
                39.96349543692686
              ],
              [
                116.3509088897481,
                39.96353183544875
              ],
              [
                116.3509154955509,
                39.96356790944718
              ],
              [
                116.35092666465154,
                39.963603311509104
              ],
              [
                116.35094228949208,
                39.96363770069207
              ],
              [
                116.35096221960256,
                39.96367074580778
              ],
              [
                116.35098626304996,
                39.963702128611565
              ],
              [
                116.35101418828634,
                39.96373154686748
              ],
              [
                116.35104572637874,
                39.96375871725897
              ],
              [
                116.35108057359898,
                39.96378337811755
              ],
              [
                116.35111839434876,
                39.96380529194284
              ],
              [
                116.35115882439162,
                39.96382424769007
              ],
              [
                116.3512014743608,
                39.96384006280248
              ],
              [
                116.35124593350932,
                39.96385258496967
              ],
              [
                116.35129177366565,
                39.963861693594474
              ],
              [
                116.35133855335762,
                39.963867300954455
              ],
              [
                116.35138582206424,
                39.963869353046746
              ],
              [
                116.35143312455473,
                39.96386783010823
              ],
              [
                116.35148000527289,
                39.96386274680578
              ],
              [
                116.35152601272465,
                39.96385415209514
              ],
              [
                116.35157070382658,
                39.96384212874925
              ],
              [
                116.35161364817309,
                39.96382679256123
              ],
              [
                116.3516544321818,
                39.96380829122905
              ],
              [
                116.35169266307683,
                39.96378680293309
              ],
              [
                116.35172797267145,
                39.96376253462002
              ],
              [
                116.35176002091403,
                39.96373572000974
              ],
              [
                116.35178849916304,
                39.9637066173444
              ],
              [
                116.3518131331593,
                39.96367550690129
              ],
              [
                116.3518336856673,
                39.96364268829348
              ],
              [
                116.35184995875969,
                39.96360847758437
              ],
              [
                116.35186179572322,
                39.9635732042436
              ],
              [
                116.35186908256792,
                39.96353720797416
              ],
              [
                116.35187174912446,
                39.96350083544071
              ],
              [
                116.35186976971976,
                39.963464436930984
              ],
              [
                116.3518631634239,
                39.963428362982356
              ],
              [
                116.35185199386625,
                39.96339296100598
              ],
              [
                116.35183636862232,
                39.96335857194097
              ],
              [
                116.35181643817755,
                39.96332552697115
              ],
              [
                116.35179239447787,
                39.963294144335535
              ],
              [
                116.35176446908082,
                39.963264726263645
              ],
              [
                116.3517329309256,
                39.963237556064946
              ]
            ]
          ],
          [
            [
              [
                116.34299630927337,
                39.9806150506912
              ],
              [
                116.34294983894806,
                39.98058216633791
              ],
              [
                116.34289940258016,
                39.98055294436043
              ],
              [
                116.342845485896,
                39.980527666177544
              ],
              [
                116.34278860813681,
                39.98050657522752
              ],
              [
                116.3427293170585,
                39.98048987462376
              ],
              [
                116.34266818365658,
                39.98047772519891
              ],
              [
                116.34260579666778,
                39.980470243956056
              ],
              [
                116.34254275690049,
                39.98046750294206
              ],
              [
                116.34247967144903,
                39.98046952855371
              ],
              [
                116.34241714784778,
                39.98047630128357
              ],
              [
                116.34235578822057,
                39.980487755907824
              ],
              [
                116.34229618348242,
                39.98050378211434
              ],
              [
                116.3422389076492,
                39.98052422556505
              ],
              [
                116.34218451230993,
                39.98054888938207
              ],
              [
                116.34213352131502,
                39.980577536043654
              ],
              [
                116.34208642573147,
                39.980609889671506
              ],
              [
                116.3420436791139,
                39.98064563868746
              ],
              [
                116.34200569313656,
                39.9806844388139
              ],
              [
                116.34197283362863,
                39.98072591638923
              ],
              [
                116.34194541705106,
                39.98076967196618
              ],
              [
                116.34192370744853,
                39.98081528415862
              ],
              [
                116.34190791390628,
                39.98086231369949
              ],
              [
                116.34189818853618,
                39.98091030767109
              ],
              [
                116.34189462501125,
                39.98095880386687
              ],
              [
                116.34189725766323,
                39.98100733524262
              ],
              [
                116.34190606115132,
                39.98105543441435
              ],
              [
                116.34192095070573,
                39.98110263815947
              ],
              [
                116.34194178294364,
                39.98114849187792
              ],
              [
                116.34196835724953,
                39.9811925539703
              ],
              [
                116.34200041770691,
                39.981234400090855
              ],
              [
                116.34203765556248,
                39.98127362723424
              ],
              [
                116.34207971219946,
                39.98130985761693
              ],
              [
                116.34212618259106,
                39.981342742315576
              ],
              [
                116.3421766192011,
                39.9813719646276
              ],
              [
                116.34223053629388,
                39.98139724312134
              ],
              [
                116.34228741461253,
                39.98141833434659
              ],
              [
                116.34234670637962,
                39.981435035179366
              ],
              [
                116.34240784057314,
                39.981447184778226
              ],
              [
                116.34247022842597,
                39.981454666133395
              ],
              [
                116.34253326909656,
                39.9814574071937
              ],
              [
                116.34259635545578,
                39.981455381560565
              ],
              [
                116.34265887993442,
                39.98144860874225
              ],
              [
                116.34272024037493,
                39.98143715396599
              ],
              [
                116.34277984583105,
                39.98142112754973
              ],
              [
                116.34283712225928,
                39.98140068383962
              ],
              [
                116.34289151804775,
                39.981376019723506
              ],
              [
                116.34294250932881,
                39.98134737273462
              ],
              [
                116.34298960502443,
                39.981315018763844
              ],
              [
                116.34303235157572,
                39.981279269402535
              ],
              [
                116.34307033731095,
                39.98124046894156
              ],
              [
                116.34310319641021,
                39.98119899105538
              ],
              [
                116.34313061242833,
                39.9811552352032
              ],
              [
                116.34315232134209,
                39.98110962278175
              ],
              [
                116.3431681140927,
                39.98106259306687
              ],
              [
                116.34317783859879,
                39.98101459898296
              ],
              [
                116.34318140122043,
                39.98096610274088
              ],
              [
                116.34317876766067,
                39.9809175713866
              ],
              [
                116.34316996329518,
                39.980869472303326
              ],
              [
                116.34315507292747,
                39.98082226871021
              ],
              [
                116.34313423997162,
                39.9807764152015
              ],
              [
                116.34310766507072,
                39.980732353368516
              ],
              [
                116.34307560416413,
                39.98069050754707
              ],
              [
                116.34303836602243,
                39.98065128073097
              ],
              [
                116.34299630927337,
                39.9806150506912
              ]
            ]
          ],
          [
            [
              [
                116.34921581562874,
                39.97224305460402
              ],
              [
                116.34632093439986,
                39.972226765713984
              ],
              [
                116.34612062231474,
                39.993242618233566
              ],
              [
                116.34901639049214,
                39.99325891918409
              ],
              [
                116.34921581562874,
                39.97224305460402
              ]
            ]
          ],
          [
            [
              [
                116.35239136446478,
                40.00172863028096
              ],
              [
                116.35235068653796,
                40.0016998597419
              ],
              [
                116.35230653767239,
                40.00167429404867
              ],
              [
                116.35225934304312,
                40.00165217940919
              ],
              [
                116.3522095571557,
                40.00163372879608
              ],
              [
                116.35215765946928,
                40.00161911989582
              ],
              [
                116.35210414977934,
                40.00160849339757
              ],
              [
                116.35204954340469,
                40.00160195163838
              ],
              [
                116.35199436622503,
                40.00159955761776
              ],
              [
                116.35193914961683,
                40.001601334390934
              ],
              [
                116.35188442533617,
                40.001607264846804
              ],
              [
                116.3518307203981,
                40.00161729187285
              ],
              [
                116.35177855200158,
                40.00163131890499
              ],
              [
                116.35172842254886,
                40.001649210857565
              ],
              [
                116.3516808148074,
                40.00167079542414
              ],
              [
                116.3516361872608,
                40.00169586473685
              ],
              [
                116.3515949696936,
                40.001724177368125
              ],
              [
                116.35155755905227,
                40.00175546065562
              ],
              [
                116.35152431562248,
                40.001789413328005
              ],
              [
                116.35149555955931,
                40.00182570840616
              ],
              [
                116.35147156780384,
                40.00186399635206
              ],
              [
                116.35145257141602,
                40.001903908434905
              ],
              [
                116.35143875334903,
                40.00194506028205
              ],
              [
                116.35143024668713,
                40.00198705558061
              ],
              [
                116.35142713336367,
                40.00202948989416
              ],
              [
                116.35142944337166,
                40.002071954557564
              ],
              [
                116.35143715447443,
                40.00211404061266
              ],
              [
                116.35145019241953,
                40.00215534274675
              ],
              [
                116.35146843165344,
                40.00219546319603
              ],
              [
                116.35149169653026,
                40.002234015576335
              ],
              [
                116.35151976300307,
                40.00227062860427
              ],
              [
                116.35155236078135,
                40.00230494967312
              ],
              [
                116.35158917593384,
                40.00233664824856
              ],
              [
                116.35162985391173,
                40.00236541905223
              ],
              [
                116.3516740029631,
                40.00239098500175
              ],
              [
                116.35172119790579,
                40.00241309987934
              ],
              [
                116.3517709842222,
                40.00243155070323
              ],
              [
                116.3518228824367,
                40.002446159778856
              ],
              [
                116.3518763927335,
                40.00245678641031
              ],
              [
                116.35193099977043,
                40.00246332825541
              ],
              [
                116.3519861776424,
                40.00246572231137
              ],
              [
                116.35204139494634,
                40.00246394552162
              ],
              [
                116.35209611989939,
                40.002458014997835
              ],
              [
                116.35214982546069,
                40.00244798785519
              ],
              [
                116.35220199440731,
                40.00243396066224
              ],
              [
                116.35225212431588,
                40.00241606851082
              ],
              [
                116.3522997324014,
                40.00239448371501
              ],
              [
                116.35234436016708,
                40.002369414151474
              ],
              [
                116.3523855778199,
                40.00234110125744
              ],
              [
                116.35242298841017,
                40.00230981770533
              ],
              [
                116.35245623165413,
                40.00227586477668
              ],
              [
                116.3524849874039,
                40.00223956946042
              ],
              [
                116.35250897873037,
                40.00220128130372
              ],
              [
                116.35252797459013,
                40.002161369045496
              ],
              [
                116.35254179205029,
                40.00212021706516
              ],
              [
                116.35255029804988,
                40.00207822168068
              ],
              [
                116.35255341068098,
                40.0020357873318
              ],
              [
                116.3525510999773,
                40.001993322684996
              ],
              [
                116.35254338820214,
                40.0019512366978
              ],
              [
                116.3525303496338,
                40.001909934680306
              ],
              [
                116.35251210984977,
                40.00186981439184
              ],
              [
                116.35248884451711,
                40.00183126221039
              ],
              [
                116.35246077770024,
                40.001794649411664
              ],
              [
                116.35242817970288,
                40.00176032859365
              ],
              [
                116.35239136446478,
                40.00172863028096
              ]
            ]
          ],
          [
            [
              [
                116.34860624999999,
                40.0265
              ],
              [
                116.34870052757172,
                40.02650000012183
              ],
              [
                116.3489831326031,
                39.99676155576896
              ],
              [
                116.3460872165104,
                39.99674525280765
              ],
              [
                116.34580319869073,
                40.026500000070065
              ],
              [
                116.34585,
                40.0265
              ],
              [
                116.34624375,
                40.02649999999999
              ],
              [
                116.34663750000001,
                40.0265
              ],
              [
                116.34703125,
                40.02649999999999
              ],
              [
                116.34742500000002,
                40.02649999999999
              ],
              [
                116.34781875,
                40.0265
              ],
              [
                116.3482125,
                40.02649999999999
              ],
              [
                116.34860624999999,
                40.0265
              ]
            ]
          ]
        ]
      }
    }
  ]
}
