{
  "type": "FeatureCollection",
  "name": "land_use_evidence_spine",
  "features": [
    {
      "type": "Feature",
      "id": "LU-SPINE",
      "properties": {
        "layer": "LAND_USE",
        "source_type": "agent_generated_design",
        "confidence": "medium",
        "geometry_role": "design_proposal",
        "land_use_code": "1401",
        "name_zh": "证据脊梁蓝绿文化带",
        "id": "LU-SPINE",
        "area_sqm_declared": 2186571.993
      },
      "geometry": {
        "type": "MultiPolygon",
        "coordinates": [
          [
            [
              [
                116.3489125,
                39.939
              ],
              [
                116.34845625000001,
                39.93899999999999
              ],
              [
                116.348,
                39.93899999999999
              ],
              [
                116.34754375,
                39.939
              ],
              [
                116.34708750000001,
                39.939
              ],
              [
                116.34663720415057,
                39.93900000001156
              ],
              [
                116.34636263961421,
                39.967848453380306
              ],
              [
                116.34925733617932,
                39.96786473975865
              ],
              [
                116.34953083903818,
                39.93900000020562
              ],
              [
                116.34936875,
                39.938999999999986
              ],
              [
                116.3489125,
                39.939
              ]
            ]
          ],
          [
            [
              [
                116.34921581562874,
                39.97224305460402
              ],
              [
                116.34632093439986,
                39.972226765713984
              ],
              [
                116.34612062231474,
                39.993242618233566
              ],
              [
                116.34901639049214,
                39.99325891918409
              ],
              [
                116.34921581562874,
                39.97224305460402
              ]
            ]
          ],
          [
            [
              [
                116.34624375,
                40.02649999999999
              ],
              [
                116.34663750000001,
                40.0265
              ],
              [
                116.34703125,
                40.02649999999999
              ],
              [
                116.34742500000002,
                40.02649999999999
              ],
              [
                116.34781875,
                40.0265
              ],
              [
                116.3482125,
                40.02649999999999
              ],
              [
                116.34860624999999,
                40.0265
              ],
              [
                116.34870052757172,
                40.02650000012183
              ],
              [
                116.3489831326031,
                39.99676155576896
              ],
              [
                116.3460872165104,
                39.99674525280765
              ],
              [
                116.34580319869073,
                40.026500000070065
              ],
              [
                116.34585,
                40.0265
              ],
              [
                116.34624375,
                40.02649999999999
              ]
            ]
          ]
        ]
      }
    },
    {
      "type": "Feature",
      "id": "LU-RD",
      "properties": {
        "layer": "LAND_USE",
        "source_type": "agent_generated_design",
        "confidence": "medium",
        "geometry_role": "design_proposal",
        "land_use_code": "0802",
        "name_zh": "AI研发与科研用地",
        "id": "LU-RD",
        "area_sqm_declared": 2907282.551
      },
      "geometry": {
        "type": "MultiPolygon",
        "coordinates": [
          [
            [
              [
                116.34010624999999,
                39.960375000000006
              ],
              [
                116.34007500000001,
                39.9615
              ],
              [
                116.34004374999999,
                39.962625
              ],
              [
                116.3400125,
                39.96375000000001
              ],
              [
                116.33998124999998,
                39.96487499999999
              ],
              [
                116.33995,
                39.966
              ],
              [
                116.33991875000001,
                39.967125
              ],
              [
                116.33989967154109,
                39.96781183001855
              ],
              [
                116.34636263961421,
                39.967848453380306
              ],
              [
                116.34645435897744,
                39.95821615444249
              ],
              [
                116.34016720727455,
                39.958180539201386
              ],
              [
                116.34013750000001,
                39.95925
              ],
              [
                116.34010624999999,
                39.960375000000006
              ]
            ]
          ],
          [
            [
              [
                116.3397625,
                39.97596874999999
              ],
              [
                116.33982499999999,
                39.9769375
              ],
              [
                116.33988749999999,
                39.977906250000004
              ],
              [
                116.33995,
                39.978875
              ],
              [
                116.3400125,
                39.97984375
              ],
              [
                116.34007500000001,
                39.9808125
              ],
              [
                116.34013750000001,
                39.981781250000004
              ],
              [
                116.3402,
                39.982749999999996
              ],
              [
                116.3402625,
                39.983718749999994
              ],
              [
                116.340325,
                39.98468749999999
              ],
              [
                116.34038749999998,
                39.98565624999999
              ],
              [
                116.34045000000002,
                39.986625000000004
              ],
              [
                116.34051249999999,
                39.98759375
              ],
              [
                116.340575,
                39.98856250000001
              ],
              [
                116.3406375,
                39.98953125
              ],
              [
                116.34070000000001,
                39.99049999999999
              ],
              [
                116.34076249999998,
                39.99146875
              ],
              [
                116.340825,
                39.992437499999994
              ],
              [
                116.3408875,
                39.993406249999985
              ],
              [
                116.34087502602179,
                39.99321290530687
              ],
              [
                116.34612062231474,
                39.993242618233566
              ],
              [
                116.34632093439986,
                39.972226765713984
              ],
              [
                116.33977806449445,
                39.97218968398072
              ],
              [
                116.3397625,
                39.97274999999999
              ],
              [
                116.33973124999999,
                39.97387499999999
              ],
              [
                116.3397,
                39.97500000000001
              ],
              [
                116.3397625,
                39.97596874999999
              ]
            ]
          ],
          [
            [
              [
                116.34132499999998,
                40.0001875
              ],
              [
                116.3413875,
                40.00115625
              ],
              [
                116.34145000000002,
                40.002125
              ],
              [
                116.34151250000001,
                40.00309375000001
              ],
              [
                116.341575,
                40.00406250000001
              ],
              [
                116.34163750000002,
                40.00503125
              ],
              [
                116.34169999999999,
                40.006
              ],
              [
                116.34173125000001,
                40.006640624999996
              ],
              [
                116.3417625,
                40.00728124999999
              ],
              [
                116.34179375000001,
                40.007921874999994
              ],
              [
                116.341825,
                40.0085625
              ],
              [
                116.34185625000002,
                40.009203125
              ],
              [
                116.34188750000001,
                40.009843749999995
              ],
              [
                116.34191875,
                40.010484375
              ],
              [
                116.34195,
                40.01112500000001
              ],
              [
                116.34198125,
                40.011765625
              ],
              [
                116.3420125,
                40.01240624999999
              ],
              [
                116.34204375000002,
                40.013046875
              ],
              [
                116.342075,
                40.01368750000001
              ],
              [
                116.34210624999999,
                40.01432812499999
              ],
              [
                116.3421375,
                40.01496875
              ],
              [
                116.34216875,
                40.015609375
              ],
              [
                116.34219999999999,
                40.01624999999999
              ],
              [
                116.34223125,
                40.016890625
              ],
              [
                116.34226250000002,
                40.01753125
              ],
              [
                116.34229375000001,
                40.01817187499999
              ],
              [
                116.342325,
                40.01881249999999
              ],
              [
                116.34235624999998,
                40.019453125
              ],
              [
                116.3423875,
                40.020093749999994
              ],
              [
                116.34241875,
                40.02073437499999
              ],
              [
                116.34245000000001,
                40.021375
              ],
              [
                116.34248124999999,
                40.022015624999995
              ],
              [
                116.34251249999998,
                40.02265625
              ],
              [
                116.34254375,
                40.02329687500001
              ],
              [
                116.342575,
                40.023937499999995
              ],
              [
                116.34260624999999,
                40.024578125000005
              ],
              [
                116.3426375,
                40.02521874999999
              ],
              [
                116.34266874999999,
                40.02585937499999
              ],
              [
                116.34270000000001,
                40.0265
              ],
              [
                116.34309375,
                40.0265
              ],
              [
                116.3434875,
                40.02649999999999
              ],
              [
                116.34388124999998,
                40.02649999999999
              ],
              [
                116.344275,
                40.02649999999999
              ],
              [
                116.34466875000001,
                40.02649999999999
              ],
              [
                116.3450625,
                40.0265
              ],
              [
                116.34545625000001,
                40.02649999999999
              ],
              [
                116.34580319869073,
                40.026500000070065
              ],
              [
                116.3460872165104,
                39.99674525280765
              ],
              [
                116.34110109743229,
                39.99671701319889
              ],
              [
                116.34107500000002,
                39.9963125
              ],
              [
                116.3411375,
                39.997281249999986
              ],
              [
                116.3412,
                39.99824999999999
              ],
              [
                116.34126250000001,
                39.99921875
              ],
              [
                116.34132499999998,
                40.0001875
              ]
            ]
          ]
        ]
      }
    },
    {
      "type": "Feature",
      "id": "LU-SERVICE",
      "properties": {
        "layer": "LAND_USE",
        "source_type": "agent_generated_design",
        "confidence": "medium",
        "geometry_role": "design_proposal",
        "land_use_code": "05",
        "name_zh": "产业服务与商业服务用地",
        "id": "LU-SERVICE",
        "area_sqm_declared": 3091489.923
      },
      "geometry": {
        "type": "MultiPolygon",
        "coordinates": [
          [
            [
              [
                116.3552375,
                39.96578125
              ],
              [
                116.3553,
                39.965
              ],
              [
                116.3553,
                39.9641875
              ],
              [
                116.3553,
                39.963375
              ],
              [
                116.3553,
                39.9625625
              ],
              [
                116.3553,
                39.96175
              ],
              [
                116.3553,
                39.9609375
              ],
              [
                116.3553,
                39.960125
              ],
              [
                116.3553,
                39.9593125
              ],
              [
                116.3553,
                39.958499999999994
              ],
              [
                116.35530000001326,
                39.958265685537235
              ],
              [
                116.34934864942444,
                39.958232435296225
              ],
              [
                116.34925733617932,
                39.96786473975865
              ],
              [
                116.35506822294218,
                39.96789721522917
              ],
              [
                116.35511250000002,
                39.96734375
              ],
              [
                116.35517499999999,
                39.96656249999999
              ],
              [
                116.3552375,
                39.96578125
              ]
            ]
          ],
          [
            [
              [
                116.35336250000002,
                39.98921875
              ],
              [
                116.353425,
                39.98843750000002
              ],
              [
                116.3534875,
                39.98765625000001
              ],
              [
                116.35355000000001,
                39.986875000000005
              ],
              [
                116.35361250000001,
                39.98609375000001
              ],
              [
                116.35367500000001,
                39.9853125
              ],
              [
                116.35373750000002,
                39.984531249999996
              ],
              [
                116.3538,
                39.98375
              ],
              [
                116.3538625,
                39.982968750000005
              ],
              [
                116.35392500000002,
                39.9821875
              ],
              [
                116.35398749999999,
                39.98140625
              ],
              [
                116.35405,
                39.980625
              ],
              [
                116.3541125,
                39.97984375
              ],
              [
                116.35417500000001,
                39.979062500000005
              ],
              [
                116.35423749999998,
                39.978281249999995
              ],
              [
                116.3543,
                39.977500000000006
              ],
              [
                116.3543625,
                39.976718749999996
              ],
              [
                116.354425,
                39.97593749999999
              ],
              [
                116.3544875,
                39.975156250000005
              ],
              [
                116.35455000000002,
                39.974374999999995
              ],
              [
                116.3546125,
                39.973593750000006
              ],
              [
                116.354675,
                39.972812499999996
              ],
              [
                116.35471809492914,
                39.972273815465364
              ],
              [
                116.34921581562874,
                39.97224305460402
              ],
              [
                116.34901639049214,
                39.99325891918409
              ],
              [
                116.35347993983756,
                39.99328390381872
              ],
              [
                116.3534875,
                39.99342187499999
              ],
              [
                116.353425,
                39.99228125
              ],
              [
                116.35336250000002,
                39.991140625
              ],
              [
                116.3533,
                39.989999999999995
              ],
              [
                116.35336250000002,
                39.98921875
              ]
            ]
          ],
          [
            [
              [
                116.35018124999999,
                40.0265
              ],
              [
                116.35057499999999,
                40.02649999999999
              ],
              [
                116.35096874999998,
                40.0265
              ],
              [
                116.3513625,
                40.0265
              ],
              [
                116.35175625000001,
                40.026500000000006
              ],
              [
                116.35215,
                40.02649999999999
              ],
              [
                116.35254375000001,
                40.026499999999984
              ],
              [
                116.35293749999998,
                40.0265
              ],
              [
                116.35333125,
                40.026499999999984
              ],
              [
                116.35372500000001,
                40.02649999999999
              ],
              [
                116.35411875,
                40.02649999999999
              ],
              [
                116.35451250000001,
                40.02649999999999
              ],
              [
                116.35490625,
                40.02649999999999
              ],
              [
                116.3553,
                40.0265
              ],
              [
                116.3552375,
                40.025359374999994
              ],
              [
                116.35517499999999,
                40.024218749999996
              ],
              [
                116.35511250000002,
                40.023078125
              ],
              [
                116.35505,
                40.02193749999999
              ],
              [
                116.35498750000001,
                40.020796875
              ],
              [
                116.354925,
                40.01965625
              ],
              [
                116.3548625,
                40.018515625
              ],
              [
                116.35479999999998,
                40.017375
              ],
              [
                116.35473750000001,
                40.01623437499999
              ],
              [
                116.354675,
                40.01509374999999
              ],
              [
                116.3546125,
                40.013953125
              ],
              [
                116.35455000000002,
                40.0128125
              ],
              [
                116.3544875,
                40.01167187499999
              ],
              [
                116.354425,
                40.01053125000001
              ],
              [
                116.3543625,
                40.009390625
              ],
              [
                116.3543,
                40.008250000000004
              ],
              [
                116.35423749999998,
                40.007109375
              ],
              [
                116.35417500000001,
                40.00596875
              ],
              [
                116.3541125,
                40.00482812499999
              ],
              [
                116.35405,
                40.00368749999999
              ],
              [
                116.35398749999999,
                40.002546875
              ],
              [
                116.35392500000002,
                40.00140625000001
              ],
              [
                116.3538625,
                40.000265625
              ],
              [
                116.3538,
                39.99912500000001
              ],
              [
                116.35373750000002,
                39.997984375
              ],
              [
                116.35367500000001,
                39.99684375
              ],
              [
                116.35361250000001,
                39.99570312499999
              ],
              [
                116.35367193412662,
                39.99678779859316
              ],
              [
                116.3489831326031,
                39.99676155576896
              ],
              [
                116.34870052757172,
                40.02650000012183
              ],
              [
                116.34899999999998,
                40.02649999999999
              ],
              [
                116.34939374999999,
                40.02649999999999
              ],
              [
                116.3497875,
                40.026499999999984
              ],
              [
                116.35018124999999,
                40.0265
              ]
            ]
          ]
        ]
      }
    },
    {
      "type": "Feature",
      "id": "LU-COMMUNITY",
      "properties": {
        "layer": "LAND_USE",
        "source_type": "agent_generated_design",
        "confidence": "medium",
        "geometry_role": "design_proposal",
        "land_use_code": "0702",
        "name_zh": "社区服务与配套用地",
        "id": "LU-COMMUNITY",
        "area_sqm_declared": 2184048.042
      },
      "geometry": {
        "type": "MultiPolygon",
        "coordinates": [
          [
            [
              [
                116.3553,
                39.9560625
              ],
              [
                116.3553,
                39.95524999999999
              ],
              [
                116.3553,
                39.9544375
              ],
              [
                116.3553,
                39.953624999999995
              ],
              [
                116.3553,
                39.95281249999999
              ],
              [
                116.3553,
                39.951999999999984
              ],
              [
                116.3553,
                39.95118750000001
              ],
              [
                116.3553,
                39.950374999999994
              ],
              [
                116.3553,
                39.9495625
              ],
              [
                116.3553,
                39.94874999999999
              ],
              [
                116.3553,
                39.9479375
              ],
              [
                116.3553,
                39.94712499999999
              ],
              [
                116.3553,
                39.94631249999999
              ],
              [
                116.3553,
                39.945499999999996
              ],
              [
                116.3553,
                39.9446875
              ],
              [
                116.3553,
                39.94387499999999
              ],
              [
                116.3553,
                39.943062499999996
              ],
              [
                116.3553,
                39.94225000000001
              ],
              [
                116.3553,
                39.94143749999999
              ],
              [
                116.3553,
                39.940625
              ],
              [
                116.3553,
                39.939812499999995
              ],
              [
                116.3553,
                39.939
              ],
              [
                116.35484375000001,
                39.939
              ],
              [
                116.3543875,
                39.93900000000001
              ],
              [
                116.35393125,
                39.939
              ],
              [
                116.35347500000002,
                39.93899999999999
              ],
              [
                116.35301875,
                39.93900000000001
              ],
              [
                116.3525625,
                39.939
              ],
              [
                116.35210625000002,
                39.939
              ],
              [
                116.35165,
                39.93900000000001
              ],
              [
                116.35119374999998,
                39.939
              ],
              [
                116.3507375,
                39.939
              ],
              [
                116.35028125,
                39.939
              ],
              [
                116.34982500000001,
                39.939
              ],
              [
                116.34953083903818,
                39.93900000020562
              ],
              [
                116.34934864942444,
                39.958232435296225
              ],
              [
                116.35530000001326,
                39.958265685537235
              ],
              [
                116.3553,
                39.957687500000006
              ],
              [
                116.3553,
                39.956875000000004
              ],
              [
                116.3553,
                39.9560625
              ]
            ]
          ],
          [
            [
              [
                116.346175,
                39.93899999999999
              ],
              [
                116.34571875000002,
                39.93899999999999
              ],
              [
                116.34526249999999,
                39.938999999999986
              ],
              [
                116.34480625,
                39.93899999999999
              ],
              [
                116.34434999999999,
                39.939
              ],
              [
                116.34389374999999,
                39.93899999999999
              ],
              [
                116.34343750000001,
                39.939
              ],
              [
                116.34298125,
                39.939
              ],
              [
                116.342525,
                39.93899999999999
              ],
              [
                116.34206875000001,
                39.93899999999999
              ],
              [
                116.3416125,
                39.93899999999999
              ],
              [
                116.34115625,
                39.939
              ],
              [
                116.34070000000001,
                39.93899999999999
              ],
              [
                116.34066874999999,
                39.940124999999995
              ],
              [
                116.3406375,
                39.94124999999999
              ],
              [
                116.34060625,
                39.942375
              ],
              [
                116.340575,
                39.94350000000001
              ],
              [
                116.34054375000001,
                39.944624999999995
              ],
              [
                116.34051249999999,
                39.945750000000004
              ],
              [
                116.34048125,
                39.94687499999999
              ],
              [
                116.34045000000002,
                39.948
              ],
              [
                116.34041875,
                39.949124999999995
              ],
              [
                116.34038749999998,
                39.95025
              ],
              [
                116.34035625,
                39.951375
              ],
              [
                116.340325,
                39.952499999999986
              ],
              [
                116.34029375000001,
                39.953625
              ],
              [
                116.3402625,
                39.95475
              ],
              [
                116.34023125,
                39.95587499999999
              ],
              [
                116.3402,
                39.95700000000001
              ],
              [
                116.34016875,
                39.958124999999995
              ],
              [
                116.34016720727455,
                39.958180539201386
              ],
              [
                116.34645435897744,
                39.95821615444249
              ],
              [
                116.34663720415057,
                39.93900000001156
              ],
              [
                116.34663125,
                39.939
              ],
              [
                116.346175,
                39.93899999999999
              ]
            ]
          ]
        ]
      }
    },
    {
      "type": "Feature",
      "id": "LU-ROAD",
      "properties": {
        "layer": "LAND_USE",
        "source_type": "agent_generated_design",
        "confidence": "medium",
        "geometry_role": "design_proposal",
        "land_use_code": "1207",
        "name_zh": "城镇村道路用地",
        "id": "LU-ROAD",
        "area_sqm_declared": 1043449.724
      },
      "geometry": {
        "type": "MultiPolygon",
        "coordinates": [
          [
            [
              [
                116.35473750000001,
                39.97203125000001
              ],
              [
                116.35479999999998,
                39.97125
              ],
              [
                116.3548625,
                39.97046875
              ],
              [
                116.354925,
                39.969687500000006
              ],
              [
                116.35498750000001,
                39.96890625
              ],
              [
                116.35505,
                39.96812500000001
              ],
              [
                116.35506822294218,
                39.96789721522917
              ],
              [
                116.33989967154109,
                39.96781183001855
              ],
              [
                116.33988749999999,
                39.96824999999999
              ],
              [
                116.33985625,
                39.969375
              ],
              [
                116.33982499999999,
                39.9705
              ],
              [
                116.33979375,
                39.971624999999996
              ],
              [
                116.33977806449445,
                39.97218968398072
              ],
              [
                116.35471809492914,
                39.972273815465364
              ],
              [
                116.35473750000001,
                39.97203125000001
              ]
            ]
          ],
          [
            [
              [
                116.35361250000001,
                39.99570312499999
              ],
              [
                116.35355000000001,
                39.99456250000001
              ],
              [
                116.3534875,
                39.99342187499999
              ],
              [
                116.35347993983756,
                39.99328390381872
              ],
              [
                116.34087502602179,
                39.99321290530687
              ],
              [
                116.3408875,
                39.993406249999985
              ],
              [
                116.34095,
                39.994375000000005
              ],
              [
                116.3410125,
                39.995343749999996
              ],
              [
                116.34107500000002,
                39.9963125
              ],
              [
                116.34110109743229,
                39.99671701319889
              ],
              [
                116.35367193412662,
                39.99678779859316
              ],
              [
                116.35361250000001,
                39.99570312499999
              ]
            ]
          ]
        ]
      }
    }
  ]
}
