{
  "type": "FeatureCollection",
  "name": "public_space_evidence_spine",
  "features": [
    {
      "type": "Feature",
      "id": "PS-001",
      "properties": {
        "layer": "PUBLIC_SPACE",
        "source_type": "agent_generated_design",
        "confidence": "medium",
        "geometry_role": "design_proposal",
        "name_zh": "大钟寺AI路演广场",
        "public_space_type": "plaza",
        "id": "PS-001",
        "area_sqm_declared": 21329.642
      },
      "geometry": {
        "type": "Polygon",
        "coordinates": [
          [
            [
              116.34883892820982,
              39.96079845309613
            ],
            [
              116.34883057323727,
              39.960740511692585
            ],
            [
              116.34881633641726,
              39.96068325333926
            ],
            [
              116.3487963055386,
              39.96062703105096
            ],
            [
              116.34877060411144,
              39.960572191453956
            ],
            [
              116.34873939060532,
              39.96051907264902
            ],
            [
              116.34870285747199,
              39.96046800212703
            ],
            [
              116.3486612299586,
              39.96041929474991
            ],
            [
              116.34861476471873,
              39.96037325080967
            ],
            [
              116.34856374822992,
              39.96033015417692
            ],
            [
              116.3485084950274,
              39.96029027055104
            ],
            [
              116.34844934576468,
              39.960253845822116
            ],
            [
              116.34838666511347,
              39.96022110455505
            ],
            [
              116.34832083951544,
              39.9601922486053
            ],
            [
              116.34825227479969,
              39.96016745587437
            ],
            [
              116.34818139368096,
              39.96014687921317
            ],
            [
              116.3481086331537,
              39.960130645479786
            ],
            [
              116.34803444179805,
              39.96011885475742
            ],
            [
              116.3479592770146,
              39.96011157973739
            ],
            [
              116.3478836022046,
              39.96010886527107
            ],
            [
              116.34780788391342,
              39.96011072809341
            ],
            [
              116.34773258895439,
              39.96011715671972
            ],
            [
              116.34765818153119,
              39.96012811151654
            ],
            [
              116.34758512037624,
              39.9601435249459
            ],
            [
              116.34751385592276,
              39.9601633019817
            ],
            [
              116.34744482752808,
              39.96018732069553
            ],
            [
              116.3473784607651,
              39.96021543300825
            ],
            [
              116.34731516479877,
              39.960247465602926
            ],
            [
              116.34725532986361,
              39.960283220993155
            ],
            [
              116.34719932485807,
              39.96032247874059
            ],
            [
              116.34714749506998,
              39.96036499681391
            ],
            [
              116.3471001600481,
              39.960410513080774
            ],
            [
              116.34705761163168,
              39.96045874692392
            ],
            [
              116.34702011215133,
              39.960509400971
            ],
            [
              116.34698789281137,
              39.96056216292804
            ],
            [
              116.34696115226426,
              39.96061670750447
            ],
            [
              116.34694005538562,
              39.96067269841877
            ],
            [
              116.34692473225742,
              39.96072979047148
            ],
            [
              116.34691527736562,
              39.96078763167352
            ],
            [
              116.34691174901738,
              39.960845865416175
            ],
            [
              116.34691416898119,
              39.96090413266972
            ],
            [
              116.34692252235227,
              39.96096207419691
            ],
            [
              116.34693675764406,
              39.96101933276782
            ],
            [
              116.34695678710537,
              39.96107555536232
            ],
            [
              116.34698248726102,
              39.96113039534659
            ],
            [
              116.34701369967267,
              39.96118351461032
            ],
            [
              116.34705023191559,
              39.96123458565133
            ],
            [
              116.34709185876456,
              39.96128329359491
            ],
            [
              116.34713832358233,
              39.96132933813513
            ],
            [
              116.34718933990175,
              39.96137243538659
            ],
            [
              116.3472445931918,
              39.96141231963466
            ],
            [
              116.3473037427968,
              39.961448744973964
            ],
            [
              116.34736642403657,
              39.96148148682453
            ],
            [
              116.347432250455,
              39.96151034331659
            ],
            [
              116.34750081620275,
              39.96153513653524
            ],
            [
              116.34757169853971,
              39.96155571361758
            ],
            [
              116.3476444604414,
              39.96157194769514
            ],
            [
              116.34771865329384,
              39.961583738676254
            ],
            [
              116.34779381965961,
              39.961591013863234
            ],
            [
              116.34786949609848,
              39.96159372840057
            ],
            [
              116.34794521602495,
              39.96159186555161
            ],
            [
              116.34802051258546,
              39.96158543680166
            ],
            [
              116.34809492153687,
              39.96157448178725
            ],
            [
              116.34816798410918,
              39.9615590680517
            ],
            [
              116.3482392498342,
              39.96153929062863
            ],
            [
              116.34830827932332,
              39.961515271456015
            ],
            [
              116.3483746469767,
              39.961487158624266
            ],
            [
              116.34843794360746,
              39.961455125463125
            ],
            [
              116.34849777896471,
              39.961419369472935
            ],
            [
              116.34855378413964,
              39.961380111106784
            ],
            [
              116.3486056138402,
              39.96133759241127
            ],
            [
              116.34865294851983,
              39.961292075534026
            ],
            [
              116.34869549634766,
              39.961243841107375
            ],
            [
              116.34873299500761,
              39.96119318651799
            ],
            [
              116.34876521331557,
              39.96114042407325
            ],
            [
              116.34879195264446,
              39.96108587907567
            ],
            [
              116.34881304814867,
              39.9610298878172
            ],
            [
              116.34882836978008,
              39.960972795505725
            ],
            [
              116.34883782308958,
              39.96091495413675
            ],
            [
              116.34884134980894,
              39.96085672032305
            ],
            [
              116.34883892820982,
              39.96079845309613
            ]
          ]
        ]
      }
    },
    {
      "type": "Feature",
      "id": "PS-002",
      "properties": {
        "layer": "PUBLIC_SPACE",
        "source_type": "agent_generated_design",
        "confidence": "medium",
        "geometry_role": "design_proposal",
        "name_zh": "AI原点证据广场",
        "public_space_type": "plaza",
        "id": "PS-002",
        "area_sqm_declared": 29032.013
      },
      "geometry": {
        "type": "Polygon",
        "coordinates": [
          [
            [
              116.34877497289827,
              39.984432533081005
            ],
            [
              116.34876522245234,
              39.984364935019606
            ],
            [
              116.34874860748707,
              39.98429813382375
            ],
            [
              116.34872523045847,
              39.984232541342315
            ],
            [
              116.34869523551151,
              39.98416856197088
            ],
            [
              116.34865880759105,
              39.9841065901587
            ],
            [
              116.34861617130105,
              39.98404700797684
            ],
            [
              116.34856758951962,
              39.98399018276272
            ],
            [
              116.34851336177796,
              39.98393646485558
            ],
            [
              116.34845382241346,
              39.98388618543661
            ],
            [
              116.34838933850817,
              39.98383965448739
            ],
            [
              116.34832030762578,
              39.983797158878865
            ],
            [
              116.34824715536028,
              39.98375896060294
            ],
            [
              116.34817033271233,
              39.9837252951573
            ],
            [
              116.34809031330877,
              39.98369637009385
            ],
            [
              116.34800759048288,
              39.98367236373908
            ],
            [
              116.34792267423303,
              39.98365342409483
            ],
            [
              116.34783608807888,
              39.98363966792603
            ],
            [
              116.34774836583405,
              39.98363118004071
            ],
            [
              116.34766004831542,
              39.98362801276746
            ],
            [
              116.34757168000938,
              39.98363018563268
            ],
            [
              116.3474838057154,
              39.983637685240254
            ],
            [
              116.34739696718754,
              39.983650465354145
            ],
            [
              116.34731169979497,
              39.98366844718347
            ],
            [
              116.34722852922175,
              39.983691519868096
            ],
            [
              116.3471479682261,
              39.98371954116212
            ],
            [
              116.34707051347957,
              39.98375233831075
            ],
            [
              116.34699664250525,
              39.983789709115115
            ],
            [
              116.34692681073389,
              39.98383142317896
            ],
            [
              116.34686144869629,
              39.98387722332873
            ],
            [
              116.34680095936899,
              39.983926827199056
            ],
            [
              116.34674571568993,
              39.98397992897338
            ],
            [
              116.34669605825907,
              39.98403620126932
            ],
            [
              116.34665229323836,
              39.98409529715677
            ],
            [
              116.34661469046405,
              39.98415685229676
            ],
            [
              116.3465834817827,
              39.9842204871875
            ],
            [
              116.34655885962155,
              39.984285809504044
            ],
            [
              116.3465409758017,
              39.98435241651689
            ],
            [
              116.34652994060166,
              39.98441989757493
            ],
            [
              116.34652582207697,
              39.984487836637086
            ],
            [
              116.34652864564023,
              39.98455581483736
            ],
            [
              116.34653839390383,
              39.984623413067176
            ],
            [
              116.34655500678655,
              39.98469021455944
            ],
            [
              116.34657838188373,
              39.98475580745801
            ],
            [
              116.34660837509789,
              39.98481978735698
            ],
            [
              116.34664480152693,
              39.984881759794156
            ],
            [
              116.34668743660356,
              39.984941342683065
            ],
            [
              116.34673601747954,
              39.98499816866887
            ],
            [
              116.346790244646,
              39.985051887393325
            ],
            [
              116.34684978377969,
              39.985102167655135
            ],
            [
              116.34691426780421,
              39.98514869945195
            ],
            [
              116.34698329915302,
              39.985191195891964
            ],
            [
              116.34705645222056,
              39.98522939496279
            ],
            [
              116.34713327598648,
              39.98526306114716
            ],
            [
              116.34721329679637,
              39.985291986875005
            ],
            [
              116.34729602128235,
              39.98531599380346
            ],
            [
              116.34738093940516,
              39.98533493391656
            ],
            [
              116.34746752759901,
              39.98534869043785
            ],
            [
              116.34755525200012,
              39.98535717855058
            ],
            [
              116.34764357173843,
              39.98536034592058
            ],
            [
              116.34773194227292,
              39.985358173019094
            ],
            [
              116.34781981874927,
              39.985350673243104
            ],
            [
              116.34790665935968,
              39.985337892832774
            ],
            [
              116.34799192868365,
              39.985319910586334
            ],
            [
              116.34807510098965,
              39.985296837374165
            ],
            [
              116.34815566347676,
              39.98526881545513
            ],
            [
              116.34823311943664,
              39.98523601759947
            ],
            [
              116.3483069913164,
              39.98519864602341
            ],
            [
              116.34837682366299,
              39.98515693114225
            ],
            [
              116.34844218593139,
              39.98511113014965
            ],
            [
              116.34850267513944,
              39.985061525431725
            ],
            [
              116.3485579183521,
              39.98500842282591
            ],
            [
              116.3486075749809,
              39.98495214973508
            ],
            [
              116.34865133888364,
              39.98489305310888
            ],
            [
              116.34868894025162,
              39.9848314973045
            ],
            [
              116.34872014727289,
              39.98476786184007
            ],
            [
              116.34874476756106,
              39.98470253905468
            ],
            [
              116.34876264934121,
              39.984635931689354
            ],
            [
              116.34877368238503,
              39.9845684504039
            ],
            [
              116.34877779869001,
              39.98450051124499
            ],
            [
              116.34877497289827,
              39.984432533081005
            ]
          ]
        ]
      }
    },
    {
      "type": "Feature",
      "id": "PS-003",
      "properties": {
        "layer": "PUBLIC_SPACE",
        "source_type": "agent_generated_design",
        "confidence": "medium",
        "geometry_role": "design_proposal",
        "name_zh": "众智园开源广场",
        "public_space_type": "plaza",
        "id": "PS-003",
        "area_sqm_declared": 25032.705
      },
      "geometry": {
        "type": "Polygon",
        "coordinates": [
          [
            [
              116.34844512557173,
              40.01070669724659
            ],
            [
              116.3484360687433,
              40.0106439278506
            ],
            [
              116.34842063526563,
              40.01058189836029
            ],
            [
              116.34839892030782,
              40.010520991205716
            ],
            [
              116.34837105776522,
              40.01046158189642
            ],
            [
              116.34833721943349,
              40.01040403670635
            ],
            [
              116.34829761394903,
              40.01034871041574
            ],
            [
              116.34825248550256,
              40.01029594412396
            ],
            [
              116.3482021123331,
              40.01024606314662
            ],
            [
              116.34814680501262,
              40.01019937500996
            ],
            [
              116.34808690453094,
              40.010156167555195
            ],
            [
              116.34802278019356,
              40.01011670716392
            ],
            [
              116.34795482734458,
              40.0100812371159
            ],
            [
              116.34788346492952,
              40.010049976089476
            ],
            [
              116.3478091329125,
              40.010023116813386
            ],
            [
              116.34773228956394,
              40.01000082487869
            ],
            [
              116.34765340863537,
              40.009983237718025
            ],
            [
              116.34757297643905,
              40.00997046375834
            ],
            [
              116.34749148884995,
              40.009962581752546
            ],
            [
              116.34740944824901,
              40.00995964029402
            ],
            [
              116.34732736042606,
              40.009961657517046
            ],
            [
              116.34724573146212,
              40.009968620985084
            ],
            [
              116.34716506460948,
              40.00998048776736
            ],
            [
              116.34708585718958,
              40.00999718470357
            ],
            [
              116.34700859752704,
              40.01001860885492
            ],
            [
              116.34693376193961,
              40.01004462813853
            ],
            [
              116.34686181180165,
              40.01007508214189
            ],
            [
              116.34679319070005,
              40.01010978311155
            ],
            [
              116.3467283216995,
              40.01014851711064
            ],
            [
              116.34666760473438,
              40.01019104533771
            ],
            [
              116.3466114141431,
              40.010237105598776
            ],
            [
              116.34656009636032,
              40.010286413923765
            ],
            [
              116.34651396778095,
              40.01033866631711
            ],
            [
              116.3464733128094,
              40.010393540631746
            ],
            [
              116.34643838210602,
              40.01045069855515
            ],
            [
              116.34640939104138,
              40.010509787695
            ],
            [
              116.34638651836828,
              40.01057044375172
            ],
            [
              116.34636990511926,
              40.01063229276423
            ],
            [
              116.3463596537368,
              40.01069495341564
            ],
            [
              116.34635582744127,
              40.01075803938399
            ],
            [
              116.34635844984072,
              40.010821161724095
            ],
            [
              116.34636750478494,
              40.01088393126543
            ],
            [
              116.3463829364646,
              40.01094596101158
            ],
            [
              116.34640464975485,
              40.01100686852617
            ],
            [
              116.34643251080138,
              40.01106627829077
            ],
            [
              116.34646634784546,
              40.011123824020245
            ],
            [
              116.3465059522823,
              40.01117915092106
            ],
            [
              116.34655107994705,
              40.01123191787884
            ],
            [
              116.34660145261986,
              40.01128179956159
            ],
            [
              116.34665675974105,
              40.01132848842564
            ],
            [
              116.34671666032568,
              40.01137169661192
            ],
            [
              116.34678078506576,
              40.011411157720815
            ],
            [
              116.3468487386072,
              40.01144662845488
            ],
            [
              116.34692010198746,
              40.01147789011887
            ],
            [
              116.34699443521866,
              40.01150474996836
            ],
            [
              116.34707128000052,
              40.01152704239818
            ],
            [
              116.34715016254616,
              40.01154462996348
            ],
            [
              116.34723059650352,
              40.01155740422736
            ],
            [
              116.34731208595426,
              40.011565286429416
            ],
            [
              116.34739412847165,
              40.01156822797145
            ],
            [
              116.3474762182186,
              40.011566210717106
            ],
            [
              116.34755784906676,
              40.01155924710371
            ],
            [
              116.3476385177174,
              40.011547380065615
            ],
            [
              116.34771772680487,
              40.011530682769376
            ],
            [
              116.34779498796343,
              40.01150925816273
            ],
            [
              116.34786982483855,
              40.011483238339714
            ],
            [
              116.34794177602411,
              40.01145278372614
            ],
            [
              116.34801039790744,
              40.01141808209047
            ],
            [
              116.34807526740464,
              40.011379347386
            ],
            [
              116.34813598456907,
              40.01133681843153
            ],
            [
              116.34819217505736,
              40.01129075743895
            ],
            [
              116.34824349243746,
              40.01124144839633
            ],
            [
              116.34828962032438,
              40.01118919531695
            ],
            [
              116.3483302743307,
              40.011134320364754
            ],
            [
              116.34836520381991,
              40.01107716186795
            ],
            [
              116.34839419345128,
              40.01101807223298
            ],
            [
              116.34841706450732,
              40.01095741577162
            ],
            [
              116.34843367599527,
              40.010895566454906
            ],
            [
              116.34844392551608,
              40.01083290560724
            ],
            [
              116.34844774989519,
              40.01076981955537
            ],
            [
              116.34844512557173,
              40.01070669724659
            ]
          ]
        ]
      }
    }
  ]
}
