{
  "type": "FeatureCollection",
  "name": "roads_evidence_spine",
  "features": [
    {
      "type": "Feature",
      "id": "RD-001",
      "properties": {
        "layer": "ROAD_CENTERLINE",
        "source_type": "agent_generated_design",
        "confidence": "medium",
        "geometry_role": "design_proposal",
        "road_class": "secondary",
        "name_zh": "证据脊梁道路1",
        "length_m_declared": 8751.123,
        "id": "RD-001"
      },
      "geometry": {
        "type": "LineString",
        "coordinates": [
          [
            116.34804285159564,
            39.94333798753035
          ],
          [
            116.34729334380143,
            40.02214745709554
          ]
        ]
      }
    },
    {
      "type": "Feature",
      "id": "RD-002",
      "properties": {
        "layer": "ROAD_CENTERLINE",
        "source_type": "agent_generated_design",
        "confidence": "medium",
        "geometry_role": "design_proposal",
        "road_class": "secondary",
        "name_zh": "证据脊梁道路2",
        "length_m_declared": 8167.715,
        "id": "RD-002"
      },
      "geometry": {
        "type": "LineString",
        "coordinates": [
          [
            116.34351649238427,
            39.94593958513582
          ],
          [
            116.34281212290838,
            40.019495024176784
          ]
        ]
      }
    },
    {
      "type": "Feature",
      "id": "RD-003",
      "properties": {
        "layer": "ROAD_CENTERLINE",
        "source_type": "agent_generated_design",
        "confidence": "medium",
        "geometry_role": "design_proposal",
        "road_class": "secondary",
        "name_zh": "证据脊梁道路3",
        "length_m_declared": 8167.715,
        "id": "RD-003"
      },
      "geometry": {
        "type": "LineString",
        "coordinates": [
          [
            116.35251934435637,
            39.94599021481233
          ],
          [
            116.35182463276985,
            40.019545785178806
          ]
        ]
      }
    },
    {
      "type": "Feature",
      "id": "RD-004",
      "properties": {
        "layer": "ROAD_CENTERLINE",
        "source_type": "agent_generated_design",
        "confidence": "medium",
        "geometry_role": "design_proposal",
        "road_class": "branch",
        "name_zh": "证据脊梁道路4",
        "length_m_declared": 1226.244,
        "id": "RD-004"
      },
      "geometry": {
        "type": "LineString",
        "coordinates": [
          [
            116.3405522174573,
            39.970004817849855
          ],
          [
            116.35490488075645,
            39.97008558113611
          ]
        ]
      }
    },
    {
      "type": "Feature",
      "id": "RD-005",
      "properties": {
        "layer": "ROAD_CENTERLINE",
        "source_type": "agent_generated_design",
        "confidence": "medium",
        "geometry_role": "design_proposal",
        "road_class": "branch",
        "name_zh": "证据脊梁道路5",
        "length_m_declared": 1077.078,
        "id": "RD-005"
      },
      "geometry": {
        "type": "LineString",
        "coordinates": [
          [
            116.340976333881,
            39.994964892877164
          ],
          [
            116.35358765997927,
            39.99503591688601
          ]
        ]
      }
    }
  ]
}
