{
  "type": "FeatureCollection",
  "name": "site_boundary_evidence_spine",
  "features": [
    {
      "type": "Feature",
      "id": "SITE-001",
      "properties": {
        "id": "SITE-001",
        "layer": "SITE_BOUNDARY",
        "source_type": "agent_inferred_from_public_data",
        "confidence": "medium",
        "geometry_role": "provisional_constraint",
        "scope_id": "overall_design_area",
        "name_zh": "总体设计范围粗略替代边界",
        "official_boundary": false,
        "boundary_precision": "provisional_rough",
        "source_id": "DATA-SRC-PROVISIONAL-BOUNDARIES-20260605",
        "derived_from_source_ids": [
          "DATA-SRC-OFFICIAL-ANNOUNCEMENT-20260509"
        ],
        "source_title": "依据公告文字四至、约11.4平方公里面积约束和道路名称形成的临时粗略范围",
        "derivation_method": "以公告所述京张遗址公园周边1—2公里城市地区和产业区为走廊，以北五环路、学院路/西土城路、西直门外大街、大钟寺东路/荷清路等文字四至定位，并在EPSG:4548下校核至公告约11.4平方公里；道路名称仅用于粗略定位，不代表道路红线。",
        "area_sqm_declared": 11412842.234,
        "area_sqm_calculated": 11412842.234,
        "usage_note": "仅用于 AI agent 生成、展示和临时自检；不得作为 official redline、审批依据或精确面积复算依据。"
      },
      "geometry": {
        "type": "Polygon",
        "coordinates": [
          [
            [
              116.3407,
              39.939
            ],
            [
              116.34115625,
              39.939
            ],
            [
              116.3416125,
              39.939
            ],
            [
              116.34206875,
              39.939
            ],
            [
              116.342525,
              39.939
            ],
            [
              116.34298125,
              39.939
            ],
            [
              116.3434375,
              39.939
            ],
            [
              116.34389374999999,
              39.939
            ],
            [
              116.34434999999999,
              39.939
            ],
            [
              116.34480625,
              39.939
            ],
            [
              116.3452625,
              39.939
            ],
            [
              116.34571875,
              39.939
            ],
            [
              116.346175,
              39.939
            ],
            [
              116.34663125,
              39.939
            ],
            [
              116.3470875,
              39.939
            ],
            [
              116.34754375,
              39.939
            ],
            [
              116.348,
              39.939
            ],
            [
              116.34845625,
              39.939
            ],
            [
              116.3489125,
              39.939
            ],
            [
              116.34936875,
              39.939
            ],
            [
              116.349825,
              39.939
            ],
            [
              116.35028125,
              39.939
            ],
            [
              116.3507375,
              39.939
            ],
            [
              116.35119375,
              39.939
            ],
            [
              116.35165,
              39.939
            ],
            [
              116.35210625,
              39.939
            ],
            [
              116.3525625,
              39.939
            ],
            [
              116.35301875,
              39.939
            ],
            [
              116.353475,
              39.939
            ],
            [
              116.35393125,
              39.939
            ],
            [
              116.3543875,
              39.939
            ],
            [
              116.35484375,
              39.939
            ],
            [
              116.3553,
              39.939
            ],
            [
              116.3553,
              39.9398125
            ],
            [
              116.3553,
              39.940625
            ],
            [
              116.3553,
              39.9414375
            ],
            [
              116.3553,
              39.94225
            ],
            [
              116.3553,
              39.9430625
            ],
            [
              116.3553,
              39.943875
            ],
            [
              116.3553,
              39.9446875
            ],
            [
              116.3553,
              39.9455
            ],
            [
              116.3553,
              39.9463125
            ],
            [
              116.3553,
              39.947125
            ],
            [
              116.3553,
              39.9479375
            ],
            [
              116.3553,
              39.948750000000004
            ],
            [
              116.3553,
              39.9495625
            ],
            [
              116.3553,
              39.950375
            ],
            [
              116.3553,
              39.9511875
            ],
            [
              116.3553,
              39.952
            ],
            [
              116.3553,
              39.9528125
            ],
            [
              116.3553,
              39.953625
            ],
            [
              116.3553,
              39.954437500000004
            ],
            [
              116.3553,
              39.95525
            ],
            [
              116.3553,
              39.9560625
            ],
            [
              116.3553,
              39.956875000000004
            ],
            [
              116.3553,
              39.957687500000006
            ],
            [
              116.3553,
              39.9585
            ],
            [
              116.3553,
              39.9593125
            ],
            [
              116.3553,
              39.960125000000005
            ],
            [
              116.3553,
              39.9609375
            ],
            [
              116.3553,
              39.96175
            ],
            [
              116.3553,
              39.962562500000004
            ],
            [
              116.3553,
              39.963375000000006
            ],
            [
              116.3553,
              39.9641875
            ],
            [
              116.3553,
              39.965
            ],
            [
              116.3552375,
              39.965781250000006
            ],
            [
              116.355175,
              39.9665625
            ],
            [
              116.3551125,
              39.967343750000005
            ],
            [
              116.35505,
              39.968125
            ],
            [
              116.35498750000001,
              39.96890625
            ],
            [
              116.354925,
              39.969687500000006
            ],
            [
              116.3548625,
              39.97046875
            ],
            [
              116.3548,
              39.971250000000005
            ],
            [
              116.3547375,
              39.97203125
            ],
            [
              116.354675,
              39.9728125
            ],
            [
              116.3546125,
              39.973593750000006
            ],
            [
              116.35455,
              39.974375
            ],
            [
              116.3544875,
              39.975156250000005
            ],
            [
              116.354425,
              39.9759375
            ],
            [
              116.35436250000001,
              39.97671875
            ],
            [
              116.3543,
              39.977500000000006
            ],
            [
              116.3542375,
              39.97828125
            ],
            [
              116.354175,
              39.979062500000005
            ],
            [
              116.3541125,
              39.97984375
            ],
            [
              116.35405,
              39.980625
            ],
            [
              116.3539875,
              39.98140625
            ],
            [
              116.353925,
              39.9821875
            ],
            [
              116.3538625,
              39.982968750000005
            ],
            [
              116.3538,
              39.98375
            ],
            [
              116.35373750000001,
              39.98453125
            ],
            [
              116.35367500000001,
              39.9853125
            ],
            [
              116.3536125,
              39.98609375
            ],
            [
              116.35355,
              39.986875000000005
            ],
            [
              116.3534875,
              39.98765625
            ],
            [
              116.353425,
              39.9884375
            ],
            [
              116.3533625,
              39.98921875
            ],
            [
              116.3533,
              39.99
            ],
            [
              116.3533625,
              39.991140625
            ],
            [
              116.353425,
              39.992281250000005
            ],
            [
              116.3534875,
              39.993421875
            ],
            [
              116.35355,
              39.9945625
            ],
            [
              116.3536125,
              39.995703125
            ],
            [
              116.35367500000001,
              39.996843750000004
            ],
            [
              116.35373750000001,
              39.997984375
            ],
            [
              116.3538,
              39.999125
            ],
            [
              116.3538625,
              40.000265625000004
            ],
            [
              116.353925,
              40.00140625
            ],
            [
              116.3539875,
              40.002546875
            ],
            [
              116.35405,
              40.0036875
            ],
            [
              116.3541125,
              40.004828125
            ],
            [
              116.354175,
              40.00596875
            ],
            [
              116.3542375,
              40.007109375
            ],
            [
              116.3543,
              40.008250000000004
            ],
            [
              116.35436250000001,
              40.009390625
            ],
            [
              116.354425,
              40.01053125
            ],
            [
              116.3544875,
              40.011671875
            ],
            [
              116.35455,
              40.0128125
            ],
            [
              116.3546125,
              40.013953125
            ],
            [
              116.354675,
              40.01509375
            ],
            [
              116.3547375,
              40.016234374999996
            ],
            [
              116.3548,
              40.017375
            ],
            [
              116.3548625,
              40.018515625
            ],
            [
              116.354925,
              40.01965625
            ],
            [
              116.35498750000001,
              40.020796875
            ],
            [
              116.35505,
              40.0219375
            ],
            [
              116.3551125,
              40.023078125
            ],
            [
              116.355175,
              40.024218749999996
            ],
            [
              116.3552375,
              40.025359375
            ],
            [
              116.3553,
              40.0265
            ],
            [
              116.35490625,
              40.0265
            ],
            [
              116.3545125,
              40.0265
            ],
            [
              116.35411875,
              40.0265
            ],
            [
              116.353725,
              40.0265
            ],
            [
              116.35333125,
              40.0265
            ],
            [
              116.3529375,
              40.0265
            ],
            [
              116.35254375,
              40.0265
            ],
            [
              116.35215,
              40.0265
            ],
            [
              116.35175625,
              40.0265
            ],
            [
              116.3513625,
              40.0265
            ],
            [
              116.35096874999999,
              40.0265
            ],
            [
              116.35057499999999,
              40.0265
            ],
            [
              116.35018124999999,
              40.0265
            ],
            [
              116.34978749999999,
              40.0265
            ],
            [
              116.34939374999999,
              40.0265
            ],
            [
              116.34899999999999,
              40.0265
            ],
            [
              116.34860625,
              40.0265
            ],
            [
              116.3482125,
              40.0265
            ],
            [
              116.34781875,
              40.0265
            ],
            [
              116.347425,
              40.0265
            ],
            [
              116.34703125,
              40.0265
            ],
            [
              116.3466375,
              40.0265
            ],
            [
              116.34624375,
              40.0265
            ],
            [
              116.34585,
              40.0265
            ],
            [
              116.34545625,
              40.0265
            ],
            [
              116.3450625,
              40.0265
            ],
            [
              116.34466875,
              40.0265
            ],
            [
              116.344275,
              40.0265
            ],
            [
              116.34388125,
              40.0265
            ],
            [
              116.3434875,
              40.0265
            ],
            [
              116.34309375,
              40.0265
            ],
            [
              116.3427,
              40.0265
            ],
            [
              116.34266874999999,
              40.025859374999996
            ],
            [
              116.3426375,
              40.02521875
            ],
            [
              116.34260624999999,
              40.024578125
            ],
            [
              116.342575,
              40.0239375
            ],
            [
              116.34254374999999,
              40.023296875
            ],
            [
              116.3425125,
              40.02265625
            ],
            [
              116.34248124999999,
              40.022015625
            ],
            [
              116.34245,
              40.021375
            ],
            [
              116.34241875,
              40.020734374999996
            ],
            [
              116.3423875,
              40.02009375
            ],
            [
              116.34235625,
              40.019453125
            ],
            [
              116.342325,
              40.018812499999996
            ],
            [
              116.34229375,
              40.018171875
            ],
            [
              116.3422625,
              40.01753125
            ],
            [
              116.34223125,
              40.016890625
            ],
            [
              116.34219999999999,
              40.01625
            ],
            [
              116.34216875,
              40.015609375
            ],
            [
              116.34213749999999,
              40.01496875
            ],
            [
              116.34210625,
              40.014328125
            ],
            [
              116.342075,
              40.0136875
            ],
            [
              116.34204375,
              40.013046875
            ],
            [
              116.3420125,
              40.01240625
            ],
            [
              116.34198125,
              40.011765625
            ],
            [
              116.34195,
              40.011125
            ],
            [
              116.34191875,
              40.010484375
            ],
            [
              116.3418875,
              40.00984375
            ],
            [
              116.34185625,
              40.009203125
            ],
            [
              116.341825,
              40.0085625
            ],
            [
              116.34179375000001,
              40.007921875
            ],
            [
              116.3417625,
              40.00728125
            ],
            [
              116.34173125000001,
              40.006640625
            ],
            [
              116.3417,
              40.006
            ],
            [
              116.3416375,
              40.00503125
            ],
            [
              116.341575,
              40.0040625
            ],
            [
              116.34151250000001,
              40.00309375
            ],
            [
              116.34145000000001,
              40.002125
            ],
            [
              116.3413875,
              40.00115625
            ],
            [
              116.341325,
              40.0001875
            ],
            [
              116.3412625,
              39.99921875
            ],
            [
              116.3412,
              39.99825
            ],
            [
              116.3411375,
              39.99728125
            ],
            [
              116.341075,
              39.9963125
            ],
            [
              116.3410125,
              39.99534375
            ],
            [
              116.34094999999999,
              39.994375
            ],
            [
              116.3408875,
              39.99340625
            ],
            [
              116.340825,
              39.9924375
            ],
            [
              116.3407625,
              39.99146875
            ],
            [
              116.3407,
              39.9905
            ],
            [
              116.3406375,
              39.98953125
            ],
            [
              116.340575,
              39.9885625
            ],
            [
              116.3405125,
              39.98759375
            ],
            [
              116.34045,
              39.986625000000004
            ],
            [
              116.34038749999999,
              39.98565625
            ],
            [
              116.34032499999999,
              39.9846875
            ],
            [
              116.3402625,
              39.98371875
            ],
            [
              116.3402,
              39.98275
            ],
            [
              116.3401375,
              39.981781250000004
            ],
            [
              116.340075,
              39.9808125
            ],
            [
              116.3400125,
              39.97984375
            ],
            [
              116.33994999999999,
              39.978875
            ],
            [
              116.33988749999999,
              39.977906250000004
            ],
            [
              116.33982499999999,
              39.9769375
            ],
            [
              116.33976249999999,
              39.97596875
            ],
            [
              116.3397,
              39.975
            ],
            [
              116.33973125,
              39.973875
            ],
            [
              116.33976249999999,
              39.972750000000005
            ],
            [
              116.33979375,
              39.971625
            ],
            [
              116.33982499999999,
              39.9705
            ],
            [
              116.33985625,
              39.969375
            ],
            [
              116.33988749999999,
              39.96825
            ],
            [
              116.33991875,
              39.967125
            ],
            [
              116.33994999999999,
              39.966
            ],
            [
              116.33998125,
              39.964875
            ],
            [
              116.3400125,
              39.963750000000005
            ],
            [
              116.34004374999999,
              39.962625
            ],
            [
              116.340075,
              39.9615
            ],
            [
              116.34010624999999,
              39.960375
            ],
            [
              116.3401375,
              39.95925
            ],
            [
              116.34016874999999,
              39.958125
            ],
            [
              116.3402,
              39.957
            ],
            [
              116.34023125,
              39.955875
            ],
            [
              116.3402625,
              39.954750000000004
            ],
            [
              116.34029375,
              39.953625
            ],
            [
              116.34032499999999,
              39.9525
            ],
            [
              116.34035625,
              39.951375
            ],
            [
              116.34038749999999,
              39.95025
            ],
            [
              116.34041875,
              39.949125
            ],
            [
              116.34045,
              39.948
            ],
            [
              116.34048125,
              39.946875
            ],
            [
              116.3405125,
              39.945750000000004
            ],
            [
              116.34054375,
              39.944625
            ],
            [
              116.340575,
              39.9435
            ],
            [
              116.34060625,
              39.942375
            ],
            [
              116.3406375,
              39.94125
            ],
            [
              116.34066874999999,
              39.940125
            ],
            [
              116.3407,
              39.939
            ]
          ]
        ]
      }
    }
  ]
}
