{
  "type": "FeatureCollection",
  "name": "constraints",
  "metadata": {
    "status": "data_gap",
    "official_boundary": false,
    "source_commit": "78c67ad11d654637c54c42785116f025710c7f36",
    "missing": [
      "regulatory plan",
      "road redlines",
      "ownership",
      "utilities",
      "fire access",
      "heritage controls",
      "verified building survey"
    ],
    "reason_zh": "缺少官方或明确清权的控制资料，不生成推测性控制面。",
    "reason_en": "Official or explicitly rights-cleared controls are unavailable; inferred control surfaces are not generated.",
    "recalculation_trigger": "official or explicitly rights-cleared control geometry becomes available"
  },
  "features": []
}
