{"type": "FeatureCollection", "features": [{"type": "Feature", "id": "B-001", "properties": {"id": "B-001", "layer": "BUILDING_FOOTPRINT", "source_type": "agent_generated_design", "confidence": "medium", "geometry_role": "design_proposal", "building_type": "ai_r_and_d", "land_use_parent": "LU-001", "height_m_concept": 80, "floors_concept": 20, "status_concept": "new_build", "area_sqm_declared": 5486.1, "phase_concept": "phase1_near", "real_case_ref": "大基底写字楼·参考北京中国尊级·底部78m见方/单层~3500㎡·社区级缩尺(80m/20层/层高4.0m)", "design_note": "V3 真实北京案例体块：居住板楼(55×14m/11-18层/间距≥1.2H)科研超高层(中国尊/正大中心级)商业综合体(大悦城级)文化馆(首博级)"}, "geometry": {"type": "Polygon", "coordinates": [[[116.342645427, 40.014344987], [116.342645427, 40.015014237], [116.343510086, 40.015014237], [116.343510086, 40.014344987], [116.342645427, 40.014344987], [116.342645427, 40.014344987]]]}}, {"type": "Feature", "id": "B-002", "properties": {"id": "B-002", "layer": "BUILDING_FOOTPRINT", "source_type": "agent_generated_design", "confidence": "medium", "geometry_role": "design_proposal", "building_type": "ai_r_and_d", "land_use_parent": "LU-001", "height_m_concept": 70, "floors_concept": 18, "status_concept": "new_build", "area_sqm_declared": 4772.5, "phase_concept": "phase1_near", "real_case_ref": "大基底写字楼·参考北京正大中心级·50m见方/单层~2500㎡·放大版(70m/18层/层高3.9m)", "design_note": "V3 真实北京案例体块：居住板楼(55×14m/11-18层/间距≥1.2H)科研超高层(中国尊/正大中心级)商业综合体(大悦城级)文化馆(首博级)"}, "geometry": {"type": "Polygon", "coordinates": [[[116.344260824, 40.014917677], [116.344260824, 40.01554189], [116.345067296, 40.01554189], [116.345067296, 40.014917677], [116.344260824, 40.014917677], [116.344260824, 40.014917677]]]}}, {"type": "Feature", "id": "B-003", "properties": {"id": "B-003", "layer": "BUILDING_FOOTPRINT", "source_type": "agent_generated_design", "confidence": "medium", "geometry_role": "design_proposal", "building_type": "ai_r_and_d", "land_use_parent": "LU-001", "height_m_concept": 60, "floors_concept": 15, "status_concept": "new_build", "area_sqm_declared": 5051.5, "phase_concept": "phase1_near", "real_case_ref": "大基底写字楼·参考北京国贸三期级·48×50m/单层~2300㎡·放大版(60m/15层/层高4.0m)", "design_note": "V3 真实北京案例体块：居住板楼(55×14m/11-18层/间距≥1.2H)科研超高层(中国尊/正大中心级)商业综合体(大悦城级)文化馆(首博级)"}, "geometry": {"type": "Polygon", "coordinates": [[[116.344422364, 40.021217273], [116.344422364, 40.0218595], [116.345252111, 40.0218595], [116.345252111, 40.021217273], [116.344422364, 40.021217273], [116.344422364, 40.021217273]]]}}, {"type": "Feature", "id": "B-004", "properties": {"id": "B-004", "layer": "BUILDING_FOOTPRINT", "source_type": "agent_generated_design", "confidence": "medium", "geometry_role": "design_proposal", "building_type": "ai_r_and_d", "land_use_parent": "LU-001", "height_m_concept": 60, "floors_concept": 15, "status_concept": "new_build", "area_sqm_declared": 4108.5, "phase_concept": "phase1_near", "real_case_ref": "大基底写字楼·参考北京CBD核心区级·55-60m见方/单层~3000㎡(60m/15层/层高4.0m)", "design_note": "V3 真实北京案例体块：居住板楼(55×14m/11-18层/间距≥1.2H)科研超高层(中国尊/正大中心级)商业综合体(大悦城级)文化馆(首博级)"}, "geometry": {"type": "Polygon", "coordinates": [[[116.342726197, 40.018067475], [116.342726197, 40.018646651], [116.343474482, 40.018646651], [116.343474482, 40.018067475], [116.342726197, 40.018067475], [116.342726197, 40.018067475]]]}}, {"type": "Feature", "id": "B-005", "properties": {"id": "B-005", "layer": "BUILDING_FOOTPRINT", "source_type": "agent_generated_design", "confidence": "medium", "geometry_role": "design_proposal", "building_type": "ai_r_and_d", "land_use_parent": "LU-001", "height_m_concept": 54, "floors_concept": 14, "status_concept": "new_build", "area_sqm_declared": 3733.7, "phase_concept": "phase1_near", "real_case_ref": "大基底写字楼·参考北京上地地标级·单层~3800㎡(54m/14层/层高3.9m)", "design_note": "V3 真实北京案例体块：居住板楼(55×14m/11-18层/间距≥1.2H)科研超高层(中国尊/正大中心级)商业综合体(大悦城级)文化馆(首博级)"}, "geometry": {"type": "Polygon", "coordinates": [[[116.344220439, 40.02379438], [116.344220439, 40.024346533], [116.344933812, 40.024346533], [116.344933812, 40.02379438], [116.344220439, 40.02379438], [116.344220439, 40.02379438]]]}}, {"type": "Feature", "id": "B-006", "properties": {"id": "B-006", "layer": "BUILDING_FOOTPRINT", "source_type": "agent_generated_design", "confidence": "medium", "geometry_role": "design_proposal", "building_type": "ai_r_and_d", "land_use_parent": "LU-001", "height_m_concept": 54, "floors_concept": 14, "status_concept": "new_build", "area_sqm_declared": 3494.6, "phase_concept": "phase1_near", "real_case_ref": "大基底写字楼·参考北京软件园地标级·单层~3600㎡(54m/14层/层高3.9m)", "design_note": "V3 真实北京案例体块：居住板楼(55×14m/11-18层/间距≥1.2H)科研超高层(中国尊/正大中心级)商业综合体(大悦城级)文化馆(首博级)"}, "geometry": {"type": "Polygon", "coordinates": [[[116.343453126, 40.013485951], [116.343453126, 40.01402009], [116.344143224, 40.01402009], [116.344143224, 40.013485951], [116.343453126, 40.013485951], [116.343453126, 40.013485951]]]}}, {"type": "Feature", "id": "B-007", "properties": {"id": "B-007", "layer": "BUILDING_FOOTPRINT", "source_type": "agent_generated_design", "confidence": "medium", "geometry_role": "design_proposal", "building_type": "ai_r_and_d", "land_use_parent": "LU-001", "height_m_concept": 48, "floors_concept": 12, "status_concept": "new_build", "area_sqm_declared": 3262.7, "phase_concept": "phase1_near", "real_case_ref": "大基底写字楼·参考北京科技园级·单层~3400㎡(48m/12层/层高4.0m)", "design_note": "V3 真实北京案例体块：居住板楼(55×14m/11-18层/间距≥1.2H)科研超高层(中国尊/正大中心级)商业综合体(大悦城级)文化馆(首博级)"}, "geometry": {"type": "Polygon", "coordinates": [[[116.343412741, 40.016922094], [116.343412741, 40.017438218], [116.344079564, 40.017438218], [116.344079564, 40.016922094], [116.343412741, 40.016922094], [116.343412741, 40.016922094]]]}}, {"type": "Feature", "id": "B-008", "properties": {"id": "B-008", "layer": "BUILDING_FOOTPRINT", "source_type": "agent_generated_design", "confidence": "medium", "geometry_role": "design_proposal", "building_type": "ai_r_and_d", "land_use_parent": "LU-001", "height_m_concept": 48, "floors_concept": 12, "status_concept": "new_build", "area_sqm_declared": 3262.6, "phase_concept": "phase1_near", "real_case_ref": "大基底写字楼·参考北京科技园级·单层~3400㎡(48m/12层/层高4.0m)", "design_note": "V3 真实北京案例体块：居住板楼(55×14m/11-18层/间距≥1.2H)科研超高层(中国尊/正大中心级)商业综合体(大悦城级)文化馆(首博级)"}, "geometry": {"type": "Polygon", "coordinates": [[[116.345149292, 40.019212856], [116.345149292, 40.01972898], [116.345816115, 40.01972898], [116.345816115, 40.019212856], [116.345149292, 40.019212856], [116.345149292, 40.019212856]]]}}, {"type": "Feature", "id": "B-009", "properties": {"id": "B-009", "layer": "BUILDING_FOOTPRINT", "source_type": "agent_generated_design", "confidence": "medium", "geometry_role": "design_proposal", "building_type": "ai_r_and_d", "land_use_parent": "LU-001", "height_m_concept": 45, "floors_concept": 11, "status_concept": "new_build", "area_sqm_declared": 3038.6, "phase_concept": "phase1_near", "real_case_ref": "大基底写字楼·参考北京园区办公级·单层~3100㎡(45m/11层/层高4.1m)", "design_note": "V3 真实北京案例体块：居住板楼(55×14m/11-18层/间距≥1.2H)科研超高层(中国尊/正大中心级)商业综合体(大悦城级)文化馆(首博级)"}, "geometry": {"type": "Polygon", "coordinates": [[[116.343533896, 40.024653416], [116.343533896, 40.025151525], [116.344177444, 40.025151525], [116.344177444, 40.024653416], [116.343533896, 40.024653416], [116.343533896, 40.024653416]]]}}, {"type": "Feature", "id": "B-010", "properties": {"id": "B-010", "layer": "BUILDING_FOOTPRINT", "source_type": "agent_generated_design", "confidence": "medium", "geometry_role": "design_proposal", "building_type": "ai_r_and_d", "land_use_parent": "LU-001", "height_m_concept": 45, "floors_concept": 11, "status_concept": "new_build", "area_sqm_declared": 3039.0, "phase_concept": "phase1_near", "real_case_ref": "大基底写字楼·参考北京园区办公级·单层~3100㎡(45m/11层/层高4.1m)", "design_note": "V3 真实北京案例体块：居住板楼(55×14m/11-18层/间距≥1.2H)科研超高层(中国尊/正大中心级)商业综合体(大悦城级)文化馆(首博级)"}, "geometry": {"type": "Polygon", "coordinates": [[[116.345230062, 40.014058642], [116.345230062, 40.014556751], [116.345873611, 40.014556751], [116.345873611, 40.014058642], [116.345230062, 40.014058642], [116.345230062, 40.014058642]]]}}, {"type": "Feature", "id": "B-011", "properties": {"id": "B-011", "layer": "BUILDING_FOOTPRINT", "source_type": "agent_generated_design", "confidence": "medium", "geometry_role": "design_proposal", "building_type": "ai_r_and_d", "land_use_parent": "LU-001", "height_m_concept": 12, "floors_concept": 3, "status_concept": "new_build", "area_sqm_declared": 16480.5, "phase_concept": "phase1_near", "real_case_ref": "低层研发裙房·参考北京中关村软件园办公楼(3层/12m/4.0m层高)", "design_note": "V3 真实北京案例体块：居住板楼(55×14m/11-18层/间距≥1.2H)科研超高层(中国尊/正大中心级)商业综合体(大悦城级)文化馆(首博级)"}, "geometry": {"type": "Polygon", "coordinates": [[[116.343210816, 40.012483743], [116.343210816, 40.013107955], [116.345995646, 40.013107955], [116.345995646, 40.012483743], [116.343210816, 40.012483743], [116.343210816, 40.012483743]]]}}, {"type": "Feature", "id": "B-012", "properties": {"id": "B-012", "layer": "BUILDING_FOOTPRINT", "source_type": "agent_generated_design", "confidence": "medium", "geometry_role": "design_proposal", "building_type": "ai_r_and_d", "land_use_parent": "LU-002", "height_m_concept": 80, "floors_concept": 20, "status_concept": "new_build", "area_sqm_declared": 5486.0, "phase_concept": "phase1_near", "real_case_ref": "大基底写字楼·参考北京中国尊级·底部78m见方/单层~3500㎡·社区级缩尺(80m/20层/层高4.0m)", "design_note": "V3 真实北京案例体块：居住板楼(55×14m/11-18层/间距≥1.2H)科研超高层(中国尊/正大中心级)商业综合体(大悦城级)文化馆(首博级)"}, "geometry": {"type": "Polygon", "coordinates": [[[116.349957237, 40.014344987], [116.349957237, 40.015014237], [116.350821896, 40.015014237], [116.350821896, 40.014344987], [116.349957237, 40.014344987], [116.349957237, 40.014344987]]]}}, {"type": "Feature", "id": "B-013", "properties": {"id": "B-013", "layer": "BUILDING_FOOTPRINT", "source_type": "agent_generated_design", "confidence": "medium", "geometry_role": "design_proposal", "building_type": "ai_r_and_d", "land_use_parent": "LU-002", "height_m_concept": 70, "floors_concept": 18, "status_concept": "new_build", "area_sqm_declared": 4772.5, "phase_concept": "phase1_near", "real_case_ref": "大基底写字楼·参考北京正大中心级·50m见方/单层~2500㎡·放大版(70m/18层/层高3.9m)", "design_note": "V3 真实北京案例体块：居住板楼(55×14m/11-18层/间距≥1.2H)科研超高层(中国尊/正大中心级)商业综合体(大悦城级)文化馆(首博级)"}, "geometry": {"type": "Polygon", "coordinates": [[[116.352424366, 40.014917677], [116.352424366, 40.01554189], [116.353230838, 40.01554189], [116.353230838, 40.014917677], [116.352424366, 40.014917677], [116.352424366, 40.014917677]]]}}, {"type": "Feature", "id": "B-014", "properties": {"id": "B-014", "layer": "BUILDING_FOOTPRINT", "source_type": "agent_generated_design", "confidence": "medium", "geometry_role": "design_proposal", "building_type": "ai_r_and_d", "land_use_parent": "LU-002", "height_m_concept": 60, "floors_concept": 15, "status_concept": "new_build", "area_sqm_declared": 5051.5, "phase_concept": "phase1_near", "real_case_ref": "大基底写字楼·参考北京国贸三期级·48×50m/单层~2300㎡·放大版(60m/15层/层高4.0m)", "design_note": "V3 真实北京案例体块：居住板楼(55×14m/11-18层/间距≥1.2H)科研超高层(中国尊/正大中心级)商业综合体(大悦城级)文化馆(首博级)"}, "geometry": {"type": "Polygon", "coordinates": [[[116.352671079, 40.021217273], [116.352671079, 40.0218595], [116.353500825, 40.0218595], [116.353500825, 40.021217273], [116.352671079, 40.021217273], [116.352671079, 40.021217273]]]}}, {"type": "Feature", "id": "B-015", "properties": {"id": "B-015", "layer": "BUILDING_FOOTPRINT", "source_type": "agent_generated_design", "confidence": "medium", "geometry_role": "design_proposal", "building_type": "ai_r_and_d", "land_use_parent": "LU-002", "height_m_concept": 60, "floors_concept": 15, "status_concept": "new_build", "area_sqm_declared": 4108.5, "phase_concept": "phase1_near", "real_case_ref": "大基底写字楼·参考北京CBD核心区级·55-60m见方/单层~3000㎡(60m/15层/层高4.0m)", "design_note": "V3 真实北京案例体块：居住板楼(55×14m/11-18层/间距≥1.2H)科研超高层(中国尊/正大中心级)商业综合体(大悦城级)文化馆(首博级)"}, "geometry": {"type": "Polygon", "coordinates": [[[116.350080593, 40.018067475], [116.350080593, 40.018646651], [116.350828878, 40.018646651], [116.350828878, 40.018067475], [116.350080593, 40.018067475], [116.350080593, 40.018067475]]]}}, {"type": "Feature", "id": "B-016", "properties": {"id": "B-016", "layer": "BUILDING_FOOTPRINT", "source_type": "agent_generated_design", "confidence": "medium", "geometry_role": "design_proposal", "building_type": "ai_r_and_d", "land_use_parent": "LU-002", "height_m_concept": 54, "floors_concept": 14, "status_concept": "new_build", "area_sqm_declared": 3733.7, "phase_concept": "phase1_near", "real_case_ref": "大基底写字楼·参考北京上地地标级·单层~3800㎡(54m/14层/层高3.9m)", "design_note": "V3 真实北京案例体块：居住板楼(55×14m/11-18层/间距≥1.2H)科研超高层(中国尊/正大中心级)商业综合体(大悦城级)文化馆(首博级)"}, "geometry": {"type": "Polygon", "coordinates": [[[116.352362688, 40.02379438], [116.352362688, 40.024346533], [116.35307606, 40.024346533], [116.35307606, 40.02379438], [116.352362688, 40.02379438], [116.352362688, 40.02379438]]]}}, {"type": "Feature", "id": "B-017", "properties": {"id": "B-017", "layer": "BUILDING_FOOTPRINT", "source_type": "agent_generated_design", "confidence": "medium", "geometry_role": "design_proposal", "building_type": "ai_r_and_d", "land_use_parent": "LU-002", "height_m_concept": 54, "floors_concept": 14, "status_concept": "new_build", "area_sqm_declared": 3494.6, "phase_concept": "phase1_near", "real_case_ref": "大基底写字楼·参考北京软件园地标级·单层~3600㎡(54m/14层/层高3.9m)", "design_note": "V3 真实北京案例体块：居住板楼(55×14m/11-18层/间距≥1.2H)科研超高层(中国尊/正大中心级)商业综合体(大悦城级)文化馆(首博级)"}, "geometry": {"type": "Polygon", "coordinates": [[[116.351190801, 40.013485951], [116.351190801, 40.01402009], [116.351880899, 40.01402009], [116.351880899, 40.013485951], [116.351190801, 40.013485951], [116.351190801, 40.013485951]]]}}, {"type": "Feature", "id": "B-018", "properties": {"id": "B-018", "layer": "BUILDING_FOOTPRINT", "source_type": "agent_generated_design", "confidence": "medium", "geometry_role": "design_proposal", "building_type": "ai_r_and_d", "land_use_parent": "LU-002", "height_m_concept": 48, "floors_concept": 12, "status_concept": "new_build", "area_sqm_declared": 3262.7, "phase_concept": "phase1_near", "real_case_ref": "大基底写字楼·参考北京科技园级·单层~3400㎡(48m/12层/层高4.0m)", "design_note": "V3 真实北京案例体块：居住板楼(55×14m/11-18层/间距≥1.2H)科研超高层(中国尊/正大中心级)商业综合体(大悦城级)文化馆(首博级)"}, "geometry": {"type": "Polygon", "coordinates": [[[116.351129123, 40.016922094], [116.351129123, 40.017438218], [116.351795946, 40.017438218], [116.351795946, 40.016922094], [116.351129123, 40.016922094], [116.351129123, 40.016922094]]]}}, {"type": "Feature", "id": "B-019", "properties": {"id": "B-019", "layer": "BUILDING_FOOTPRINT", "source_type": "agent_generated_design", "confidence": "medium", "geometry_role": "design_proposal", "building_type": "ai_r_and_d", "land_use_parent": "LU-002", "height_m_concept": 48, "floors_concept": 12, "status_concept": "new_build", "area_sqm_declared": 3262.6, "phase_concept": "phase1_near", "real_case_ref": "大基底写字楼·参考北京科技园级·单层~3400㎡(48m/12层/层高4.0m)", "design_note": "V3 真实北京案例体块：居住板楼(55×14m/11-18层/间距≥1.2H)科研超高层(中国尊/正大中心级)商业综合体(大悦城级)文化馆(首博级)"}, "geometry": {"type": "Polygon", "coordinates": [[[116.353781287, 40.019212856], [116.353781287, 40.01972898], [116.35444811, 40.01972898], [116.35444811, 40.019212856], [116.353781287, 40.019212856], [116.353781287, 40.019212856]]]}}, {"type": "Feature", "id": "B-020", "properties": {"id": "B-020", "layer": "BUILDING_FOOTPRINT", "source_type": "agent_generated_design", "confidence": "medium", "geometry_role": "design_proposal", "building_type": "ai_r_and_d", "land_use_parent": "LU-002", "height_m_concept": 45, "floors_concept": 11, "status_concept": "new_build", "area_sqm_declared": 3038.6, "phase_concept": "phase1_near", "real_case_ref": "大基底写字楼·参考北京园区办公级·单层~3100㎡(45m/11层/层高4.1m)", "design_note": "V3 真实北京案例体块：居住板楼(55×14m/11-18层/间距≥1.2H)科研超高层(中国尊/正大中心级)商业综合体(大悦城级)文化馆(首博级)"}, "geometry": {"type": "Polygon", "coordinates": [[[116.351314158, 40.024653416], [116.351314158, 40.025151525], [116.351957706, 40.025151525], [116.351957706, 40.024653416], [116.351314158, 40.024653416], [116.351314158, 40.024653416]]]}}, {"type": "Feature", "id": "B-021", "properties": {"id": "B-021", "layer": "BUILDING_FOOTPRINT", "source_type": "agent_generated_design", "confidence": "medium", "geometry_role": "design_proposal", "building_type": "ai_r_and_d", "land_use_parent": "LU-002", "height_m_concept": 45, "floors_concept": 11, "status_concept": "new_build", "area_sqm_declared": 3039.0, "phase_concept": "phase1_near", "real_case_ref": "大基底写字楼·参考北京园区办公级·单层~3100㎡(45m/11层/层高4.1m)", "design_note": "V3 真实北京案例体块：居住板楼(55×14m/11-18层/间距≥1.2H)科研超高层(中国尊/正大中心级)商业综合体(大悦城级)文化馆(首博级)"}, "geometry": {"type": "Polygon", "coordinates": [[[116.353904643, 40.014058642], [116.353904643, 40.014556751], [116.354548191, 40.014556751], [116.354548191, 40.014058642], [116.353904643, 40.014058642], [116.353904643, 40.014058642]]]}}, {"type": "Feature", "id": "B-022", "properties": {"id": "B-022", "layer": "BUILDING_FOOTPRINT", "source_type": "agent_generated_design", "confidence": "medium", "geometry_role": "design_proposal", "building_type": "ai_r_and_d", "land_use_parent": "LU-002", "height_m_concept": 12, "floors_concept": 3, "status_concept": "new_build", "area_sqm_declared": 16480.4, "phase_concept": "phase1_near", "real_case_ref": "低层研发裙房·参考北京中关村软件园办公楼(3层/12m/4.0m层高)", "design_note": "V3 真实北京案例体块：居住板楼(55×14m/11-18层/间距≥1.2H)科研超高层(中国尊/正大中心级)商业综合体(大悦城级)文化馆(首博级)"}, "geometry": {"type": "Polygon", "coordinates": [[[116.350820732, 40.012483743], [116.350820732, 40.013107955], [116.353605562, 40.013107955], [116.353605562, 40.012483743], [116.350820732, 40.012483743], [116.350820732, 40.012483743]]]}}, {"type": "Feature", "id": "B-023", "properties": {"id": "B-023", "layer": "BUILDING_FOOTPRINT", "source_type": "agent_generated_design", "confidence": "medium", "geometry_role": "design_proposal", "building_type": "education", "land_use_parent": "LU-003", "height_m_concept": 36, "floors_concept": 4, "status_concept": "new_build", "area_sqm_declared": 13993.9, "phase_concept": "phase1_near", "real_case_ref": "大型文化馆·参考首都博物馆(6.4万㎡/5层/高40m/基底~1.3万㎡)", "design_note": "V3 真实北京案例体块：居住板楼(55×14m/11-18层/间距≥1.2H)科研超高层(中国尊/正大中心级)商业综合体(大悦城级)文化馆(首博级)"}, "geometry": {"type": "Polygon", "coordinates": [[[116.341935107, 40.000620051], [116.341935107, 40.001469449], [116.343672571, 40.001469449], [116.343672571, 40.000620051], [116.341935107, 40.000620051], [116.341935107, 40.000620051]]]}}, {"type": "Feature", "id": "B-024", "properties": {"id": "B-024", "layer": "BUILDING_FOOTPRINT", "source_type": "agent_generated_design", "confidence": "medium", "geometry_role": "design_proposal", "building_type": "education", "land_use_parent": "LU-003", "height_m_concept": 30, "floors_concept": 3, "status_concept": "new_build", "area_sqm_declared": 8441.0, "phase_concept": "phase1_near", "real_case_ref": "专题文化馆·参考中国科技馆(10.2万㎡/5层/高30m)", "design_note": "V3 真实北京案例体块：居住板楼(55×14m/11-18层/间距≥1.2H)科研超高层(中国尊/正大中心级)商业综合体(大悦城级)文化馆(首博级)"}, "geometry": {"type": "Polygon", "coordinates": [[[116.34383991, 40.001765072], [116.34383991, 40.002434322], [116.345170065, 40.002434322], [116.345170065, 40.001765072], [116.34383991, 40.001765072], [116.34383991, 40.001765072]]]}}, {"type": "Feature", "id": "B-025", "properties": {"id": "B-025", "layer": "BUILDING_FOOTPRINT", "source_type": "agent_generated_design", "confidence": "medium", "geometry_role": "design_proposal", "building_type": "mixed_use", "land_use_parent": "LU-003", "height_m_concept": 12, "floors_concept": 3, "status_concept": "new_build", "area_sqm_declared": 7620.4, "phase_concept": "phase1_near", "real_case_ref": "文化商业底商·参考北京文化园区配套商业(≤3层)", "design_note": "V3 真实北京案例体块：居住板楼(55×14m/11-18层/间距≥1.2H)科研超高层(中国尊/正大中心级)商业综合体(大悦城级)文化馆(首博级)"}, "geometry": {"type": "Polygon", "coordinates": [[[116.34383991, 40.00777643], [116.34383991, 40.008310569], [116.345344626, 40.008310569], [116.345344626, 40.00777643], [116.34383991, 40.00777643], [116.34383991, 40.00777643]]]}}, {"type": "Feature", "id": "B-026", "properties": {"id": "B-026", "layer": "BUILDING_FOOTPRINT", "source_type": "agent_generated_design", "confidence": "medium", "geometry_role": "design_proposal", "building_type": "education", "land_use_parent": "LU-004", "height_m_concept": 36, "floors_concept": 4, "status_concept": "new_build", "area_sqm_declared": 13993.9, "phase_concept": "phase1_near", "real_case_ref": "大型文化馆·参考首都博物馆(6.4万㎡/5层/高40m/基底~1.3万㎡)", "design_note": "V3 真实北京案例体块：居住板楼(55×14m/11-18层/间距≥1.2H)科研超高层(中国尊/正大中心级)商业综合体(大悦城级)文化馆(首博级)"}, "geometry": {"type": "Polygon", "coordinates": [[[116.349854729, 40.000620051], [116.349854729, 40.001469449], [116.351592193, 40.001469449], [116.351592193, 40.000620051], [116.349854729, 40.000620051], [116.349854729, 40.000620051]]]}}, {"type": "Feature", "id": "B-027", "properties": {"id": "B-027", "layer": "BUILDING_FOOTPRINT", "source_type": "agent_generated_design", "confidence": "medium", "geometry_role": "design_proposal", "building_type": "education", "land_use_parent": "LU-004", "height_m_concept": 30, "floors_concept": 3, "status_concept": "new_build", "area_sqm_declared": 8441.0, "phase_concept": "phase1_near", "real_case_ref": "专题文化馆·参考中国科技馆(10.2万㎡/5层/高30m)", "design_note": "V3 真实北京案例体块：居住板楼(55×14m/11-18层/间距≥1.2H)科研超高层(中国尊/正大中心级)商业综合体(大悦城级)文化馆(首博级)"}, "geometry": {"type": "Polygon", "coordinates": [[[116.352010316, 40.001765072], [116.352010316, 40.002434322], [116.353340471, 40.002434322], [116.353340471, 40.001765072], [116.352010316, 40.001765072], [116.352010316, 40.001765072]]]}}, {"type": "Feature", "id": "B-028", "properties": {"id": "B-028", "layer": "BUILDING_FOOTPRINT", "source_type": "agent_generated_design", "confidence": "medium", "geometry_role": "design_proposal", "building_type": "mixed_use", "land_use_parent": "LU-004", "height_m_concept": 12, "floors_concept": 3, "status_concept": "new_build", "area_sqm_declared": 7620.4, "phase_concept": "phase1_near", "real_case_ref": "文化商业底商·参考北京文化园区配套商业(≤3层)", "design_note": "V3 真实北京案例体块：居住板楼(55×14m/11-18层/间距≥1.2H)科研超高层(中国尊/正大中心级)商业综合体(大悦城级)文化馆(首博级)"}, "geometry": {"type": "Polygon", "coordinates": [[[116.352010316, 40.00777643], [116.352010316, 40.008310569], [116.353515032, 40.008310569], [116.353515032, 40.00777643], [116.352010316, 40.00777643], [116.352010316, 40.00777643]]]}}, {"type": "Feature", "id": "B-029", "properties": {"id": "B-029", "layer": "BUILDING_FOOTPRINT", "source_type": "agent_generated_design", "confidence": "medium", "geometry_role": "design_proposal", "building_type": "residential", "land_use_parent": "LU-005", "height_m_concept": 30, "floors_concept": 10, "status_concept": "new_build", "area_sqm_declared": 784.1, "phase_concept": "phase2_mid", "real_case_ref": "板式住宅·参考北京万柳书院(10层/30m)/统一长60m×14m", "design_note": "V3 真实北京案例体块：居住板楼(55×14m/11-18层/间距≥1.2H)科研超高层(中国尊/正大中心级)商业综合体(大悦城级)文化馆(首博级)"}, "geometry": {"type": "Polygon", "coordinates": [[[116.34039973, 39.983174519], [116.34039973, 39.983294317], [116.341089828, 39.983294317], [116.341089828, 39.983174519], [116.34039973, 39.983174519], [116.34039973, 39.983174519]]]}}, {"type": "Feature", "id": "B-030", "properties": {"id": "B-030", "layer": "BUILDING_FOOTPRINT", "source_type": "agent_generated_design", "confidence": "medium", "geometry_role": "design_proposal", "building_type": "residential", "land_use_parent": "LU-005", "height_m_concept": 30, "floors_concept": 10, "status_concept": "new_build", "area_sqm_declared": 784.1, "phase_concept": "phase2_mid", "real_case_ref": "板式住宅·参考北京万柳书院(10层/30m)/统一长60m×14m", "design_note": "V3 真实北京案例体块：居住板楼(55×14m/11-18层/间距≥1.2H)科研超高层(中国尊/正大中心级)商业综合体(大悦城级)文化馆(首博级)"}, "geometry": {"type": "Polygon", "coordinates": [[[116.341353997, 39.983174519], [116.341353997, 39.983294317], [116.342044095, 39.983294317], [116.342044095, 39.983174519], [116.341353997, 39.983174519], [116.341353997, 39.983174519]]]}}, {"type": "Feature", "id": "B-031", "properties": {"id": "B-031", "layer": "BUILDING_FOOTPRINT", "source_type": "agent_generated_design", "confidence": "medium", "geometry_role": "design_proposal", "building_type": "residential", "land_use_parent": "LU-005", "height_m_concept": 30, "floors_concept": 10, "status_concept": "new_build", "area_sqm_declared": 784.1, "phase_concept": "phase2_mid", "real_case_ref": "板式住宅·参考北京万柳书院(10层/30m)/统一长60m×14m", "design_note": "V3 真实北京案例体块：居住板楼(55×14m/11-18层/间距≥1.2H)科研超高层(中国尊/正大中心级)商业综合体(大悦城级)文化馆(首博级)"}, "geometry": {"type": "Polygon", "coordinates": [[[116.342308264, 39.983174519], [116.342308264, 39.983294317], [116.342998362, 39.983294317], [116.342998362, 39.983174519], [116.342308264, 39.983174519], [116.342308264, 39.983174519]]]}}, {"type": "Feature", "id": "B-032", "properties": {"id": "B-032", "layer": "BUILDING_FOOTPRINT", "source_type": "agent_generated_design", "confidence": "medium", "geometry_role": "design_proposal", "building_type": "residential", "land_use_parent": "LU-005", "height_m_concept": 30, "floors_concept": 10, "status_concept": "new_build", "area_sqm_declared": 784.1, "phase_concept": "phase2_mid", "real_case_ref": "板式住宅·参考北京万柳书院(10层/30m)/统一长60m×14m", "design_note": "V3 真实北京案例体块：居住板楼(55×14m/11-18层/间距≥1.2H)科研超高层(中国尊/正大中心级)商业综合体(大悦城级)文化馆(首博级)"}, "geometry": {"type": "Polygon", "coordinates": [[[116.343262531, 39.983174519], [116.343262531, 39.983294317], [116.343952629, 39.983294317], [116.343952629, 39.983174519], [116.343262531, 39.983174519], [116.343262531, 39.983174519]]]}}, {"type": "Feature", "id": "B-033", "properties": {"id": "B-033", "layer": "BUILDING_FOOTPRINT", "source_type": "agent_generated_design", "confidence": "medium", "geometry_role": "design_proposal", "building_type": "residential", "land_use_parent": "LU-005", "height_m_concept": 30, "floors_concept": 10, "status_concept": "new_build", "area_sqm_declared": 784.1, "phase_concept": "phase2_mid", "real_case_ref": "板式住宅·参考北京万柳书院(10层/30m)/统一长60m×14m", "design_note": "V3 真实北京案例体块：居住板楼(55×14m/11-18层/间距≥1.2H)科研超高层(中国尊/正大中心级)商业综合体(大悦城级)文化馆(首博级)"}, "geometry": {"type": "Polygon", "coordinates": [[[116.344216798, 39.983174519], [116.344216798, 39.983294317], [116.344906895, 39.983294317], [116.344906895, 39.983174519], [116.344216798, 39.983174519], [116.344216798, 39.983174519]]]}}, {"type": "Feature", "id": "B-034", "properties": {"id": "B-034", "layer": "BUILDING_FOOTPRINT", "source_type": "agent_generated_design", "confidence": "medium", "geometry_role": "design_proposal", "building_type": "residential", "land_use_parent": "LU-005", "height_m_concept": 30, "floors_concept": 10, "status_concept": "new_build", "area_sqm_declared": 784.1, "phase_concept": "phase2_mid", "real_case_ref": "板式住宅·参考北京万柳书院(10层/30m)/统一长60m×14m", "design_note": "V3 真实北京案例体块：居住板楼(55×14m/11-18层/间距≥1.2H)科研超高层(中国尊/正大中心级)商业综合体(大悦城级)文化馆(首博级)"}, "geometry": {"type": "Polygon", "coordinates": [[[116.345171064, 39.983174519], [116.345171064, 39.983294317], [116.345861162, 39.983294317], [116.345861162, 39.983174519], [116.345171064, 39.983174519], [116.345171064, 39.983174519]]]}}, {"type": "Feature", "id": "B-035", "properties": {"id": "B-035", "layer": "BUILDING_FOOTPRINT", "source_type": "agent_generated_design", "confidence": "medium", "geometry_role": "design_proposal", "building_type": "residential", "land_use_parent": "LU-005", "height_m_concept": 33, "floors_concept": 11, "status_concept": "new_build", "area_sqm_declared": 784.1, "phase_concept": "phase2_mid", "real_case_ref": "板式住宅·参考北京使馆壹号院(11层/33m)/统一长60m×14m", "design_note": "V3 真实北京案例体块：居住板楼(55×14m/11-18层/间距≥1.2H)科研超高层(中国尊/正大中心级)商业综合体(大悦城级)文化馆(首博级)"}, "geometry": {"type": "Polygon", "coordinates": [[[116.340510539, 39.986609581], [116.340510539, 39.986729379], [116.341200637, 39.986729379], [116.341200637, 39.986609581], [116.340510539, 39.986609581], [116.340510539, 39.986609581]]]}}, {"type": "Feature", "id": "B-036", "properties": {"id": "B-036", "layer": "BUILDING_FOOTPRINT", "source_type": "agent_generated_design", "confidence": "medium", "geometry_role": "design_proposal", "building_type": "residential", "land_use_parent": "LU-005", "height_m_concept": 33, "floors_concept": 11, "status_concept": "new_build", "area_sqm_declared": 784.1, "phase_concept": "phase2_mid", "real_case_ref": "板式住宅·参考北京使馆壹号院(11层/33m)/统一长60m×14m", "design_note": "V3 真实北京案例体块：居住板楼(55×14m/11-18层/间距≥1.2H)科研超高层(中国尊/正大中心级)商业综合体(大悦城级)文化馆(首博级)"}, "geometry": {"type": "Polygon", "coordinates": [[[116.341464806, 39.986609581], [116.341464806, 39.986729379], [116.342154904, 39.986729379], [116.342154904, 39.986609581], [116.341464806, 39.986609581], [116.341464806, 39.986609581]]]}}, {"type": "Feature", "id": "B-037", "properties": {"id": "B-037", "layer": "BUILDING_FOOTPRINT", "source_type": "agent_generated_design", "confidence": "medium", "geometry_role": "design_proposal", "building_type": "residential", "land_use_parent": "LU-005", "height_m_concept": 33, "floors_concept": 11, "status_concept": "new_build", "area_sqm_declared": 784.1, "phase_concept": "phase2_mid", "real_case_ref": "板式住宅·参考北京使馆壹号院(11层/33m)/统一长60m×14m", "design_note": "V3 真实北京案例体块：居住板楼(55×14m/11-18层/间距≥1.2H)科研超高层(中国尊/正大中心级)商业综合体(大悦城级)文化馆(首博级)"}, "geometry": {"type": "Polygon", "coordinates": [[[116.342419073, 39.986609581], [116.342419073, 39.986729379], [116.34310917, 39.986729379], [116.34310917, 39.986609581], [116.342419073, 39.986609581], [116.342419073, 39.986609581]]]}}, {"type": "Feature", "id": "B-038", "properties": {"id": "B-038", "layer": "BUILDING_FOOTPRINT", "source_type": "agent_generated_design", "confidence": "medium", "geometry_role": "design_proposal", "building_type": "residential", "land_use_parent": "LU-005", "height_m_concept": 33, "floors_concept": 11, "status_concept": "new_build", "area_sqm_declared": 784.1, "phase_concept": "phase2_mid", "real_case_ref": "板式住宅·参考北京使馆壹号院(11层/33m)/统一长60m×14m", "design_note": "V3 真实北京案例体块：居住板楼(55×14m/11-18层/间距≥1.2H)科研超高层(中国尊/正大中心级)商业综合体(大悦城级)文化馆(首博级)"}, "geometry": {"type": "Polygon", "coordinates": [[[116.343373339, 39.986609581], [116.343373339, 39.986729379], [116.344063437, 39.986729379], [116.344063437, 39.986609581], [116.343373339, 39.986609581], [116.343373339, 39.986609581]]]}}, {"type": "Feature", "id": "B-039", "properties": {"id": "B-039", "layer": "BUILDING_FOOTPRINT", "source_type": "agent_generated_design", "confidence": "medium", "geometry_role": "design_proposal", "building_type": "residential", "land_use_parent": "LU-005", "height_m_concept": 33, "floors_concept": 11, "status_concept": "new_build", "area_sqm_declared": 784.1, "phase_concept": "phase2_mid", "real_case_ref": "板式住宅·参考北京使馆壹号院(11层/33m)/统一长60m×14m", "design_note": "V3 真实北京案例体块：居住板楼(55×14m/11-18层/间距≥1.2H)科研超高层(中国尊/正大中心级)商业综合体(大悦城级)文化馆(首博级)"}, "geometry": {"type": "Polygon", "coordinates": [[[116.344327606, 39.986609581], [116.344327606, 39.986729379], [116.345017704, 39.986729379], [116.345017704, 39.986609581], [116.344327606, 39.986609581], [116.344327606, 39.986609581]]]}}, {"type": "Feature", "id": "B-040", "properties": {"id": "B-040", "layer": "BUILDING_FOOTPRINT", "source_type": "agent_generated_design", "confidence": "medium", "geometry_role": "design_proposal", "building_type": "residential", "land_use_parent": "LU-005", "height_m_concept": 33, "floors_concept": 11, "status_concept": "new_build", "area_sqm_declared": 784.1, "phase_concept": "phase2_mid", "real_case_ref": "板式住宅·参考北京使馆壹号院(11层/33m)/统一长60m×14m", "design_note": "V3 真实北京案例体块：居住板楼(55×14m/11-18层/间距≥1.2H)科研超高层(中国尊/正大中心级)商业综合体(大悦城级)文化馆(首博级)"}, "geometry": {"type": "Polygon", "coordinates": [[[116.345281873, 39.986609581], [116.345281873, 39.986729379], [116.345971971, 39.986729379], [116.345971971, 39.986609581], [116.345281873, 39.986609581], [116.345281873, 39.986609581]]]}}, {"type": "Feature", "id": "B-041", "properties": {"id": "B-041", "layer": "BUILDING_FOOTPRINT", "source_type": "agent_generated_design", "confidence": "medium", "geometry_role": "design_proposal", "building_type": "residential", "land_use_parent": "LU-005", "height_m_concept": 36, "floors_concept": 12, "status_concept": "new_build", "area_sqm_declared": 784.0, "phase_concept": "phase2_mid", "real_case_ref": "板式住宅·参考北京融创北京壹号院(12层/36m)/统一长60m×14m", "design_note": "V3 真实北京案例体块：居住板楼(55×14m/11-18层/间距≥1.2H)科研超高层(中国尊/正大中心级)商业综合体(大悦城级)文化馆(首博级)"}, "geometry": {"type": "Polygon", "coordinates": [[[116.341098481, 39.990044643], [116.341098481, 39.990164441], [116.341788579, 39.990164441], [116.341788579, 39.990044643], [116.341098481, 39.990044643], [116.341098481, 39.990044643]]]}}, {"type": "Feature", "id": "B-042", "properties": {"id": "B-042", "layer": "BUILDING_FOOTPRINT", "source_type": "agent_generated_design", "confidence": "medium", "geometry_role": "design_proposal", "building_type": "residential", "land_use_parent": "LU-005", "height_m_concept": 36, "floors_concept": 12, "status_concept": "new_build", "area_sqm_declared": 784.0, "phase_concept": "phase2_mid", "real_case_ref": "板式住宅·参考北京融创北京壹号院(12层/36m)/统一长60m×14m", "design_note": "V3 真实北京案例体块：居住板楼(55×14m/11-18层/间距≥1.2H)科研超高层(中国尊/正大中心级)商业综合体(大悦城级)文化馆(首博级)"}, "geometry": {"type": "Polygon", "coordinates": [[[116.342052748, 39.990044643], [116.342052748, 39.990164441], [116.342742846, 39.990164441], [116.342742846, 39.990044643], [116.342052748, 39.990044643], [116.342052748, 39.990044643]]]}}, {"type": "Feature", "id": "B-043", "properties": {"id": "B-043", "layer": "BUILDING_FOOTPRINT", "source_type": "agent_generated_design", "confidence": "medium", "geometry_role": "design_proposal", "building_type": "residential", "land_use_parent": "LU-005", "height_m_concept": 36, "floors_concept": 12, "status_concept": "new_build", "area_sqm_declared": 784.0, "phase_concept": "phase2_mid", "real_case_ref": "板式住宅·参考北京融创北京壹号院(12层/36m)/统一长60m×14m", "design_note": "V3 真实北京案例体块：居住板楼(55×14m/11-18层/间距≥1.2H)科研超高层(中国尊/正大中心级)商业综合体(大悦城级)文化馆(首博级)"}, "geometry": {"type": "Polygon", "coordinates": [[[116.343007015, 39.990044643], [116.343007015, 39.990164441], [116.343697112, 39.990164441], [116.343697112, 39.990044643], [116.343007015, 39.990044643], [116.343007015, 39.990044643]]]}}, {"type": "Feature", "id": "B-044", "properties": {"id": "B-044", "layer": "BUILDING_FOOTPRINT", "source_type": "agent_generated_design", "confidence": "medium", "geometry_role": "design_proposal", "building_type": "residential", "land_use_parent": "LU-005", "height_m_concept": 36, "floors_concept": 12, "status_concept": "new_build", "area_sqm_declared": 784.0, "phase_concept": "phase2_mid", "real_case_ref": "板式住宅·参考北京融创北京壹号院(12层/36m)/统一长60m×14m", "design_note": "V3 真实北京案例体块：居住板楼(55×14m/11-18层/间距≥1.2H)科研超高层(中国尊/正大中心级)商业综合体(大悦城级)文化馆(首博级)"}, "geometry": {"type": "Polygon", "coordinates": [[[116.343961281, 39.990044643], [116.343961281, 39.990164441], [116.344651379, 39.990164441], [116.344651379, 39.990044643], [116.343961281, 39.990044643], [116.343961281, 39.990044643]]]}}, {"type": "Feature", "id": "B-045", "properties": {"id": "B-045", "layer": "BUILDING_FOOTPRINT", "source_type": "agent_generated_design", "confidence": "medium", "geometry_role": "design_proposal", "building_type": "residential", "land_use_parent": "LU-005", "height_m_concept": 36, "floors_concept": 12, "status_concept": "new_build", "area_sqm_declared": 784.0, "phase_concept": "phase2_mid", "real_case_ref": "板式住宅·参考北京融创北京壹号院(12层/36m)/统一长60m×14m", "design_note": "V3 真实北京案例体块：居住板楼(55×14m/11-18层/间距≥1.2H)科研超高层(中国尊/正大中心级)商业综合体(大悦城级)文化馆(首博级)"}, "geometry": {"type": "Polygon", "coordinates": [[[116.344915548, 39.990044643], [116.344915548, 39.990164441], [116.345605646, 39.990164441], [116.345605646, 39.990044643], [116.344915548, 39.990044643], [116.344915548, 39.990044643]]]}}, {"type": "Feature", "id": "B-046", "properties": {"id": "B-046", "layer": "BUILDING_FOOTPRINT", "source_type": "agent_generated_design", "confidence": "medium", "geometry_role": "design_proposal", "building_type": "residential", "land_use_parent": "LU-005", "height_m_concept": 39, "floors_concept": 13, "status_concept": "new_build", "area_sqm_declared": 784.0, "phase_concept": "phase2_mid", "real_case_ref": "板式住宅·参考北京融创北京壹号院(13层/39m)/统一长60m×14m", "design_note": "V3 真实北京案例体块：居住板楼(55×14m/11-18层/间距≥1.2H)科研超高层(中国尊/正大中心级)商业综合体(大悦城级)文化馆(首博级)"}, "geometry": {"type": "Polygon", "coordinates": [[[116.34120929, 39.993479705], [116.34120929, 39.993599503], [116.341899387, 39.993599503], [116.341899387, 39.993479705], [116.34120929, 39.993479705], [116.34120929, 39.993479705]]]}}, {"type": "Feature", "id": "B-047", "properties": {"id": "B-047", "layer": "BUILDING_FOOTPRINT", "source_type": "agent_generated_design", "confidence": "medium", "geometry_role": "design_proposal", "building_type": "residential", "land_use_parent": "LU-005", "height_m_concept": 39, "floors_concept": 13, "status_concept": "new_build", "area_sqm_declared": 784.0, "phase_concept": "phase2_mid", "real_case_ref": "板式住宅·参考北京融创北京壹号院(13层/39m)/统一长60m×14m", "design_note": "V3 真实北京案例体块：居住板楼(55×14m/11-18层/间距≥1.2H)科研超高层(中国尊/正大中心级)商业综合体(大悦城级)文化馆(首博级)"}, "geometry": {"type": "Polygon", "coordinates": [[[116.342163556, 39.993479705], [116.342163556, 39.993599503], [116.342853654, 39.993599503], [116.342853654, 39.993479705], [116.342163556, 39.993479705], [116.342163556, 39.993479705]]]}}, {"type": "Feature", "id": "B-048", "properties": {"id": "B-048", "layer": "BUILDING_FOOTPRINT", "source_type": "agent_generated_design", "confidence": "medium", "geometry_role": "design_proposal", "building_type": "residential", "land_use_parent": "LU-005", "height_m_concept": 39, "floors_concept": 13, "status_concept": "new_build", "area_sqm_declared": 784.0, "phase_concept": "phase2_mid", "real_case_ref": "板式住宅·参考北京融创北京壹号院(13层/39m)/统一长60m×14m", "design_note": "V3 真实北京案例体块：居住板楼(55×14m/11-18层/间距≥1.2H)科研超高层(中国尊/正大中心级)商业综合体(大悦城级)文化馆(首博级)"}, "geometry": {"type": "Polygon", "coordinates": [[[116.343117823, 39.993479705], [116.343117823, 39.993599503], [116.343807921, 39.993599503], [116.343807921, 39.993479705], [116.343117823, 39.993479705], [116.343117823, 39.993479705]]]}}, {"type": "Feature", "id": "B-049", "properties": {"id": "B-049", "layer": "BUILDING_FOOTPRINT", "source_type": "agent_generated_design", "confidence": "medium", "geometry_role": "design_proposal", "building_type": "residential", "land_use_parent": "LU-005", "height_m_concept": 39, "floors_concept": 13, "status_concept": "new_build", "area_sqm_declared": 784.0, "phase_concept": "phase2_mid", "real_case_ref": "板式住宅·参考北京融创北京壹号院(13层/39m)/统一长60m×14m", "design_note": "V3 真实北京案例体块：居住板楼(55×14m/11-18层/间距≥1.2H)科研超高层(中国尊/正大中心级)商业综合体(大悦城级)文化馆(首博级)"}, "geometry": {"type": "Polygon", "coordinates": [[[116.34407209, 39.993479705], [116.34407209, 39.993599503], [116.344762188, 39.993599503], [116.344762188, 39.993479705], [116.34407209, 39.993479705], [116.34407209, 39.993479705]]]}}, {"type": "Feature", "id": "B-050", "properties": {"id": "B-050", "layer": "BUILDING_FOOTPRINT", "source_type": "agent_generated_design", "confidence": "medium", "geometry_role": "design_proposal", "building_type": "residential", "land_use_parent": "LU-005", "height_m_concept": 39, "floors_concept": 13, "status_concept": "new_build", "area_sqm_declared": 784.0, "phase_concept": "phase2_mid", "real_case_ref": "板式住宅·参考北京融创北京壹号院(13层/39m)/统一长60m×14m", "design_note": "V3 真实北京案例体块：居住板楼(55×14m/11-18层/间距≥1.2H)科研超高层(中国尊/正大中心级)商业综合体(大悦城级)文化馆(首博级)"}, "geometry": {"type": "Polygon", "coordinates": [[[116.345026357, 39.993479705], [116.345026357, 39.993599503], [116.345716455, 39.993599503], [116.345716455, 39.993479705], [116.345026357, 39.993479705], [116.345026357, 39.993479705]]]}}, {"type": "Feature", "id": "B-051", "properties": {"id": "B-051", "layer": "BUILDING_FOOTPRINT", "source_type": "agent_generated_design", "confidence": "medium", "geometry_role": "design_proposal", "building_type": "residential", "land_use_parent": "LU-005", "height_m_concept": 45, "floors_concept": 15, "status_concept": "new_build", "area_sqm_declared": 784.0, "phase_concept": "phase2_mid", "real_case_ref": "板式住宅·参考北京金茂府(15层/45m)/统一长60m×14m", "design_note": "V3 真实北京案例体块：居住板楼(55×14m/11-18层/间距≥1.2H)科研超高层(中国尊/正大中心级)商业综合体(大悦城级)文化馆(首博级)"}, "geometry": {"type": "Polygon", "coordinates": [[[116.341320098, 39.996914767], [116.341320098, 39.997034565], [116.342010196, 39.997034565], [116.342010196, 39.996914767], [116.341320098, 39.996914767], [116.341320098, 39.996914767]]]}}, {"type": "Feature", "id": "B-052", "properties": {"id": "B-052", "layer": "BUILDING_FOOTPRINT", "source_type": "agent_generated_design", "confidence": "medium", "geometry_role": "design_proposal", "building_type": "residential", "land_use_parent": "LU-005", "height_m_concept": 45, "floors_concept": 15, "status_concept": "new_build", "area_sqm_declared": 784.0, "phase_concept": "phase2_mid", "real_case_ref": "板式住宅·参考北京金茂府(15层/45m)/统一长60m×14m", "design_note": "V3 真实北京案例体块：居住板楼(55×14m/11-18层/间距≥1.2H)科研超高层(中国尊/正大中心级)商业综合体(大悦城级)文化馆(首博级)"}, "geometry": {"type": "Polygon", "coordinates": [[[116.342274365, 39.996914767], [116.342274365, 39.997034565], [116.342964463, 39.997034565], [116.342964463, 39.996914767], [116.342274365, 39.996914767], [116.342274365, 39.996914767]]]}}, {"type": "Feature", "id": "B-053", "properties": {"id": "B-053", "layer": "BUILDING_FOOTPRINT", "source_type": "agent_generated_design", "confidence": "medium", "geometry_role": "design_proposal", "building_type": "residential", "land_use_parent": "LU-005", "height_m_concept": 45, "floors_concept": 15, "status_concept": "new_build", "area_sqm_declared": 784.0, "phase_concept": "phase2_mid", "real_case_ref": "板式住宅·参考北京金茂府(15层/45m)/统一长60m×14m", "design_note": "V3 真实北京案例体块：居住板楼(55×14m/11-18层/间距≥1.2H)科研超高层(中国尊/正大中心级)商业综合体(大悦城级)文化馆(首博级)"}, "geometry": {"type": "Polygon", "coordinates": [[[116.343228632, 39.996914767], [116.343228632, 39.997034565], [116.34391873, 39.997034565], [116.34391873, 39.996914767], [116.343228632, 39.996914767], [116.343228632, 39.996914767]]]}}, {"type": "Feature", "id": "B-054", "properties": {"id": "B-054", "layer": "BUILDING_FOOTPRINT", "source_type": "agent_generated_design", "confidence": "medium", "geometry_role": "design_proposal", "building_type": "residential", "land_use_parent": "LU-005", "height_m_concept": 45, "floors_concept": 15, "status_concept": "new_build", "area_sqm_declared": 784.0, "phase_concept": "phase2_mid", "real_case_ref": "板式住宅·参考北京金茂府(15层/45m)/统一长60m×14m", "design_note": "V3 真实北京案例体块：居住板楼(55×14m/11-18层/间距≥1.2H)科研超高层(中国尊/正大中心级)商业综合体(大悦城级)文化馆(首博级)"}, "geometry": {"type": "Polygon", "coordinates": [[[116.344182899, 39.996914767], [116.344182899, 39.997034565], [116.344872997, 39.997034565], [116.344872997, 39.996914767], [116.344182899, 39.996914767], [116.344182899, 39.996914767]]]}}, {"type": "Feature", "id": "B-055", "properties": {"id": "B-055", "layer": "BUILDING_FOOTPRINT", "source_type": "agent_generated_design", "confidence": "medium", "geometry_role": "design_proposal", "building_type": "residential", "land_use_parent": "LU-005", "height_m_concept": 45, "floors_concept": 15, "status_concept": "new_build", "area_sqm_declared": 784.0, "phase_concept": "phase2_mid", "real_case_ref": "板式住宅·参考北京金茂府(15层/45m)/统一长60m×14m", "design_note": "V3 真实北京案例体块：居住板楼(55×14m/11-18层/间距≥1.2H)科研超高层(中国尊/正大中心级)商业综合体(大悦城级)文化馆(首博级)"}, "geometry": {"type": "Polygon", "coordinates": [[[116.345137166, 39.996914767], [116.345137166, 39.997034565], [116.345827263, 39.997034565], [116.345827263, 39.996914767], [116.345137166, 39.996914767], [116.345137166, 39.996914767]]]}}, {"type": "Feature", "id": "B-056", "properties": {"id": "B-056", "layer": "BUILDING_FOOTPRINT", "source_type": "agent_generated_design", "confidence": "medium", "geometry_role": "design_proposal", "building_type": "residential", "land_use_parent": "LU-006", "height_m_concept": 30, "floors_concept": 10, "status_concept": "new_build", "area_sqm_declared": 784.1, "phase_concept": "phase2_mid", "real_case_ref": "板式住宅·参考北京万柳书院(10层/30m)/统一长60m×14m", "design_note": "V3 真实北京案例体块：居住板楼(55×14m/11-18层/间距≥1.2H)科研超高层(中国尊/正大中心级)商业综合体(大悦城级)文化馆(首博级)"}, "geometry": {"type": "Polygon", "coordinates": [[[116.34915271, 39.983174519], [116.34915271, 39.983294317], [116.349842808, 39.983294317], [116.349842808, 39.983174519], [116.34915271, 39.983174519], [116.34915271, 39.983174519]]]}}, {"type": "Feature", "id": "B-057", "properties": {"id": "B-057", "layer": "BUILDING_FOOTPRINT", "source_type": "agent_generated_design", "confidence": "medium", "geometry_role": "design_proposal", "building_type": "residential", "land_use_parent": "LU-006", "height_m_concept": 30, "floors_concept": 10, "status_concept": "new_build", "area_sqm_declared": 784.1, "phase_concept": "phase2_mid", "real_case_ref": "板式住宅·参考北京万柳书院(10层/30m)/统一长60m×14m", "design_note": "V3 真实北京案例体块：居住板楼(55×14m/11-18层/间距≥1.2H)科研超高层(中国尊/正大中心级)商业综合体(大悦城级)文化馆(首博级)"}, "geometry": {"type": "Polygon", "coordinates": [[[116.350106977, 39.983174519], [116.350106977, 39.983294317], [116.350797075, 39.983294317], [116.350797075, 39.983174519], [116.350106977, 39.983174519], [116.350106977, 39.983174519]]]}}, {"type": "Feature", "id": "B-058", "properties": {"id": "B-058", "layer": "BUILDING_FOOTPRINT", "source_type": "agent_generated_design", "confidence": "medium", "geometry_role": "design_proposal", "building_type": "residential", "land_use_parent": "LU-006", "height_m_concept": 30, "floors_concept": 10, "status_concept": "new_build", "area_sqm_declared": 784.1, "phase_concept": "phase2_mid", "real_case_ref": "板式住宅·参考北京万柳书院(10层/30m)/统一长60m×14m", "design_note": "V3 真实北京案例体块：居住板楼(55×14m/11-18层/间距≥1.2H)科研超高层(中国尊/正大中心级)商业综合体(大悦城级)文化馆(首博级)"}, "geometry": {"type": "Polygon", "coordinates": [[[116.351061244, 39.983174519], [116.351061244, 39.983294317], [116.351751342, 39.983294317], [116.351751342, 39.983174519], [116.351061244, 39.983174519], [116.351061244, 39.983174519]]]}}, {"type": "Feature", "id": "B-059", "properties": {"id": "B-059", "layer": "BUILDING_FOOTPRINT", "source_type": "agent_generated_design", "confidence": "medium", "geometry_role": "design_proposal", "building_type": "residential", "land_use_parent": "LU-006", "height_m_concept": 30, "floors_concept": 10, "status_concept": "new_build", "area_sqm_declared": 784.1, "phase_concept": "phase2_mid", "real_case_ref": "板式住宅·参考北京万柳书院(10层/30m)/统一长60m×14m", "design_note": "V3 真实北京案例体块：居住板楼(55×14m/11-18层/间距≥1.2H)科研超高层(中国尊/正大中心级)商业综合体(大悦城级)文化馆(首博级)"}, "geometry": {"type": "Polygon", "coordinates": [[[116.352015511, 39.983174519], [116.352015511, 39.983294317], [116.352705609, 39.983294317], [116.352705609, 39.983174519], [116.352015511, 39.983174519], [116.352015511, 39.983174519]]]}}, {"type": "Feature", "id": "B-060", "properties": {"id": "B-060", "layer": "BUILDING_FOOTPRINT", "source_type": "agent_generated_design", "confidence": "medium", "geometry_role": "design_proposal", "building_type": "residential", "land_use_parent": "LU-006", "height_m_concept": 30, "floors_concept": 10, "status_concept": "new_build", "area_sqm_declared": 784.1, "phase_concept": "phase2_mid", "real_case_ref": "板式住宅·参考北京万柳书院(10层/30m)/统一长60m×14m", "design_note": "V3 真实北京案例体块：居住板楼(55×14m/11-18层/间距≥1.2H)科研超高层(中国尊/正大中心级)商业综合体(大悦城级)文化馆(首博级)"}, "geometry": {"type": "Polygon", "coordinates": [[[116.352969778, 39.983174519], [116.352969778, 39.983294317], [116.353659875, 39.983294317], [116.353659875, 39.983174519], [116.352969778, 39.983174519], [116.352969778, 39.983174519]]]}}, {"type": "Feature", "id": "B-061", "properties": {"id": "B-061", "layer": "BUILDING_FOOTPRINT", "source_type": "agent_generated_design", "confidence": "medium", "geometry_role": "design_proposal", "building_type": "residential", "land_use_parent": "LU-006", "height_m_concept": 33, "floors_concept": 11, "status_concept": "new_build", "area_sqm_declared": 784.1, "phase_concept": "phase2_mid", "real_case_ref": "板式住宅·参考北京使馆壹号院(11层/33m)/统一长60m×14m", "design_note": "V3 真实北京案例体块：居住板楼(55×14m/11-18层/间距≥1.2H)科研超高层(中国尊/正大中心级)商业综合体(大悦城级)文化馆(首博级)"}, "geometry": {"type": "Polygon", "coordinates": [[[116.349015308, 39.986609581], [116.349015308, 39.986729379], [116.349705405, 39.986729379], [116.349705405, 39.986609581], [116.349015308, 39.986609581], [116.349015308, 39.986609581]]]}}, {"type": "Feature", "id": "B-062", "properties": {"id": "B-062", "layer": "BUILDING_FOOTPRINT", "source_type": "agent_generated_design", "confidence": "medium", "geometry_role": "design_proposal", "building_type": "residential", "land_use_parent": "LU-006", "height_m_concept": 33, "floors_concept": 11, "status_concept": "new_build", "area_sqm_declared": 784.1, "phase_concept": "phase2_mid", "real_case_ref": "板式住宅·参考北京使馆壹号院(11层/33m)/统一长60m×14m", "design_note": "V3 真实北京案例体块：居住板楼(55×14m/11-18层/间距≥1.2H)科研超高层(中国尊/正大中心级)商业综合体(大悦城级)文化馆(首博级)"}, "geometry": {"type": "Polygon", "coordinates": [[[116.349969574, 39.986609581], [116.349969574, 39.986729379], [116.350659672, 39.986729379], [116.350659672, 39.986609581], [116.349969574, 39.986609581], [116.349969574, 39.986609581]]]}}, {"type": "Feature", "id": "B-063", "properties": {"id": "B-063", "layer": "BUILDING_FOOTPRINT", "source_type": "agent_generated_design", "confidence": "medium", "geometry_role": "design_proposal", "building_type": "residential", "land_use_parent": "LU-006", "height_m_concept": 33, "floors_concept": 11, "status_concept": "new_build", "area_sqm_declared": 784.1, "phase_concept": "phase2_mid", "real_case_ref": "板式住宅·参考北京使馆壹号院(11层/33m)/统一长60m×14m", "design_note": "V3 真实北京案例体块：居住板楼(55×14m/11-18层/间距≥1.2H)科研超高层(中国尊/正大中心级)商业综合体(大悦城级)文化馆(首博级)"}, "geometry": {"type": "Polygon", "coordinates": [[[116.350923841, 39.986609581], [116.350923841, 39.986729379], [116.351613939, 39.986729379], [116.351613939, 39.986609581], [116.350923841, 39.986609581], [116.350923841, 39.986609581]]]}}, {"type": "Feature", "id": "B-064", "properties": {"id": "B-064", "layer": "BUILDING_FOOTPRINT", "source_type": "agent_generated_design", "confidence": "medium", "geometry_role": "design_proposal", "building_type": "residential", "land_use_parent": "LU-006", "height_m_concept": 33, "floors_concept": 11, "status_concept": "new_build", "area_sqm_declared": 784.1, "phase_concept": "phase2_mid", "real_case_ref": "板式住宅·参考北京使馆壹号院(11层/33m)/统一长60m×14m", "design_note": "V3 真实北京案例体块：居住板楼(55×14m/11-18层/间距≥1.2H)科研超高层(中国尊/正大中心级)商业综合体(大悦城级)文化馆(首博级)"}, "geometry": {"type": "Polygon", "coordinates": [[[116.351878108, 39.986609581], [116.351878108, 39.986729379], [116.352568206, 39.986729379], [116.352568206, 39.986609581], [116.351878108, 39.986609581], [116.351878108, 39.986609581]]]}}, {"type": "Feature", "id": "B-065", "properties": {"id": "B-065", "layer": "BUILDING_FOOTPRINT", "source_type": "agent_generated_design", "confidence": "medium", "geometry_role": "design_proposal", "building_type": "residential", "land_use_parent": "LU-006", "height_m_concept": 33, "floors_concept": 11, "status_concept": "new_build", "area_sqm_declared": 784.1, "phase_concept": "phase2_mid", "real_case_ref": "板式住宅·参考北京使馆壹号院(11层/33m)/统一长60m×14m", "design_note": "V3 真实北京案例体块：居住板楼(55×14m/11-18层/间距≥1.2H)科研超高层(中国尊/正大中心级)商业综合体(大悦城级)文化馆(首博级)"}, "geometry": {"type": "Polygon", "coordinates": [[[116.352832375, 39.986609581], [116.352832375, 39.986729379], [116.353522473, 39.986729379], [116.353522473, 39.986609581], [116.352832375, 39.986609581], [116.352832375, 39.986609581]]]}}, {"type": "Feature", "id": "B-066", "properties": {"id": "B-066", "layer": "BUILDING_FOOTPRINT", "source_type": "agent_generated_design", "confidence": "medium", "geometry_role": "design_proposal", "building_type": "residential", "land_use_parent": "LU-006", "height_m_concept": 36, "floors_concept": 12, "status_concept": "new_build", "area_sqm_declared": 784.0, "phase_concept": "phase2_mid", "real_case_ref": "板式住宅·参考北京融创北京壹号院(12层/36m)/统一长60m×14m", "design_note": "V3 真实北京案例体块：居住板楼(55×14m/11-18层/间距≥1.2H)科研超高层(中国尊/正大中心级)商业综合体(大悦城级)文化馆(首博级)"}, "geometry": {"type": "Polygon", "coordinates": [[[116.349357837, 39.990044643], [116.349357837, 39.990164441], [116.350047935, 39.990164441], [116.350047935, 39.990044643], [116.349357837, 39.990044643], [116.349357837, 39.990044643]]]}}, {"type": "Feature", "id": "B-067", "properties": {"id": "B-067", "layer": "BUILDING_FOOTPRINT", "source_type": "agent_generated_design", "confidence": "medium", "geometry_role": "design_proposal", "building_type": "residential", "land_use_parent": "LU-006", "height_m_concept": 36, "floors_concept": 12, "status_concept": "new_build", "area_sqm_declared": 784.0, "phase_concept": "phase2_mid", "real_case_ref": "板式住宅·参考北京融创北京壹号院(12层/36m)/统一长60m×14m", "design_note": "V3 真实北京案例体块：居住板楼(55×14m/11-18层/间距≥1.2H)科研超高层(中国尊/正大中心级)商业综合体(大悦城级)文化馆(首博级)"}, "geometry": {"type": "Polygon", "coordinates": [[[116.350312104, 39.990044643], [116.350312104, 39.990164441], [116.351002201, 39.990164441], [116.351002201, 39.990044643], [116.350312104, 39.990044643], [116.350312104, 39.990044643]]]}}, {"type": "Feature", "id": "B-068", "properties": {"id": "B-068", "layer": "BUILDING_FOOTPRINT", "source_type": "agent_generated_design", "confidence": "medium", "geometry_role": "design_proposal", "building_type": "residential", "land_use_parent": "LU-006", "height_m_concept": 36, "floors_concept": 12, "status_concept": "new_build", "area_sqm_declared": 784.0, "phase_concept": "phase2_mid", "real_case_ref": "板式住宅·参考北京融创北京壹号院(12层/36m)/统一长60m×14m", "design_note": "V3 真实北京案例体块：居住板楼(55×14m/11-18层/间距≥1.2H)科研超高层(中国尊/正大中心级)商业综合体(大悦城级)文化馆(首博级)"}, "geometry": {"type": "Polygon", "coordinates": [[[116.35126637, 39.990044643], [116.35126637, 39.990164441], [116.351956468, 39.990164441], [116.351956468, 39.990044643], [116.35126637, 39.990044643], [116.35126637, 39.990044643]]]}}, {"type": "Feature", "id": "B-069", "properties": {"id": "B-069", "layer": "BUILDING_FOOTPRINT", "source_type": "agent_generated_design", "confidence": "medium", "geometry_role": "design_proposal", "building_type": "residential", "land_use_parent": "LU-006", "height_m_concept": 36, "floors_concept": 12, "status_concept": "new_build", "area_sqm_declared": 784.0, "phase_concept": "phase2_mid", "real_case_ref": "板式住宅·参考北京融创北京壹号院(12层/36m)/统一长60m×14m", "design_note": "V3 真实北京案例体块：居住板楼(55×14m/11-18层/间距≥1.2H)科研超高层(中国尊/正大中心级)商业综合体(大悦城级)文化馆(首博级)"}, "geometry": {"type": "Polygon", "coordinates": [[[116.352220637, 39.990044643], [116.352220637, 39.990164441], [116.352910735, 39.990164441], [116.352910735, 39.990044643], [116.352220637, 39.990044643], [116.352220637, 39.990044643]]]}}, {"type": "Feature", "id": "B-070", "properties": {"id": "B-070", "layer": "BUILDING_FOOTPRINT", "source_type": "agent_generated_design", "confidence": "medium", "geometry_role": "design_proposal", "building_type": "residential", "land_use_parent": "LU-006", "height_m_concept": 39, "floors_concept": 13, "status_concept": "new_build", "area_sqm_declared": 784.0, "phase_concept": "phase2_mid", "real_case_ref": "板式住宅·参考北京融创北京壹号院(13层/39m)/统一长60m×14m", "design_note": "V3 真实北京案例体块：居住板楼(55×14m/11-18层/间距≥1.2H)科研超高层(中国尊/正大中心级)商业综合体(大悦城级)文化馆(首博级)"}, "geometry": {"type": "Polygon", "coordinates": [[[116.348974815, 39.993479705], [116.348974815, 39.993599503], [116.349664913, 39.993599503], [116.349664913, 39.993479705], [116.348974815, 39.993479705], [116.348974815, 39.993479705]]]}}, {"type": "Feature", "id": "B-071", "properties": {"id": "B-071", "layer": "BUILDING_FOOTPRINT", "source_type": "agent_generated_design", "confidence": "medium", "geometry_role": "design_proposal", "building_type": "residential", "land_use_parent": "LU-006", "height_m_concept": 39, "floors_concept": 13, "status_concept": "new_build", "area_sqm_declared": 784.0, "phase_concept": "phase2_mid", "real_case_ref": "板式住宅·参考北京融创北京壹号院(13层/39m)/统一长60m×14m", "design_note": "V3 真实北京案例体块：居住板楼(55×14m/11-18层/间距≥1.2H)科研超高层(中国尊/正大中心级)商业综合体(大悦城级)文化馆(首博级)"}, "geometry": {"type": "Polygon", "coordinates": [[[116.349929082, 39.993479705], [116.349929082, 39.993599503], [116.350619179, 39.993599503], [116.350619179, 39.993479705], [116.349929082, 39.993479705], [116.349929082, 39.993479705]]]}}, {"type": "Feature", "id": "B-072", "properties": {"id": "B-072", "layer": "BUILDING_FOOTPRINT", "source_type": "agent_generated_design", "confidence": "medium", "geometry_role": "design_proposal", "building_type": "residential", "land_use_parent": "LU-006", "height_m_concept": 39, "floors_concept": 13, "status_concept": "new_build", "area_sqm_declared": 784.0, "phase_concept": "phase2_mid", "real_case_ref": "板式住宅·参考北京融创北京壹号院(13层/39m)/统一长60m×14m", "design_note": "V3 真实北京案例体块：居住板楼(55×14m/11-18层/间距≥1.2H)科研超高层(中国尊/正大中心级)商业综合体(大悦城级)文化馆(首博级)"}, "geometry": {"type": "Polygon", "coordinates": [[[116.350883348, 39.993479705], [116.350883348, 39.993599503], [116.351573446, 39.993599503], [116.351573446, 39.993479705], [116.350883348, 39.993479705], [116.350883348, 39.993479705]]]}}, {"type": "Feature", "id": "B-073", "properties": {"id": "B-073", "layer": "BUILDING_FOOTPRINT", "source_type": "agent_generated_design", "confidence": "medium", "geometry_role": "design_proposal", "building_type": "residential", "land_use_parent": "LU-006", "height_m_concept": 39, "floors_concept": 13, "status_concept": "new_build", "area_sqm_declared": 784.0, "phase_concept": "phase2_mid", "real_case_ref": "板式住宅·参考北京融创北京壹号院(13层/39m)/统一长60m×14m", "design_note": "V3 真实北京案例体块：居住板楼(55×14m/11-18层/间距≥1.2H)科研超高层(中国尊/正大中心级)商业综合体(大悦城级)文化馆(首博级)"}, "geometry": {"type": "Polygon", "coordinates": [[[116.351837615, 39.993479705], [116.351837615, 39.993599503], [116.352527713, 39.993599503], [116.352527713, 39.993479705], [116.351837615, 39.993479705], [116.351837615, 39.993479705]]]}}, {"type": "Feature", "id": "B-074", "properties": {"id": "B-074", "layer": "BUILDING_FOOTPRINT", "source_type": "agent_generated_design", "confidence": "medium", "geometry_role": "design_proposal", "building_type": "residential", "land_use_parent": "LU-006", "height_m_concept": 39, "floors_concept": 13, "status_concept": "new_build", "area_sqm_declared": 784.0, "phase_concept": "phase2_mid", "real_case_ref": "板式住宅·参考北京融创北京壹号院(13层/39m)/统一长60m×14m", "design_note": "V3 真实北京案例体块：居住板楼(55×14m/11-18层/间距≥1.2H)科研超高层(中国尊/正大中心级)商业综合体(大悦城级)文化馆(首博级)"}, "geometry": {"type": "Polygon", "coordinates": [[[116.352791882, 39.993479705], [116.352791882, 39.993599503], [116.35348198, 39.993599503], [116.35348198, 39.993479705], [116.352791882, 39.993479705], [116.352791882, 39.993479705]]]}}, {"type": "Feature", "id": "B-075", "properties": {"id": "B-075", "layer": "BUILDING_FOOTPRINT", "source_type": "agent_generated_design", "confidence": "medium", "geometry_role": "design_proposal", "building_type": "residential", "land_use_parent": "LU-006", "height_m_concept": 45, "floors_concept": 15, "status_concept": "new_build", "area_sqm_declared": 784.0, "phase_concept": "phase2_mid", "real_case_ref": "板式住宅·参考北京金茂府(15层/45m)/统一长60m×14m", "design_note": "V3 真实北京案例体块：居住板楼(55×14m/11-18层/间距≥1.2H)科研超高层(中国尊/正大中心级)商业综合体(大悦城级)文化馆(首博级)"}, "geometry": {"type": "Polygon", "coordinates": [[[116.349068926, 39.996914767], [116.349068926, 39.997034565], [116.349759024, 39.997034565], [116.349759024, 39.996914767], [116.349068926, 39.996914767], [116.349068926, 39.996914767]]]}}, {"type": "Feature", "id": "B-076", "properties": {"id": "B-076", "layer": "BUILDING_FOOTPRINT", "source_type": "agent_generated_design", "confidence": "medium", "geometry_role": "design_proposal", "building_type": "residential", "land_use_parent": "LU-006", "height_m_concept": 45, "floors_concept": 15, "status_concept": "new_build", "area_sqm_declared": 784.0, "phase_concept": "phase2_mid", "real_case_ref": "板式住宅·参考北京金茂府(15层/45m)/统一长60m×14m", "design_note": "V3 真实北京案例体块：居住板楼(55×14m/11-18层/间距≥1.2H)科研超高层(中国尊/正大中心级)商业综合体(大悦城级)文化馆(首博级)"}, "geometry": {"type": "Polygon", "coordinates": [[[116.350023193, 39.996914767], [116.350023193, 39.997034565], [116.350713291, 39.997034565], [116.350713291, 39.996914767], [116.350023193, 39.996914767], [116.350023193, 39.996914767]]]}}, {"type": "Feature", "id": "B-077", "properties": {"id": "B-077", "layer": "BUILDING_FOOTPRINT", "source_type": "agent_generated_design", "confidence": "medium", "geometry_role": "design_proposal", "building_type": "residential", "land_use_parent": "LU-006", "height_m_concept": 45, "floors_concept": 15, "status_concept": "new_build", "area_sqm_declared": 784.0, "phase_concept": "phase2_mid", "real_case_ref": "板式住宅·参考北京金茂府(15层/45m)/统一长60m×14m", "design_note": "V3 真实北京案例体块：居住板楼(55×14m/11-18层/间距≥1.2H)科研超高层(中国尊/正大中心级)商业综合体(大悦城级)文化馆(首博级)"}, "geometry": {"type": "Polygon", "coordinates": [[[116.35097746, 39.996914767], [116.35097746, 39.997034565], [116.351667558, 39.997034565], [116.351667558, 39.996914767], [116.35097746, 39.996914767], [116.35097746, 39.996914767]]]}}, {"type": "Feature", "id": "B-078", "properties": {"id": "B-078", "layer": "BUILDING_FOOTPRINT", "source_type": "agent_generated_design", "confidence": "medium", "geometry_role": "design_proposal", "building_type": "residential", "land_use_parent": "LU-006", "height_m_concept": 45, "floors_concept": 15, "status_concept": "new_build", "area_sqm_declared": 784.0, "phase_concept": "phase2_mid", "real_case_ref": "板式住宅·参考北京金茂府(15层/45m)/统一长60m×14m", "design_note": "V3 真实北京案例体块：居住板楼(55×14m/11-18层/间距≥1.2H)科研超高层(中国尊/正大中心级)商业综合体(大悦城级)文化馆(首博级)"}, "geometry": {"type": "Polygon", "coordinates": [[[116.351931727, 39.996914767], [116.351931727, 39.997034565], [116.352621825, 39.997034565], [116.352621825, 39.996914767], [116.351931727, 39.996914767], [116.351931727, 39.996914767]]]}}, {"type": "Feature", "id": "B-079", "properties": {"id": "B-079", "layer": "BUILDING_FOOTPRINT", "source_type": "agent_generated_design", "confidence": "medium", "geometry_role": "design_proposal", "building_type": "residential", "land_use_parent": "LU-006", "height_m_concept": 45, "floors_concept": 15, "status_concept": "new_build", "area_sqm_declared": 784.0, "phase_concept": "phase2_mid", "real_case_ref": "板式住宅·参考北京金茂府(15层/45m)/统一长60m×14m", "design_note": "V3 真实北京案例体块：居住板楼(55×14m/11-18层/间距≥1.2H)科研超高层(中国尊/正大中心级)商业综合体(大悦城级)文化馆(首博级)"}, "geometry": {"type": "Polygon", "coordinates": [[[116.352885994, 39.996914767], [116.352885994, 39.997034565], [116.353576091, 39.997034565], [116.353576091, 39.996914767], [116.352885994, 39.996914767], [116.352885994, 39.996914767]]]}}, {"type": "Feature", "id": "B-080", "properties": {"id": "B-080", "layer": "BUILDING_FOOTPRINT", "source_type": "agent_generated_design", "confidence": "medium", "geometry_role": "design_proposal", "building_type": "mixed_use", "land_use_parent": "LU-007", "height_m_concept": 36, "floors_concept": 8, "status_concept": "new_build", "area_sqm_declared": 14695.9, "phase_concept": "phase2_mid", "real_case_ref": "商业综合体·参考北京清河万象汇(8层/36m/大基底)", "design_note": "V3 真实北京案例体块：居住板楼(55×14m/11-18层/间距≥1.2H)科研超高层(中国尊/正大中心级)商业综合体(大悦城级)文化馆(首博级)"}, "geometry": {"type": "Polygon", "coordinates": [[[116.340795112, 39.971167835], [116.340795112, 39.972197381], [116.342299828, 39.972197381], [116.342299828, 39.971167835], [116.340795112, 39.971167835], [116.340795112, 39.971167835]]]}}, {"type": "Feature", "id": "B-081", "properties": {"id": "B-081", "layer": "BUILDING_FOOTPRINT", "source_type": "agent_generated_design", "confidence": "medium", "geometry_role": "design_proposal", "building_type": "mixed_use", "land_use_parent": "LU-007", "height_m_concept": 24, "floors_concept": 5, "status_concept": "new_build", "area_sqm_declared": 8618.7, "phase_concept": "phase2_mid", "real_case_ref": "商业副楼·参考北京西红门荟聚式郊区商业(3-5层/20-24m)", "design_note": "V3 真实北京案例体块：居住板楼(55×14m/11-18层/间距≥1.2H)科研超高层(中国尊/正大中心级)商业综合体(大悦城级)文化馆(首博级)"}, "geometry": {"type": "Polygon", "coordinates": [[[116.343447275, 39.9720266], [116.343447275, 39.972740887], [116.344719243, 39.972740887], [116.344719243, 39.9720266], [116.343447275, 39.9720266], [116.343447275, 39.9720266]]]}}, {"type": "Feature", "id": "B-082", "properties": {"id": "B-082", "layer": "BUILDING_FOOTPRINT", "source_type": "agent_generated_design", "confidence": "medium", "geometry_role": "design_proposal", "building_type": "mixed_use", "land_use_parent": "LU-007", "height_m_concept": 12, "floors_concept": 3, "status_concept": "new_build", "area_sqm_declared": 10760.0, "phase_concept": "phase2_mid", "real_case_ref": "底商裙房·参考北京商业街区裙房(≤3层/12m)", "design_note": "V3 真实北京案例体块：居住板楼(55×14m/11-18层/间距≥1.2H)科研超高层(中国尊/正大中心级)商业综合体(大悦城级)文化馆(首博级)"}, "geometry": {"type": "Polygon", "coordinates": [[[116.340795112, 39.978610469], [116.340795112, 39.979099571], [116.343114446, 39.979099571], [116.343114446, 39.978610469], [116.340795112, 39.978610469], [116.340795112, 39.978610469]]]}}, {"type": "Feature", "id": "B-083", "properties": {"id": "B-083", "layer": "BUILDING_FOOTPRINT", "source_type": "agent_generated_design", "confidence": "medium", "geometry_role": "design_proposal", "building_type": "mixed_use", "land_use_parent": "LU-008", "height_m_concept": 36, "floors_concept": 8, "status_concept": "new_build", "area_sqm_declared": 14695.9, "phase_concept": "phase2_mid", "real_case_ref": "商业综合体·参考北京清河万象汇(8层/36m/大基底)", "design_note": "V3 真实北京案例体块：居住板楼(55×14m/11-18层/间距≥1.2H)科研超高层(中国尊/正大中心级)商业综合体(大悦城级)文化馆(首博级)"}, "geometry": {"type": "Polygon", "coordinates": [[[116.349880811, 39.971167835], [116.349880811, 39.972197381], [116.351385527, 39.972197381], [116.351385527, 39.971167835], [116.349880811, 39.971167835], [116.349880811, 39.971167835]]]}}, {"type": "Feature", "id": "B-084", "properties": {"id": "B-084", "layer": "BUILDING_FOOTPRINT", "source_type": "agent_generated_design", "confidence": "medium", "geometry_role": "design_proposal", "building_type": "mixed_use", "land_use_parent": "LU-008", "height_m_concept": 24, "floors_concept": 5, "status_concept": "new_build", "area_sqm_declared": 8618.6, "phase_concept": "phase2_mid", "real_case_ref": "商业副楼·参考北京西红门荟聚式郊区商业(3-5层/20-24m)", "design_note": "V3 真实北京案例体块：居住板楼(55×14m/11-18层/间距≥1.2H)科研超高层(中国尊/正大中心级)商业综合体(大悦城级)文化馆(首博级)"}, "geometry": {"type": "Polygon", "coordinates": [[[116.352490697, 39.9720266], [116.352490697, 39.972740887], [116.353762664, 39.972740887], [116.353762664, 39.9720266], [116.352490697, 39.9720266], [116.352490697, 39.9720266]]]}}, {"type": "Feature", "id": "B-085", "properties": {"id": "B-085", "layer": "BUILDING_FOOTPRINT", "source_type": "agent_generated_design", "confidence": "medium", "geometry_role": "design_proposal", "building_type": "mixed_use", "land_use_parent": "LU-008", "height_m_concept": 12, "floors_concept": 3, "status_concept": "new_build", "area_sqm_declared": 10760.0, "phase_concept": "phase2_mid", "real_case_ref": "底商裙房·参考北京商业街区裙房(≤3层/12m)", "design_note": "V3 真实北京案例体块：居住板楼(55×14m/11-18层/间距≥1.2H)科研超高层(中国尊/正大中心级)商业综合体(大悦城级)文化馆(首博级)"}, "geometry": {"type": "Polygon", "coordinates": [[[116.349880811, 39.978610469], [116.349880811, 39.979099571], [116.352200145, 39.979099571], [116.352200145, 39.978610469], [116.349880811, 39.978610469], [116.349880811, 39.978610469]]]}}, {"type": "Feature", "id": "B-086", "properties": {"id": "B-086", "layer": "BUILDING_FOOTPRINT", "source_type": "agent_generated_design", "confidence": "medium", "geometry_role": "design_proposal", "building_type": "mixed_use", "land_use_parent": "LU-009", "height_m_concept": 36, "floors_concept": 8, "status_concept": "new_build", "area_sqm_declared": 14699.0, "phase_concept": "phase3_far", "real_case_ref": "商业综合体·参考北京清河万象汇(8层/36m/大基底)", "design_note": "V3 真实北京案例体块：居住板楼(55×14m/11-18层/间距≥1.2H)科研超高层(中国尊/正大中心级)商业综合体(大悦城级)文化馆(首博级)"}, "geometry": {"type": "Polygon", "coordinates": [[[116.34081867, 39.956584854], [116.34081867, 39.9576144], [116.342323386, 39.9576144], [116.342323386, 39.956584854], [116.34081867, 39.956584854], [116.34081867, 39.956584854]]]}}, {"type": "Feature", "id": "B-087", "properties": {"id": "B-087", "layer": "BUILDING_FOOTPRINT", "source_type": "agent_generated_design", "confidence": "medium", "geometry_role": "design_proposal", "building_type": "mixed_use", "land_use_parent": "LU-009", "height_m_concept": 24, "floors_concept": 5, "status_concept": "new_build", "area_sqm_declared": 8620.5, "phase_concept": "phase3_far", "real_case_ref": "商业副楼·参考北京西红门荟聚式郊区商业(3-5层/20-24m)", "design_note": "V3 真实北京案例体块：居住板楼(55×14m/11-18层/间距≥1.2H)科研超高层(中国尊/正大中心级)商业综合体(大悦城级)文化馆(首博级)"}, "geometry": {"type": "Polygon", "coordinates": [[[116.343458916, 39.95744362], [116.343458916, 39.958157906], [116.344730884, 39.958157906], [116.344730884, 39.95744362], [116.343458916, 39.95744362], [116.343458916, 39.95744362]]]}}, {"type": "Feature", "id": "B-088", "properties": {"id": "B-088", "layer": "BUILDING_FOOTPRINT", "source_type": "agent_generated_design", "confidence": "medium", "geometry_role": "design_proposal", "building_type": "mixed_use", "land_use_parent": "LU-009", "height_m_concept": 12, "floors_concept": 3, "status_concept": "new_build", "area_sqm_declared": 10762.3, "phase_concept": "phase3_far", "real_case_ref": "底商裙房·参考北京商业街区裙房(≤3层/12m)", "design_note": "V3 真实北京案例体块：居住板楼(55×14m/11-18层/间距≥1.2H)科研超高层(中国尊/正大中心级)商业综合体(大悦城级)文化馆(首博级)"}, "geometry": {"type": "Polygon", "coordinates": [[[116.34081867, 39.964027489], [116.34081867, 39.96451659], [116.343138004, 39.96451659], [116.343138004, 39.964027489], [116.34081867, 39.964027489], [116.34081867, 39.964027489]]]}}, {"type": "Feature", "id": "B-089", "properties": {"id": "B-089", "layer": "BUILDING_FOOTPRINT", "source_type": "agent_generated_design", "confidence": "medium", "geometry_role": "design_proposal", "building_type": "mixed_use", "land_use_parent": "LU-010", "height_m_concept": 36, "floors_concept": 8, "status_concept": "new_build", "area_sqm_declared": 14699.0, "phase_concept": "phase3_far", "real_case_ref": "商业综合体·参考北京清河万象汇(8层/36m/大基底)", "design_note": "V3 真实北京案例体块：居住板楼(55×14m/11-18层/间距≥1.2H)科研超高层(中国尊/正大中心级)商业综合体(大悦城级)文化馆(首博级)"}, "geometry": {"type": "Polygon", "coordinates": [[[116.349895559, 39.956584854], [116.349895559, 39.9576144], [116.351400275, 39.9576144], [116.351400275, 39.956584854], [116.349895559, 39.956584854], [116.349895559, 39.956584854]]]}}, {"type": "Feature", "id": "B-090", "properties": {"id": "B-090", "layer": "BUILDING_FOOTPRINT", "source_type": "agent_generated_design", "confidence": "medium", "geometry_role": "design_proposal", "building_type": "mixed_use", "land_use_parent": "LU-010", "height_m_concept": 24, "floors_concept": 5, "status_concept": "new_build", "area_sqm_declared": 8620.5, "phase_concept": "phase3_far", "real_case_ref": "商业副楼·参考北京西红门荟聚式郊区商业(3-5层/20-24m)", "design_note": "V3 真实北京案例体块：居住板楼(55×14m/11-18层/间距≥1.2H)科研超高层(中国尊/正大中心级)商业综合体(大悦城级)文化馆(首博级)"}, "geometry": {"type": "Polygon", "coordinates": [[[116.352547722, 39.95744362], [116.352547722, 39.958157906], [116.35381969, 39.958157906], [116.35381969, 39.95744362], [116.352547722, 39.95744362], [116.352547722, 39.95744362]]]}}, {"type": "Feature", "id": "B-091", "properties": {"id": "B-091", "layer": "BUILDING_FOOTPRINT", "source_type": "agent_generated_design", "confidence": "medium", "geometry_role": "design_proposal", "building_type": "mixed_use", "land_use_parent": "LU-010", "height_m_concept": 12, "floors_concept": 3, "status_concept": "new_build", "area_sqm_declared": 10762.3, "phase_concept": "phase3_far", "real_case_ref": "底商裙房·参考北京商业街区裙房(≤3层/12m)", "design_note": "V3 真实北京案例体块：居住板楼(55×14m/11-18层/间距≥1.2H)科研超高层(中国尊/正大中心级)商业综合体(大悦城级)文化馆(首博级)"}, "geometry": {"type": "Polygon", "coordinates": [[[116.349895559, 39.964027489], [116.349895559, 39.96451659], [116.352214893, 39.96451659], [116.352214893, 39.964027489], [116.349895559, 39.964027489], [116.349895559, 39.964027489]]]}}, {"type": "Feature", "id": "B-092", "properties": {"id": "B-092", "layer": "BUILDING_FOOTPRINT", "source_type": "agent_generated_design", "confidence": "medium", "geometry_role": "design_proposal", "building_type": "ai_r_and_d", "land_use_parent": "LU-011", "height_m_concept": 80, "floors_concept": 20, "status_concept": "new_build", "area_sqm_declared": 5491.8, "phase_concept": "phase3_far", "real_case_ref": "大基底写字楼·参考北京中国尊级·底部78m见方/单层~3500㎡·社区级缩尺(80m/20层/层高4.0m)", "design_note": "V3 真实北京案例体块：居住板楼(55×14m/11-18层/间距≥1.2H)科研超高层(中国尊/正大中心级)商业综合体(大悦城级)文化馆(首博级)"}, "geometry": {"type": "Polygon", "coordinates": [[[116.341220341, 39.94142558], [116.341220341, 39.94209483], [116.342085, 39.94209483], [116.342085, 39.94142558], [116.341220341, 39.94142558], [116.341220341, 39.94142558]]]}}, {"type": "Feature", "id": "B-093", "properties": {"id": "B-093", "layer": "BUILDING_FOOTPRINT", "source_type": "agent_generated_design", "confidence": "medium", "geometry_role": "design_proposal", "building_type": "ai_r_and_d", "land_use_parent": "LU-011", "height_m_concept": 70, "floors_concept": 18, "status_concept": "new_build", "area_sqm_declared": 4777.5, "phase_concept": "phase3_far", "real_case_ref": "大基底写字楼·参考北京正大中心级·50m见方/单层~2500㎡·放大版(70m/18层/层高3.9m)", "design_note": "V3 真实北京案例体块：居住板楼(55×14m/11-18层/间距≥1.2H)科研超高层(中国尊/正大中心级)商业综合体(大悦城级)文化馆(首博级)"}, "geometry": {"type": "Polygon", "coordinates": [[[116.34351435, 39.941998271], [116.34351435, 39.942622483], [116.344320822, 39.942622483], [116.344320822, 39.941998271], [116.34351435, 39.941998271], [116.34351435, 39.941998271]]]}}, {"type": "Feature", "id": "B-094", "properties": {"id": "B-094", "layer": "BUILDING_FOOTPRINT", "source_type": "agent_generated_design", "confidence": "medium", "geometry_role": "design_proposal", "building_type": "ai_r_and_d", "land_use_parent": "LU-011", "height_m_concept": 60, "floors_concept": 15, "status_concept": "new_build", "area_sqm_declared": 5056.8, "phase_concept": "phase3_far", "real_case_ref": "大基底写字楼·参考北京国贸三期级·48×50m/单层~2300㎡·放大版(60m/15层/层高4.0m)", "design_note": "V3 真实北京案例体块：居住板楼(55×14m/11-18层/间距≥1.2H)科研超高层(中国尊/正大中心级)商业综合体(大悦城级)文化馆(首博级)"}, "geometry": {"type": "Polygon", "coordinates": [[[116.343743751, 39.948297866], [116.343743751, 39.948940094], [116.344573498, 39.948940094], [116.344573498, 39.948297866], [116.343743751, 39.948297866], [116.343743751, 39.948297866]]]}}, {"type": "Feature", "id": "B-095", "properties": {"id": "B-095", "layer": "BUILDING_FOOTPRINT", "source_type": "agent_generated_design", "confidence": "medium", "geometry_role": "design_proposal", "building_type": "ai_r_and_d", "land_use_parent": "LU-011", "height_m_concept": 60, "floors_concept": 15, "status_concept": "new_build", "area_sqm_declared": 4112.8, "phase_concept": "phase3_far", "real_case_ref": "大基底写字楼·参考北京CBD核心区级·55-60m见方/单层~3000㎡(60m/15层/层高4.0m)", "design_note": "V3 真实北京案例体块：居住板楼(55×14m/11-18层/间距≥1.2H)科研超高层(中国尊/正大中心级)商业综合体(大悦城级)文化馆(首博级)"}, "geometry": {"type": "Polygon", "coordinates": [[[116.341335041, 39.945148068], [116.341335041, 39.945727244], [116.342083326, 39.945727244], [116.342083326, 39.945148068], [116.341335041, 39.945148068], [116.341335041, 39.945148068]]]}}, {"type": "Feature", "id": "B-096", "properties": {"id": "B-096", "layer": "BUILDING_FOOTPRINT", "source_type": "agent_generated_design", "confidence": "medium", "geometry_role": "design_proposal", "building_type": "ai_r_and_d", "land_use_parent": "LU-011", "height_m_concept": 54, "floors_concept": 14, "status_concept": "new_build", "area_sqm_declared": 3737.7, "phase_concept": "phase3_far", "real_case_ref": "大基底写字楼·参考北京上地地标级·单层~3800㎡(54m/14层/层高3.9m)", "design_note": "V3 真实北京案例体块：居住板楼(55×14m/11-18层/间距≥1.2H)科研超高层(中国尊/正大中心级)商业综合体(大悦城级)文化馆(首博级)"}, "geometry": {"type": "Polygon", "coordinates": [[[116.343457, 39.950874973], [116.343457, 39.951427127], [116.344170373, 39.951427127], [116.344170373, 39.950874973], [116.343457, 39.950874973], [116.343457, 39.950874973]]]}}, {"type": "Feature", "id": "B-097", "properties": {"id": "B-097", "layer": "BUILDING_FOOTPRINT", "source_type": "agent_generated_design", "confidence": "medium", "geometry_role": "design_proposal", "building_type": "ai_r_and_d", "land_use_parent": "LU-011", "height_m_concept": 54, "floors_concept": 14, "status_concept": "new_build", "area_sqm_declared": 3498.3, "phase_concept": "phase3_far", "real_case_ref": "大基底写字楼·参考北京软件园地标级·单层~3600㎡(54m/14层/层高3.9m)", "design_note": "V3 真实北京案例体块：居住板楼(55×14m/11-18层/间距≥1.2H)科研超高层(中国尊/正大中心级)商业综合体(大悦城级)文化馆(首博级)"}, "geometry": {"type": "Polygon", "coordinates": [[[116.342367346, 39.940566544], [116.342367346, 39.941100683], [116.343057443, 39.941100683], [116.343057443, 39.940566544], [116.342367346, 39.940566544], [116.342367346, 39.940566544]]]}}, {"type": "Feature", "id": "B-098", "properties": {"id": "B-098", "layer": "BUILDING_FOOTPRINT", "source_type": "agent_generated_design", "confidence": "medium", "geometry_role": "design_proposal", "building_type": "ai_r_and_d", "land_use_parent": "LU-011", "height_m_concept": 48, "floors_concept": 12, "status_concept": "new_build", "area_sqm_declared": 3266.1, "phase_concept": "phase3_far", "real_case_ref": "大基底写字楼·参考北京科技园级·单层~3400㎡(48m/12层/层高4.0m)", "design_note": "V3 真实北京案例体块：居住板楼(55×14m/11-18层/间距≥1.2H)科研超高层(中国尊/正大中心级)商业综合体(大悦城级)文化馆(首博级)"}, "geometry": {"type": "Polygon", "coordinates": [[[116.342309995, 39.944002687], [116.342309995, 39.944518811], [116.342976818, 39.944518811], [116.342976818, 39.944002687], [116.342309995, 39.944002687], [116.342309995, 39.944002687]]]}}, {"type": "Feature", "id": "B-099", "properties": {"id": "B-099", "layer": "BUILDING_FOOTPRINT", "source_type": "agent_generated_design", "confidence": "medium", "geometry_role": "design_proposal", "building_type": "ai_r_and_d", "land_use_parent": "LU-011", "height_m_concept": 48, "floors_concept": 12, "status_concept": "new_build", "area_sqm_declared": 3266.0, "phase_concept": "phase3_far", "real_case_ref": "大基底写字楼·参考北京科技园级·单层~3400㎡(48m/12层/层高4.0m)", "design_note": "V3 真实北京案例体块：居住板楼(55×14m/11-18层/间距≥1.2H)科研超高层(中国尊/正大中心级)商业综合体(大悦城级)文化馆(首博级)"}, "geometry": {"type": "Polygon", "coordinates": [[[116.344776056, 39.946293449], [116.344776056, 39.946809573], [116.345442879, 39.946809573], [116.345442879, 39.946293449], [116.344776056, 39.946293449], [116.344776056, 39.946293449]]]}}, {"type": "Feature", "id": "B-100", "properties": {"id": "B-100", "layer": "BUILDING_FOOTPRINT", "source_type": "agent_generated_design", "confidence": "medium", "geometry_role": "design_proposal", "building_type": "ai_r_and_d", "land_use_parent": "LU-011", "height_m_concept": 45, "floors_concept": 11, "status_concept": "new_build", "area_sqm_declared": 3041.8, "phase_concept": "phase3_far", "real_case_ref": "大基底写字楼·参考北京园区办公级·单层~3100㎡(45m/11层/层高4.1m)", "design_note": "V3 真实北京案例体块：居住板楼(55×14m/11-18层/间距≥1.2H)科研超高层(中国尊/正大中心级)商业综合体(大悦城级)文化馆(首博级)"}, "geometry": {"type": "Polygon", "coordinates": [[[116.342482046, 39.951734009], [116.342482046, 39.952232118], [116.343125594, 39.952232118], [116.343125594, 39.951734009], [116.342482046, 39.951734009], [116.342482046, 39.951734009]]]}}, {"type": "Feature", "id": "B-101", "properties": {"id": "B-101", "layer": "BUILDING_FOOTPRINT", "source_type": "agent_generated_design", "confidence": "medium", "geometry_role": "design_proposal", "building_type": "ai_r_and_d", "land_use_parent": "LU-011", "height_m_concept": 45, "floors_concept": 11, "status_concept": "new_build", "area_sqm_declared": 3042.2, "phase_concept": "phase3_far", "real_case_ref": "大基底写字楼·参考北京园区办公级·单层~3100㎡(45m/11层/层高4.1m)", "design_note": "V3 真实北京案例体块：居住板楼(55×14m/11-18层/间距≥1.2H)科研超高层(中国尊/正大中心级)商业综合体(大悦城级)文化馆(首博级)"}, "geometry": {"type": "Polygon", "coordinates": [[[116.344890756, 39.941139235], [116.344890756, 39.941637344], [116.345534304, 39.941637344], [116.345534304, 39.941139235], [116.344890756, 39.941139235], [116.344890756, 39.941139235]]]}}, {"type": "Feature", "id": "B-102", "properties": {"id": "B-102", "layer": "BUILDING_FOOTPRINT", "source_type": "agent_generated_design", "confidence": "medium", "geometry_role": "design_proposal", "building_type": "ai_r_and_d", "land_use_parent": "LU-011", "height_m_concept": 12, "floors_concept": 3, "status_concept": "new_build", "area_sqm_declared": 16497.8, "phase_concept": "phase3_far", "real_case_ref": "低层研发裙房·参考北京中关村软件园办公楼(3层/12m/4.0m层高)", "design_note": "V3 真实北京案例体块：居住板楼(55×14m/11-18层/间距≥1.2H)科研超高层(中国尊/正大中心级)商业综合体(大悦城级)文化馆(首博级)"}, "geometry": {"type": "Polygon", "coordinates": [[[116.342023244, 39.939564336], [116.342023244, 39.940188549], [116.344808074, 39.940188549], [116.344808074, 39.939564336], [116.342023244, 39.939564336], [116.342023244, 39.939564336]]]}}, {"type": "Feature", "id": "B-103", "properties": {"id": "B-103", "layer": "BUILDING_FOOTPRINT", "source_type": "agent_generated_design", "confidence": "medium", "geometry_role": "design_proposal", "building_type": "ai_r_and_d", "land_use_parent": "LU-012", "height_m_concept": 80, "floors_concept": 20, "status_concept": "new_build", "area_sqm_declared": 5491.8, "phase_concept": "phase3_far", "real_case_ref": "大基底写字楼·参考北京中国尊级·底部78m见方/单层~3500㎡·社区级缩尺(80m/20层/层高4.0m)", "design_note": "V3 真实北京案例体块：居住板楼(55×14m/11-18层/间距≥1.2H)科研超高层(中国尊/正大中心级)商业综合体(大悦城级)文化馆(首博级)"}, "geometry": {"type": "Polygon", "coordinates": [[[116.349957237, 39.94142558], [116.349957237, 39.94209483], [116.350821896, 39.94209483], [116.350821896, 39.94142558], [116.349957237, 39.94142558], [116.349957237, 39.94142558]]]}}, {"type": "Feature", "id": "B-104", "properties": {"id": "B-104", "layer": "BUILDING_FOOTPRINT", "source_type": "agent_generated_design", "confidence": "medium", "geometry_role": "design_proposal", "building_type": "ai_r_and_d", "land_use_parent": "LU-012", "height_m_concept": 70, "floors_concept": 18, "status_concept": "new_build", "area_sqm_declared": 4777.5, "phase_concept": "phase3_far", "real_case_ref": "大基底写字楼·参考北京正大中心级·50m见方/单层~2500㎡·放大版(70m/18层/层高3.9m)", "design_note": "V3 真实北京案例体块：居住板楼(55×14m/11-18层/间距≥1.2H)科研超高层(中国尊/正大中心级)商业综合体(大悦城级)文化馆(首博级)"}, "geometry": {"type": "Polygon", "coordinates": [[[116.352424366, 39.941998271], [116.352424366, 39.942622483], [116.353230838, 39.942622483], [116.353230838, 39.941998271], [116.352424366, 39.941998271], [116.352424366, 39.941998271]]]}}, {"type": "Feature", "id": "B-105", "properties": {"id": "B-105", "layer": "BUILDING_FOOTPRINT", "source_type": "agent_generated_design", "confidence": "medium", "geometry_role": "design_proposal", "building_type": "ai_r_and_d", "land_use_parent": "LU-012", "height_m_concept": 60, "floors_concept": 15, "status_concept": "new_build", "area_sqm_declared": 5056.8, "phase_concept": "phase3_far", "real_case_ref": "大基底写字楼·参考北京国贸三期级·48×50m/单层~2300㎡·放大版(60m/15层/层高4.0m)", "design_note": "V3 真实北京案例体块：居住板楼(55×14m/11-18层/间距≥1.2H)科研超高层(中国尊/正大中心级)商业综合体(大悦城级)文化馆(首博级)"}, "geometry": {"type": "Polygon", "coordinates": [[[116.352671079, 39.948297866], [116.352671079, 39.948940094], [116.353500825, 39.948940094], [116.353500825, 39.948297866], [116.352671079, 39.948297866], [116.352671079, 39.948297866]]]}}, {"type": "Feature", "id": "B-106", "properties": {"id": "B-106", "layer": "BUILDING_FOOTPRINT", "source_type": "agent_generated_design", "confidence": "medium", "geometry_role": "design_proposal", "building_type": "ai_r_and_d", "land_use_parent": "LU-012", "height_m_concept": 60, "floors_concept": 15, "status_concept": "new_build", "area_sqm_declared": 4112.8, "phase_concept": "phase3_far", "real_case_ref": "大基底写字楼·参考北京CBD核心区级·55-60m见方/单层~3000㎡(60m/15层/层高4.0m)", "design_note": "V3 真实北京案例体块：居住板楼(55×14m/11-18层/间距≥1.2H)科研超高层(中国尊/正大中心级)商业综合体(大悦城级)文化馆(首博级)"}, "geometry": {"type": "Polygon", "coordinates": [[[116.350080593, 39.945148068], [116.350080593, 39.945727244], [116.350828878, 39.945727244], [116.350828878, 39.945148068], [116.350080593, 39.945148068], [116.350080593, 39.945148068]]]}}, {"type": "Feature", "id": "B-107", "properties": {"id": "B-107", "layer": "BUILDING_FOOTPRINT", "source_type": "agent_generated_design", "confidence": "medium", "geometry_role": "design_proposal", "building_type": "ai_r_and_d", "land_use_parent": "LU-012", "height_m_concept": 54, "floors_concept": 14, "status_concept": "new_build", "area_sqm_declared": 3737.7, "phase_concept": "phase3_far", "real_case_ref": "大基底写字楼·参考北京上地地标级·单层~3800㎡(54m/14层/层高3.9m)", "design_note": "V3 真实北京案例体块：居住板楼(55×14m/11-18层/间距≥1.2H)科研超高层(中国尊/正大中心级)商业综合体(大悦城级)文化馆(首博级)"}, "geometry": {"type": "Polygon", "coordinates": [[[116.352362688, 39.950874973], [116.352362688, 39.951427127], [116.35307606, 39.951427127], [116.35307606, 39.950874973], [116.352362688, 39.950874973], [116.352362688, 39.950874973]]]}}, {"type": "Feature", "id": "B-108", "properties": {"id": "B-108", "layer": "BUILDING_FOOTPRINT", "source_type": "agent_generated_design", "confidence": "medium", "geometry_role": "design_proposal", "building_type": "ai_r_and_d", "land_use_parent": "LU-012", "height_m_concept": 54, "floors_concept": 14, "status_concept": "new_build", "area_sqm_declared": 3498.3, "phase_concept": "phase3_far", "real_case_ref": "大基底写字楼·参考北京软件园地标级·单层~3600㎡(54m/14层/层高3.9m)", "design_note": "V3 真实北京案例体块：居住板楼(55×14m/11-18层/间距≥1.2H)科研超高层(中国尊/正大中心级)商业综合体(大悦城级)文化馆(首博级)"}, "geometry": {"type": "Polygon", "coordinates": [[[116.351190801, 39.940566544], [116.351190801, 39.941100683], [116.351880899, 39.941100683], [116.351880899, 39.940566544], [116.351190801, 39.940566544], [116.351190801, 39.940566544]]]}}, {"type": "Feature", "id": "B-109", "properties": {"id": "B-109", "layer": "BUILDING_FOOTPRINT", "source_type": "agent_generated_design", "confidence": "medium", "geometry_role": "design_proposal", "building_type": "ai_r_and_d", "land_use_parent": "LU-012", "height_m_concept": 48, "floors_concept": 12, "status_concept": "new_build", "area_sqm_declared": 3266.1, "phase_concept": "phase3_far", "real_case_ref": "大基底写字楼·参考北京科技园级·单层~3400㎡(48m/12层/层高4.0m)", "design_note": "V3 真实北京案例体块：居住板楼(55×14m/11-18层/间距≥1.2H)科研超高层(中国尊/正大中心级)商业综合体(大悦城级)文化馆(首博级)"}, "geometry": {"type": "Polygon", "coordinates": [[[116.351129123, 39.944002687], [116.351129123, 39.944518811], [116.351795946, 39.944518811], [116.351795946, 39.944002687], [116.351129123, 39.944002687], [116.351129123, 39.944002687]]]}}, {"type": "Feature", "id": "B-110", "properties": {"id": "B-110", "layer": "BUILDING_FOOTPRINT", "source_type": "agent_generated_design", "confidence": "medium", "geometry_role": "design_proposal", "building_type": "ai_r_and_d", "land_use_parent": "LU-012", "height_m_concept": 48, "floors_concept": 12, "status_concept": "new_build", "area_sqm_declared": 3266.0, "phase_concept": "phase3_far", "real_case_ref": "大基底写字楼·参考北京科技园级·单层~3400㎡(48m/12层/层高4.0m)", "design_note": "V3 真实北京案例体块：居住板楼(55×14m/11-18层/间距≥1.2H)科研超高层(中国尊/正大中心级)商业综合体(大悦城级)文化馆(首博级)"}, "geometry": {"type": "Polygon", "coordinates": [[[116.353781287, 39.946293449], [116.353781287, 39.946809573], [116.35444811, 39.946809573], [116.35444811, 39.946293449], [116.353781287, 39.946293449], [116.353781287, 39.946293449]]]}}, {"type": "Feature", "id": "B-111", "properties": {"id": "B-111", "layer": "BUILDING_FOOTPRINT", "source_type": "agent_generated_design", "confidence": "medium", "geometry_role": "design_proposal", "building_type": "ai_r_and_d", "land_use_parent": "LU-012", "height_m_concept": 45, "floors_concept": 11, "status_concept": "new_build", "area_sqm_declared": 3041.8, "phase_concept": "phase3_far", "real_case_ref": "大基底写字楼·参考北京园区办公级·单层~3100㎡(45m/11层/层高4.1m)", "design_note": "V3 真实北京案例体块：居住板楼(55×14m/11-18层/间距≥1.2H)科研超高层(中国尊/正大中心级)商业综合体(大悦城级)文化馆(首博级)"}, "geometry": {"type": "Polygon", "coordinates": [[[116.351314158, 39.951734009], [116.351314158, 39.952232118], [116.351957706, 39.952232118], [116.351957706, 39.951734009], [116.351314158, 39.951734009], [116.351314158, 39.951734009]]]}}, {"type": "Feature", "id": "B-112", "properties": {"id": "B-112", "layer": "BUILDING_FOOTPRINT", "source_type": "agent_generated_design", "confidence": "medium", "geometry_role": "design_proposal", "building_type": "ai_r_and_d", "land_use_parent": "LU-012", "height_m_concept": 45, "floors_concept": 11, "status_concept": "new_build", "area_sqm_declared": 3042.2, "phase_concept": "phase3_far", "real_case_ref": "大基底写字楼·参考北京园区办公级·单层~3100㎡(45m/11层/层高4.1m)", "design_note": "V3 真实北京案例体块：居住板楼(55×14m/11-18层/间距≥1.2H)科研超高层(中国尊/正大中心级)商业综合体(大悦城级)文化馆(首博级)"}, "geometry": {"type": "Polygon", "coordinates": [[[116.353904643, 39.941139235], [116.353904643, 39.941637344], [116.354548191, 39.941637344], [116.354548191, 39.941139235], [116.353904643, 39.941139235], [116.353904643, 39.941139235]]]}}, {"type": "Feature", "id": "B-113", "properties": {"id": "B-113", "layer": "BUILDING_FOOTPRINT", "source_type": "agent_generated_design", "confidence": "medium", "geometry_role": "design_proposal", "building_type": "ai_r_and_d", "land_use_parent": "LU-012", "height_m_concept": 12, "floors_concept": 3, "status_concept": "new_build", "area_sqm_declared": 16497.8, "phase_concept": "phase3_far", "real_case_ref": "低层研发裙房·参考北京中关村软件园办公楼(3层/12m/4.0m层高)", "design_note": "V3 真实北京案例体块：居住板楼(55×14m/11-18层/间距≥1.2H)科研超高层(中国尊/正大中心级)商业综合体(大悦城级)文化馆(首博级)"}, "geometry": {"type": "Polygon", "coordinates": [[[116.350820732, 39.939564336], [116.350820732, 39.940188549], [116.353605562, 39.940188549], [116.353605562, 39.939564336], [116.350820732, 39.939564336], [116.350820732, 39.939564336]]]}}]}