{"type": "FeatureCollection", "name": "roads", "features": [{"type": "Feature", "id": "ROAD-NS-W", "properties": {"id": "ROAD-NS-W", "layer": "ROAD_CENTERLINE", "road_class": "secondary", "name_zh": "西侧科技服务干路(概念线位)", "source_type": "agent_generated_design", "confidence": "medium", "geometry_role": "design_proposal"}, "geometry": {"type": "LineString", "coordinates": [[116.3410558883133, 39.939000021862746], [116.34024262421595, 39.97498517842378], [116.34216926737629, 40.00600416249362], [116.34320319743742, 40.02642678735311]]}}, {"type": "Feature", "id": "ROAD-SPINE", "properties": {"id": "ROAD-SPINE", "layer": "ROAD_CENTERLINE", "road_class": "greenway", "name_zh": "京张智轨主轴绿道(概念线位)", "source_type": "agent_generated_design", "confidence": "medium", "geometry_role": "design_proposal"}, "geometry": {"type": "LineString", "coordinates": [[116.34801774107073, 39.93900452191923], [116.34718602430853, 40.026449293694554]]}}, {"type": "Feature", "id": "ROAD-NS-E", "properties": {"id": "ROAD-NS-E", "layer": "ROAD_CENTERLINE", "road_class": "secondary", "name_zh": "东侧创新次干路(概念线位)", "source_type": "agent_generated_design", "confidence": "medium", "geometry_role": "design_proposal"}, "geometry": {"type": "LineString", "coordinates": [[116.35065008035222, 39.939019294993734], [116.34982172101923, 40.02646411233496]]}}, {"type": "Feature", "id": "ROAD-XY-1", "properties": {"id": "ROAD-XY-1", "layer": "ROAD_CENTERLINE", "road_class": "greenway", "name_zh": "小月河滨水绿道(概念线位)", "source_type": "agent_generated_design", "confidence": "medium", "geometry_role": "design_proposal"}, "geometry": {"type": "LineString", "coordinates": [[116.35530000717333, 39.9422199256766], [116.3550575981225, 39.96803108330085]]}}, {"type": "Feature", "id": "ROAD-XY-2", "properties": {"id": "ROAD-XY-2", "layer": "ROAD_CENTERLINE", "road_class": "greenway", "name_zh": "小月河滨水绿道(概念线位)", "source_type": "agent_generated_design", "confidence": "medium", "geometry_role": "design_proposal"}, "geometry": {"type": "LineString", "coordinates": [[116.3546235950135, 40.014159455865894], [116.35450740886587, 40.02649030857621]]}}, {"type": "Feature", "id": "ROAD-EW-1", "properties": {"id": "ROAD-EW-1", "layer": "ROAD_CENTERLINE", "road_class": "branch", "name_zh": "大钟寺横路(概念)", "source_type": "agent_generated_design", "confidence": "medium", "geometry_role": "design_proposal"}, "geometry": {"type": "LineString", "coordinates": [[116.34041600675569, 39.94922856954943], [116.35530001582212, 39.94931229553105]]}}, {"type": "Feature", "id": "ROAD-EW-2", "properties": {"id": "ROAD-EW-2", "layer": "ROAD_CENTERLINE", "road_class": "secondary", "name_zh": "学院南路横路(概念)", "source_type": "agent_generated_design", "confidence": "medium", "geometry_role": "design_proposal"}, "geometry": {"type": "LineString", "coordinates": [[116.34007834995212, 39.96138496757554], [116.35530000775738, 39.96147062142595]]}}, {"type": "Feature", "id": "ROAD-EW-3", "properties": {"id": "ROAD-EW-3", "layer": "ROAD_CENTERLINE", "road_class": "branch", "name_zh": "西土城横路(概念)", "source_type": "agent_generated_design", "confidence": "medium", "geometry_role": "design_proposal"}, "geometry": {"type": "LineString", "coordinates": [[116.33981809284808, 39.974892699968095], [116.35450215866123, 39.97497540254453]]}}, {"type": "Feature", "id": "ROAD-EW-4", "properties": {"id": "ROAD-EW-4", "layer": "ROAD_CENTERLINE", "road_class": "secondary", "name_zh": "知春路横路(概念)", "source_type": "agent_generated_design", "confidence": "medium", "geometry_role": "design_proposal"}, "geometry": {"type": "LineString", "coordinates": [[116.34021600407391, 39.98300047929201], [116.3538539747089, 39.983077308625234]]}}, {"type": "Feature", "id": "ROAD-EW-5", "properties": {"id": "ROAD-EW-5", "layer": "ROAD_CENTERLINE", "road_class": "branch", "name_zh": "原点社区横路(概念)", "source_type": "agent_generated_design", "confidence": "medium", "geometry_role": "design_proposal"}, "geometry": {"type": "LineString", "coordinates": [[116.3408669652696, 39.9930910290126], [116.35347318774019, 39.9931620356489]]}}, {"type": "Feature", "id": "ROAD-EW-6", "properties": {"id": "ROAD-EW-6", "layer": "ROAD_CENTERLINE", "road_class": "secondary", "name_zh": "成府路横路(概念)", "source_type": "agent_generated_design", "confidence": "medium", "geometry_role": "design_proposal"}, "geometry": {"type": "LineString", "coordinates": [[116.34155298471767, 40.003722122685396], [116.3540555310412, 40.003792481450404]]}}, {"type": "Feature", "id": "ROAD-EW-7", "properties": {"id": "ROAD-EW-7", "layer": "ROAD_CENTERLINE", "road_class": "branch", "name_zh": "清华东路西口横路(概念)", "source_type": "agent_generated_design", "confidence": "medium", "geometry_role": "design_proposal"}, "geometry": {"type": "LineString", "coordinates": [[116.34175147525237, 40.00705550212105], [116.35423816285955, 40.007125752519514]]}}, {"type": "Feature", "id": "ROAD-EW-8", "properties": {"id": "ROAD-EW-8", "layer": "ROAD_CENTERLINE", "road_class": "secondary", "name_zh": "五道口横路(概念)", "source_type": "agent_generated_design", "confidence": "medium", "geometry_role": "design_proposal"}, "geometry": {"type": "LineString", "coordinates": [[116.34216010508528, 40.01543347425525], [116.35469727926949, 40.01550396530996]]}}, {"type": "Feature", "id": "ROAD-TR-1", "properties": {"id": "ROAD-TR-1", "layer": "ROAD_CENTERLINE", "road_class": "transit_connection", "name_zh": "大钟寺站接驳(概念)", "source_type": "agent_generated_design", "confidence": "medium", "geometry_role": "analysis_helper"}, "geometry": {"type": "LineString", "coordinates": [[116.34355822287458, 39.94654455182322], [116.35174862096395, 39.94659063839482]]}}, {"type": "Feature", "id": "ROAD-TR-2", "properties": {"id": "ROAD-TR-2", "layer": "ROAD_CENTERLINE", "road_class": "transit_connection", "name_zh": "知春路站接驳(概念)", "source_type": "agent_generated_design", "confidence": "medium", "geometry_role": "analysis_helper"}, "geometry": {"type": "LineString", "coordinates": [[116.34315754929509, 39.988420856309794], [116.3513529457134, 39.988467010906774]]}}, {"type": "Feature", "id": "ROAD-TR-3", "properties": {"id": "ROAD-TR-3", "layer": "ROAD_CENTERLINE", "road_class": "transit_connection", "name_zh": "五道口站接驳(概念)", "source_type": "agent_generated_design", "confidence": "medium", "geometry_role": "analysis_helper"}, "geometry": {"type": "LineString", "coordinates": [[116.3428986049049, 40.015437664114295], [116.35109723160588, 40.01548386264214]]}}]}