{
  "type": "FeatureCollection",
  "name": "building_footprints_epoch_rail",
  "features": [
    {
      "type": "Feature",
      "id": "BLDG-001",
      "properties": {
        "id": "BLDG-001",
        "layer": "BUILDING_FOOTPRINT",
        "source_type": "agent_generated_design",
        "confidence": "medium",
        "geometry_role": "design_proposal",
        "building_type": "mixed_use",
        "name_zh": "商业服务业用地（智能消费与商务）建筑",
        "area_sqm_declared": 15867.638
      },
      "geometry": {
        "type": "Polygon",
        "coordinates": [
          [
            [
              116.3504,
              39.9437
            ],
            [
              116.35128,
              39.9437
            ],
            [
              116.35128,
              39.9418
            ],
            [
              116.3504,
              39.9418
            ],
            [
              116.3504,
              39.9437
            ]
          ]
        ]
      }
    },
    {
      "type": "Feature",
      "id": "BLDG-002",
      "properties": {
        "id": "BLDG-002",
        "layer": "BUILDING_FOOTPRINT",
        "source_type": "agent_generated_design",
        "confidence": "medium",
        "geometry_role": "design_proposal",
        "building_type": "retail",
        "name_zh": "商业服务业用地（智能消费与商务）建筑",
        "area_sqm_declared": 15867.634
      },
      "geometry": {
        "type": "Polygon",
        "coordinates": [
          [
            [
              116.35152,
              39.9437
            ],
            [
              116.3524,
              39.9437
            ],
            [
              116.3524,
              39.9418
            ],
            [
              116.35152,
              39.9418
            ],
            [
              116.35152,
              39.9437
            ]
          ]
        ]
      }
    },
    {
      "type": "Feature",
      "id": "BLDG-003",
      "properties": {
        "id": "BLDG-003",
        "layer": "BUILDING_FOOTPRINT",
        "source_type": "agent_generated_design",
        "confidence": "medium",
        "geometry_role": "design_proposal",
        "building_type": "mixed_use",
        "name_zh": "商业服务业用地（智能消费与商务）建筑",
        "area_sqm_declared": 15867.628
      },
      "geometry": {
        "type": "Polygon",
        "coordinates": [
          [
            [
              116.353,
              39.9437
            ],
            [
              116.35388,
              39.9437
            ],
            [
              116.35388,
              39.9418
            ],
            [
              116.353,
              39.9418
            ],
            [
              116.353,
              39.9437
            ]
          ]
        ]
      }
    },
    {
      "type": "Feature",
      "id": "BLDG-004",
      "properties": {
        "id": "BLDG-004",
        "layer": "BUILDING_FOOTPRINT",
        "source_type": "agent_generated_design",
        "confidence": "medium",
        "geometry_role": "design_proposal",
        "building_type": "retail",
        "name_zh": "商业服务业用地（智能消费与商务）建筑",
        "area_sqm_declared": 15867.624
      },
      "geometry": {
        "type": "Polygon",
        "coordinates": [
          [
            [
              116.35412,
              39.9437
            ],
            [
              116.355,
              39.9437
            ],
            [
              116.355,
              39.9418
            ],
            [
              116.35412,
              39.9418
            ],
            [
              116.35412,
              39.9437
            ]
          ]
        ]
      }
    },
    {
      "type": "Feature",
      "id": "BLDG-005",
      "properties": {
        "id": "BLDG-005",
        "layer": "BUILDING_FOOTPRINT",
        "source_type": "agent_generated_design",
        "confidence": "medium",
        "geometry_role": "design_proposal",
        "building_type": "mixed_use",
        "name_zh": "商业服务业用地（智能消费与商务）建筑",
        "area_sqm_declared": 43758.65
      },
      "geometry": {
        "type": "Polygon",
        "coordinates": [
          [
            [
              116.3504,
              39.94954
            ],
            [
              116.35128,
              39.94954
            ],
            [
              116.35128,
              39.944300000000005
            ],
            [
              116.3504,
              39.944300000000005
            ],
            [
              116.3504,
              39.94954
            ]
          ]
        ]
      }
    },
    {
      "type": "Feature",
      "id": "BLDG-006",
      "properties": {
        "id": "BLDG-006",
        "layer": "BUILDING_FOOTPRINT",
        "source_type": "agent_generated_design",
        "confidence": "medium",
        "geometry_role": "design_proposal",
        "building_type": "retail",
        "name_zh": "商业服务业用地（智能消费与商务）建筑",
        "area_sqm_declared": 43758.638
      },
      "geometry": {
        "type": "Polygon",
        "coordinates": [
          [
            [
              116.35152,
              39.94954
            ],
            [
              116.3524,
              39.94954
            ],
            [
              116.3524,
              39.944300000000005
            ],
            [
              116.35152,
              39.944300000000005
            ],
            [
              116.35152,
              39.94954
            ]
          ]
        ]
      }
    },
    {
      "type": "Feature",
      "id": "BLDG-007",
      "properties": {
        "id": "BLDG-007",
        "layer": "BUILDING_FOOTPRINT",
        "source_type": "agent_generated_design",
        "confidence": "medium",
        "geometry_role": "design_proposal",
        "building_type": "mixed_use",
        "name_zh": "商业服务业用地（智能消费与商务）建筑",
        "area_sqm_declared": 43758.623
      },
      "geometry": {
        "type": "Polygon",
        "coordinates": [
          [
            [
              116.353,
              39.94954
            ],
            [
              116.35388,
              39.94954
            ],
            [
              116.35388,
              39.944300000000005
            ],
            [
              116.353,
              39.944300000000005
            ],
            [
              116.353,
              39.94954
            ]
          ]
        ]
      }
    },
    {
      "type": "Feature",
      "id": "BLDG-008",
      "properties": {
        "id": "BLDG-008",
        "layer": "BUILDING_FOOTPRINT",
        "source_type": "agent_generated_design",
        "confidence": "medium",
        "geometry_role": "design_proposal",
        "building_type": "retail",
        "name_zh": "商业服务业用地（智能消费与商务）建筑",
        "area_sqm_declared": 43758.612
      },
      "geometry": {
        "type": "Polygon",
        "coordinates": [
          [
            [
              116.35412,
              39.94954
            ],
            [
              116.355,
              39.94954
            ],
            [
              116.355,
              39.944300000000005
            ],
            [
              116.35412,
              39.944300000000005
            ],
            [
              116.35412,
              39.94954
            ]
          ]
        ]
      }
    },
    {
      "type": "Feature",
      "id": "BLDG-009",
      "properties": {
        "id": "BLDG-009",
        "layer": "BUILDING_FOOTPRINT",
        "source_type": "agent_generated_design",
        "confidence": "medium",
        "geometry_role": "design_proposal",
        "building_type": "mixed_use",
        "name_zh": "商业服务业用地（智能消费与商务）建筑",
        "area_sqm_declared": 38077.032
      },
      "geometry": {
        "type": "Polygon",
        "coordinates": [
          [
            [
              116.3504,
              39.954699999999995
            ],
            [
              116.35128,
              39.954699999999995
            ],
            [
              116.35128,
              39.950140000000005
            ],
            [
              116.3504,
              39.950140000000005
            ],
            [
              116.3504,
              39.954699999999995
            ]
          ]
        ]
      }
    },
    {
      "type": "Feature",
      "id": "BLDG-010",
      "properties": {
        "id": "BLDG-010",
        "layer": "BUILDING_FOOTPRINT",
        "source_type": "agent_generated_design",
        "confidence": "medium",
        "geometry_role": "design_proposal",
        "building_type": "retail",
        "name_zh": "商业服务业用地（智能消费与商务）建筑",
        "area_sqm_declared": 38077.022
      },
      "geometry": {
        "type": "Polygon",
        "coordinates": [
          [
            [
              116.35152,
              39.954699999999995
            ],
            [
              116.3524,
              39.954699999999995
            ],
            [
              116.3524,
              39.950140000000005
            ],
            [
              116.35152,
              39.950140000000005
            ],
            [
              116.35152,
              39.954699999999995
            ]
          ]
        ]
      }
    },
    {
      "type": "Feature",
      "id": "BLDG-011",
      "properties": {
        "id": "BLDG-011",
        "layer": "BUILDING_FOOTPRINT",
        "source_type": "agent_generated_design",
        "confidence": "medium",
        "geometry_role": "design_proposal",
        "building_type": "mixed_use",
        "name_zh": "商业服务业用地（智能消费与商务）建筑",
        "area_sqm_declared": 38077.009
      },
      "geometry": {
        "type": "Polygon",
        "coordinates": [
          [
            [
              116.353,
              39.954699999999995
            ],
            [
              116.35388,
              39.954699999999995
            ],
            [
              116.35388,
              39.950140000000005
            ],
            [
              116.353,
              39.950140000000005
            ],
            [
              116.353,
              39.954699999999995
            ]
          ]
        ]
      }
    },
    {
      "type": "Feature",
      "id": "BLDG-012",
      "properties": {
        "id": "BLDG-012",
        "layer": "BUILDING_FOOTPRINT",
        "source_type": "agent_generated_design",
        "confidence": "medium",
        "geometry_role": "design_proposal",
        "building_type": "retail",
        "name_zh": "商业服务业用地（智能消费与商务）建筑",
        "area_sqm_declared": 38076.999
      },
      "geometry": {
        "type": "Polygon",
        "coordinates": [
          [
            [
              116.35412,
              39.954699999999995
            ],
            [
              116.355,
              39.954699999999995
            ],
            [
              116.355,
              39.950140000000005
            ],
            [
              116.35412,
              39.950140000000005
            ],
            [
              116.35412,
              39.954699999999995
            ]
          ]
        ]
      }
    },
    {
      "type": "Feature",
      "id": "BLDG-013",
      "properties": {
        "id": "BLDG-013",
        "layer": "BUILDING_FOOTPRINT",
        "source_type": "agent_generated_design",
        "confidence": "medium",
        "geometry_role": "design_proposal",
        "building_type": "community_service",
        "name_zh": "医疗卫生用地建筑",
        "area_sqm_declared": 65870.735
      },
      "geometry": {
        "type": "Polygon",
        "coordinates": [
          [
            [
              116.34028284720883,
              39.9647
            ],
            [
              116.34102142360442,
              39.9647
            ],
            [
              116.34102142360442,
              39.9553
            ],
            [
              116.34028284720883,
              39.9553
            ],
            [
              116.34028284720883,
              39.9647
            ]
          ]
        ]
      }
    },
    {
      "type": "Feature",
      "id": "BLDG-014",
      "properties": {
        "id": "BLDG-014",
        "layer": "BUILDING_FOOTPRINT",
        "source_type": "agent_generated_design",
        "confidence": "medium",
        "geometry_role": "design_proposal",
        "building_type": "community_service",
        "name_zh": "医疗卫生用地建筑",
        "area_sqm_declared": 65870.72
      },
      "geometry": {
        "type": "Polygon",
        "coordinates": [
          [
            [
              116.34126142360441,
              39.9647
            ],
            [
              116.342,
              39.9647
            ],
            [
              116.342,
              39.9553
            ],
            [
              116.34126142360441,
              39.9553
            ],
            [
              116.34126142360441,
              39.9647
            ]
          ]
        ]
      }
    },
    {
      "type": "Feature",
      "id": "BLDG-015",
      "properties": {
        "id": "BLDG-015",
        "layer": "BUILDING_FOOTPRINT",
        "source_type": "agent_generated_design",
        "confidence": "medium",
        "geometry_role": "design_proposal",
        "building_type": "community_service",
        "name_zh": "医疗卫生用地建筑",
        "area_sqm_declared": 78483.708
      },
      "geometry": {
        "type": "Polygon",
        "coordinates": [
          [
            [
              116.34259999999999,
              39.9647
            ],
            [
              116.34348,
              39.9647
            ],
            [
              116.34348,
              39.9553
            ],
            [
              116.34259999999999,
              39.9553
            ],
            [
              116.34259999999999,
              39.9647
            ]
          ]
        ]
      }
    },
    {
      "type": "Feature",
      "id": "BLDG-016",
      "properties": {
        "id": "BLDG-016",
        "layer": "BUILDING_FOOTPRINT",
        "source_type": "agent_generated_design",
        "confidence": "medium",
        "geometry_role": "design_proposal",
        "building_type": "community_service",
        "name_zh": "医疗卫生用地建筑",
        "area_sqm_declared": 78483.687
      },
      "geometry": {
        "type": "Polygon",
        "coordinates": [
          [
            [
              116.34371999999999,
              39.9647
            ],
            [
              116.3446,
              39.9647
            ],
            [
              116.3446,
              39.9553
            ],
            [
              116.34371999999999,
              39.9553
            ],
            [
              116.34371999999999,
              39.9647
            ]
          ]
        ]
      }
    },
    {
      "type": "Feature",
      "id": "BLDG-017",
      "properties": {
        "id": "BLDG-017",
        "layer": "BUILDING_FOOTPRINT",
        "source_type": "agent_generated_design",
        "confidence": "medium",
        "geometry_role": "design_proposal",
        "building_type": "residential",
        "name_zh": "居住用地建筑",
        "area_sqm_declared": 78483.564
      },
      "geometry": {
        "type": "Polygon",
        "coordinates": [
          [
            [
              116.3504,
              39.9647
            ],
            [
              116.35128,
              39.9647
            ],
            [
              116.35128,
              39.9553
            ],
            [
              116.3504,
              39.9553
            ],
            [
              116.3504,
              39.9647
            ]
          ]
        ]
      }
    },
    {
      "type": "Feature",
      "id": "BLDG-018",
      "properties": {
        "id": "BLDG-018",
        "layer": "BUILDING_FOOTPRINT",
        "source_type": "agent_generated_design",
        "confidence": "medium",
        "geometry_role": "design_proposal",
        "building_type": "talent_apartment",
        "name_zh": "居住用地建筑",
        "area_sqm_declared": 78483.544
      },
      "geometry": {
        "type": "Polygon",
        "coordinates": [
          [
            [
              116.35152,
              39.9647
            ],
            [
              116.3524,
              39.9647
            ],
            [
              116.3524,
              39.9553
            ],
            [
              116.35152,
              39.9553
            ],
            [
              116.35152,
              39.9647
            ]
          ]
        ]
      }
    },
    {
      "type": "Feature",
      "id": "BLDG-019",
      "properties": {
        "id": "BLDG-019",
        "layer": "BUILDING_FOOTPRINT",
        "source_type": "agent_generated_design",
        "confidence": "medium",
        "geometry_role": "design_proposal",
        "building_type": "residential",
        "name_zh": "居住用地建筑",
        "area_sqm_declared": 78483.517
      },
      "geometry": {
        "type": "Polygon",
        "coordinates": [
          [
            [
              116.353,
              39.9647
            ],
            [
              116.35388,
              39.9647
            ],
            [
              116.35388,
              39.9553
            ],
            [
              116.353,
              39.9553
            ],
            [
              116.353,
              39.9647
            ]
          ]
        ]
      }
    },
    {
      "type": "Feature",
      "id": "BLDG-020",
      "properties": {
        "id": "BLDG-020",
        "layer": "BUILDING_FOOTPRINT",
        "source_type": "agent_generated_design",
        "confidence": "medium",
        "geometry_role": "design_proposal",
        "building_type": "talent_apartment",
        "name_zh": "居住用地建筑",
        "area_sqm_declared": 78483.497
      },
      "geometry": {
        "type": "Polygon",
        "coordinates": [
          [
            [
              116.35412,
              39.9647
            ],
            [
              116.355,
              39.9647
            ],
            [
              116.355,
              39.9553
            ],
            [
              116.35412,
              39.9553
            ],
            [
              116.35412,
              39.9647
            ]
          ]
        ]
      }
    },
    {
      "type": "Feature",
      "id": "BLDG-021",
      "properties": {
        "id": "BLDG-021",
        "layer": "BUILDING_FOOTPRINT",
        "source_type": "agent_generated_design",
        "confidence": "medium",
        "geometry_role": "design_proposal",
        "building_type": "education",
        "name_zh": "教育用地建筑",
        "area_sqm_declared": 95158.639
      },
      "geometry": {
        "type": "Polygon",
        "coordinates": [
          [
            [
              116.34000016116387,
              39.976699999999994
            ],
            [
              116.34088008058194,
              39.976699999999994
            ],
            [
              116.34088008058194,
              39.965300000000006
            ],
            [
              116.34000016116387,
              39.965300000000006
            ],
            [
              116.34000016116387,
              39.976699999999994
            ]
          ]
        ]
      }
    },
    {
      "type": "Feature",
      "id": "BLDG-022",
      "properties": {
        "id": "BLDG-022",
        "layer": "BUILDING_FOOTPRINT",
        "source_type": "agent_generated_design",
        "confidence": "medium",
        "geometry_role": "design_proposal",
        "building_type": "education",
        "name_zh": "教育用地建筑",
        "area_sqm_declared": 95158.614
      },
      "geometry": {
        "type": "Polygon",
        "coordinates": [
          [
            [
              116.34112008058193,
              39.976699999999994
            ],
            [
              116.342,
              39.976699999999994
            ],
            [
              116.342,
              39.965300000000006
            ],
            [
              116.34112008058193,
              39.965300000000006
            ],
            [
              116.34112008058193,
              39.976699999999994
            ]
          ]
        ]
      }
    },
    {
      "type": "Feature",
      "id": "BLDG-023",
      "properties": {
        "id": "BLDG-023",
        "layer": "BUILDING_FOOTPRINT",
        "source_type": "agent_generated_design",
        "confidence": "medium",
        "geometry_role": "design_proposal",
        "building_type": "education",
        "name_zh": "教育用地建筑",
        "area_sqm_declared": 95167.295
      },
      "geometry": {
        "type": "Polygon",
        "coordinates": [
          [
            [
              116.34259999999999,
              39.976699999999994
            ],
            [
              116.34348,
              39.976699999999994
            ],
            [
              116.34348,
              39.965300000000006
            ],
            [
              116.34259999999999,
              39.965300000000006
            ],
            [
              116.34259999999999,
              39.976699999999994
            ]
          ]
        ]
      }
    },
    {
      "type": "Feature",
      "id": "BLDG-024",
      "properties": {
        "id": "BLDG-024",
        "layer": "BUILDING_FOOTPRINT",
        "source_type": "agent_generated_design",
        "confidence": "medium",
        "geometry_role": "design_proposal",
        "building_type": "education",
        "name_zh": "教育用地建筑",
        "area_sqm_declared": 95167.27
      },
      "geometry": {
        "type": "Polygon",
        "coordinates": [
          [
            [
              116.34371999999999,
              39.976699999999994
            ],
            [
              116.3446,
              39.976699999999994
            ],
            [
              116.3446,
              39.965300000000006
            ],
            [
              116.34371999999999,
              39.965300000000006
            ],
            [
              116.34371999999999,
              39.976699999999994
            ]
          ]
        ]
      }
    },
    {
      "type": "Feature",
      "id": "BLDG-025",
      "properties": {
        "id": "BLDG-025",
        "layer": "BUILDING_FOOTPRINT",
        "source_type": "agent_generated_design",
        "confidence": "medium",
        "geometry_role": "design_proposal",
        "building_type": "mixed_use",
        "name_zh": "商业服务业用地（小月河场景服务）建筑",
        "area_sqm_declared": 95167.121
      },
      "geometry": {
        "type": "Polygon",
        "coordinates": [
          [
            [
              116.3504,
              39.976699999999994
            ],
            [
              116.35128,
              39.976699999999994
            ],
            [
              116.35128,
              39.965300000000006
            ],
            [
              116.3504,
              39.965300000000006
            ],
            [
              116.3504,
              39.976699999999994
            ]
          ]
        ]
      }
    },
    {
      "type": "Feature",
      "id": "BLDG-026",
      "properties": {
        "id": "BLDG-026",
        "layer": "BUILDING_FOOTPRINT",
        "source_type": "agent_generated_design",
        "confidence": "medium",
        "geometry_role": "design_proposal",
        "building_type": "retail",
        "name_zh": "商业服务业用地（小月河场景服务）建筑",
        "area_sqm_declared": 95167.096
      },
      "geometry": {
        "type": "Polygon",
        "coordinates": [
          [
            [
              116.35152,
              39.976699999999994
            ],
            [
              116.3524,
              39.976699999999994
            ],
            [
              116.3524,
              39.965300000000006
            ],
            [
              116.35152,
              39.965300000000006
            ],
            [
              116.35152,
              39.976699999999994
            ]
          ]
        ]
      }
    },
    {
      "type": "Feature",
      "id": "BLDG-027",
      "properties": {
        "id": "BLDG-027",
        "layer": "BUILDING_FOOTPRINT",
        "source_type": "agent_generated_design",
        "confidence": "medium",
        "geometry_role": "design_proposal",
        "building_type": "mixed_use",
        "name_zh": "商业服务业用地（小月河场景服务）建筑",
        "area_sqm_declared": 94357.328
      },
      "geometry": {
        "type": "Polygon",
        "coordinates": [
          [
            [
              116.353,
              39.976699999999994
            ],
            [
              116.35387251245933,
              39.976699999999994
            ],
            [
              116.35387251245933,
              39.965300000000006
            ],
            [
              116.353,
              39.965300000000006
            ],
            [
              116.353,
              39.976699999999994
            ]
          ]
        ]
      }
    },
    {
      "type": "Feature",
      "id": "BLDG-028",
      "properties": {
        "id": "BLDG-028",
        "layer": "BUILDING_FOOTPRINT",
        "source_type": "agent_generated_design",
        "confidence": "medium",
        "geometry_role": "design_proposal",
        "building_type": "retail",
        "name_zh": "商业服务业用地（小月河场景服务）建筑",
        "area_sqm_declared": 71492.682
      },
      "geometry": {
        "type": "Polygon",
        "coordinates": [
          [
            [
              116.35411251245932,
              39.965300000000006
            ],
            [
              116.35411251245932,
              39.976699999999994
            ],
            [
              116.354364,
              39.976699999999994
            ],
            [
              116.35498502491866,
              39.96893718851673
            ],
            [
              116.35498502491866,
              39.965300000000006
            ],
            [
              116.35411251245932,
              39.965300000000006
            ]
          ]
        ]
      }
    },
    {
      "type": "Feature",
      "id": "BLDG-029",
      "properties": {
        "id": "BLDG-029",
        "layer": "BUILDING_FOOTPRINT",
        "source_type": "agent_generated_design",
        "confidence": "medium",
        "geometry_role": "design_proposal",
        "building_type": "mixed_use",
        "name_zh": "商业服务业用地（科技服务）建筑",
        "area_sqm_declared": 44731.456
      },
      "geometry": {
        "type": "Polygon",
        "coordinates": [
          [
            [
              116.34095050969104,
              39.9773
            ],
            [
              116.34014101938206,
              39.9773
            ],
            [
              116.34014101938206,
              39.98183580042199
            ],
            [
              116.34022903225807,
              39.9832
            ],
            [
              116.34095050969104,
              39.9832
            ],
            [
              116.34095050969104,
              39.9773
            ]
          ]
        ]
      }
    },
    {
      "type": "Feature",
      "id": "BLDG-030",
      "properties": {
        "id": "BLDG-030",
        "layer": "BUILDING_FOOTPRINT",
        "source_type": "agent_generated_design",
        "confidence": "medium",
        "geometry_role": "design_proposal",
        "building_type": "retail",
        "name_zh": "商业服务业用地（科技服务）建筑",
        "area_sqm_declared": 45300.829
      },
      "geometry": {
        "type": "Polygon",
        "coordinates": [
          [
            [
              116.34119050969103,
              39.9832
            ],
            [
              116.342,
              39.9832
            ],
            [
              116.342,
              39.9773
            ],
            [
              116.34119050969103,
              39.9773
            ],
            [
              116.34119050969103,
              39.9832
            ]
          ]
        ]
      }
    },
    {
      "type": "Feature",
      "id": "BLDG-031",
      "properties": {
        "id": "BLDG-031",
        "layer": "BUILDING_FOOTPRINT",
        "source_type": "agent_generated_design",
        "confidence": "medium",
        "geometry_role": "design_proposal",
        "building_type": "mixed_use",
        "name_zh": "商业服务业用地（科技服务）建筑",
        "area_sqm_declared": 49246.687
      },
      "geometry": {
        "type": "Polygon",
        "coordinates": [
          [
            [
              116.34259999999999,
              39.9832
            ],
            [
              116.34348,
              39.9832
            ],
            [
              116.34348,
              39.9773
            ],
            [
              116.34259999999999,
              39.9773
            ],
            [
              116.34259999999999,
              39.9832
            ]
          ]
        ]
      }
    },
    {
      "type": "Feature",
      "id": "BLDG-032",
      "properties": {
        "id": "BLDG-032",
        "layer": "BUILDING_FOOTPRINT",
        "source_type": "agent_generated_design",
        "confidence": "medium",
        "geometry_role": "design_proposal",
        "building_type": "retail",
        "name_zh": "商业服务业用地（科技服务）建筑",
        "area_sqm_declared": 49246.674
      },
      "geometry": {
        "type": "Polygon",
        "coordinates": [
          [
            [
              116.34371999999999,
              39.9832
            ],
            [
              116.3446,
              39.9832
            ],
            [
              116.3446,
              39.9773
            ],
            [
              116.34371999999999,
              39.9773
            ],
            [
              116.34371999999999,
              39.9832
            ]
          ]
        ]
      }
    },
    {
      "type": "Feature",
      "id": "BLDG-033",
      "properties": {
        "id": "BLDG-033",
        "layer": "BUILDING_FOOTPRINT",
        "source_type": "agent_generated_design",
        "confidence": "medium",
        "geometry_role": "design_proposal",
        "building_type": "education",
        "name_zh": "教育用地（高校创新策源）建筑",
        "area_sqm_declared": 27834.554
      },
      "geometry": {
        "type": "Polygon",
        "coordinates": [
          [
            [
              116.34116018711039,
              39.9838
            ],
            [
              116.34056037422077,
              39.9838
            ],
            [
              116.34056037422077,
              39.988335800422
            ],
            [
              116.34058387096773,
              39.988699999999994
            ],
            [
              116.34116018711039,
              39.988699999999994
            ],
            [
              116.34116018711039,
              39.9838
            ]
          ]
        ]
      }
    },
    {
      "type": "Feature",
      "id": "BLDG-034",
      "properties": {
        "id": "BLDG-034",
        "layer": "BUILDING_FOOTPRINT",
        "source_type": "agent_generated_design",
        "confidence": "medium",
        "geometry_role": "design_proposal",
        "building_type": "education",
        "name_zh": "教育用地（高校创新策源）建筑",
        "area_sqm_declared": 27875.124
      },
      "geometry": {
        "type": "Polygon",
        "coordinates": [
          [
            [
              116.34140018711038,
              39.988699999999994
            ],
            [
              116.342,
              39.988699999999994
            ],
            [
              116.342,
              39.9838
            ],
            [
              116.34140018711038,
              39.9838
            ],
            [
              116.34140018711038,
              39.988699999999994
            ]
          ]
        ]
      }
    },
    {
      "type": "Feature",
      "id": "BLDG-035",
      "properties": {
        "id": "BLDG-035",
        "layer": "BUILDING_FOOTPRINT",
        "source_type": "agent_generated_design",
        "confidence": "medium",
        "geometry_role": "design_proposal",
        "building_type": "education",
        "name_zh": "教育用地（高校创新策源）建筑",
        "area_sqm_declared": 40896.256
      },
      "geometry": {
        "type": "Polygon",
        "coordinates": [
          [
            [
              116.34259999999999,
              39.988699999999994
            ],
            [
              116.34348,
              39.988699999999994
            ],
            [
              116.34348,
              39.9838
            ],
            [
              116.34259999999999,
              39.9838
            ],
            [
              116.34259999999999,
              39.988699999999994
            ]
          ]
        ]
      }
    },
    {
      "type": "Feature",
      "id": "BLDG-036",
      "properties": {
        "id": "BLDG-036",
        "layer": "BUILDING_FOOTPRINT",
        "source_type": "agent_generated_design",
        "confidence": "medium",
        "geometry_role": "design_proposal",
        "building_type": "education",
        "name_zh": "教育用地（高校创新策源）建筑",
        "area_sqm_declared": 40896.245
      },
      "geometry": {
        "type": "Polygon",
        "coordinates": [
          [
            [
              116.34371999999999,
              39.988699999999994
            ],
            [
              116.3446,
              39.988699999999994
            ],
            [
              116.3446,
              39.9838
            ],
            [
              116.34371999999999,
              39.9838
            ],
            [
              116.34371999999999,
              39.988699999999994
            ]
          ]
        ]
      }
    },
    {
      "type": "Feature",
      "id": "BLDG-037",
      "properties": {
        "id": "BLDG-037",
        "layer": "BUILDING_FOOTPRINT",
        "source_type": "agent_generated_design",
        "confidence": "medium",
        "geometry_role": "design_proposal",
        "building_type": "residential",
        "name_zh": "居住用地（人才社区）建筑",
        "area_sqm_declared": 40896.181
      },
      "geometry": {
        "type": "Polygon",
        "coordinates": [
          [
            [
              116.3504,
              39.988699999999994
            ],
            [
              116.35128,
              39.988699999999994
            ],
            [
              116.35128,
              39.9838
            ],
            [
              116.3504,
              39.9838
            ],
            [
              116.3504,
              39.988699999999994
            ]
          ]
        ]
      }
    },
    {
      "type": "Feature",
      "id": "BLDG-038",
      "properties": {
        "id": "BLDG-038",
        "layer": "BUILDING_FOOTPRINT",
        "source_type": "agent_generated_design",
        "confidence": "medium",
        "geometry_role": "design_proposal",
        "building_type": "talent_apartment",
        "name_zh": "居住用地（人才社区）建筑",
        "area_sqm_declared": 40896.17
      },
      "geometry": {
        "type": "Polygon",
        "coordinates": [
          [
            [
              116.35152,
              39.988699999999994
            ],
            [
              116.3524,
              39.988699999999994
            ],
            [
              116.3524,
              39.9838
            ],
            [
              116.35152,
              39.9838
            ],
            [
              116.35152,
              39.988699999999994
            ]
          ]
        ]
      }
    },
    {
      "type": "Feature",
      "id": "BLDG-039",
      "properties": {
        "id": "BLDG-039",
        "layer": "BUILDING_FOOTPRINT",
        "source_type": "agent_generated_design",
        "confidence": "medium",
        "geometry_role": "design_proposal",
        "building_type": "education",
        "name_zh": "教育用地（高校创新策源）建筑",
        "area_sqm_declared": 15622.681
      },
      "geometry": {
        "type": "Polygon",
        "coordinates": [
          [
            [
              116.34091521293045,
              39.993199999999995
            ],
            [
              116.34133760646523,
              39.993199999999995
            ],
            [
              116.34133760646523,
              39.9893
            ],
            [
              116.34091521293045,
              39.9893
            ],
            [
              116.34091521293045,
              39.993199999999995
            ]
          ]
        ]
      }
    },
    {
      "type": "Feature",
      "id": "BLDG-040",
      "properties": {
        "id": "BLDG-040",
        "layer": "BUILDING_FOOTPRINT",
        "source_type": "agent_generated_design",
        "confidence": "medium",
        "geometry_role": "design_proposal",
        "building_type": "education",
        "name_zh": "教育用地（高校创新策源）建筑",
        "area_sqm_declared": 15622.679
      },
      "geometry": {
        "type": "Polygon",
        "coordinates": [
          [
            [
              116.34157760646522,
              39.993199999999995
            ],
            [
              116.342,
              39.993199999999995
            ],
            [
              116.342,
              39.9893
            ],
            [
              116.34157760646522,
              39.9893
            ],
            [
              116.34157760646522,
              39.993199999999995
            ]
          ]
        ]
      }
    },
    {
      "type": "Feature",
      "id": "BLDG-041",
      "properties": {
        "id": "BLDG-041",
        "layer": "BUILDING_FOOTPRINT",
        "source_type": "agent_generated_design",
        "confidence": "medium",
        "geometry_role": "design_proposal",
        "building_type": "education",
        "name_zh": "教育用地（高校创新策源）建筑",
        "area_sqm_declared": 32547.736
      },
      "geometry": {
        "type": "Polygon",
        "coordinates": [
          [
            [
              116.34259999999999,
              39.993199999999995
            ],
            [
              116.34348,
              39.993199999999995
            ],
            [
              116.34348,
              39.9893
            ],
            [
              116.34259999999999,
              39.9893
            ],
            [
              116.34259999999999,
              39.993199999999995
            ]
          ]
        ]
      }
    },
    {
      "type": "Feature",
      "id": "BLDG-042",
      "properties": {
        "id": "BLDG-042",
        "layer": "BUILDING_FOOTPRINT",
        "source_type": "agent_generated_design",
        "confidence": "medium",
        "geometry_role": "design_proposal",
        "building_type": "education",
        "name_zh": "教育用地（高校创新策源）建筑",
        "area_sqm_declared": 32547.727
      },
      "geometry": {
        "type": "Polygon",
        "coordinates": [
          [
            [
              116.34371999999999,
              39.993199999999995
            ],
            [
              116.3446,
              39.993199999999995
            ],
            [
              116.3446,
              39.9893
            ],
            [
              116.34371999999999,
              39.9893
            ],
            [
              116.34371999999999,
              39.993199999999995
            ]
          ]
        ]
      }
    },
    {
      "type": "Feature",
      "id": "BLDG-043",
      "properties": {
        "id": "BLDG-043",
        "layer": "BUILDING_FOOTPRINT",
        "source_type": "agent_generated_design",
        "confidence": "medium",
        "geometry_role": "design_proposal",
        "building_type": "residential",
        "name_zh": "居住用地（人才社区）建筑",
        "area_sqm_declared": 32547.676
      },
      "geometry": {
        "type": "Polygon",
        "coordinates": [
          [
            [
              116.3504,
              39.993199999999995
            ],
            [
              116.35128,
              39.993199999999995
            ],
            [
              116.35128,
              39.9893
            ],
            [
              116.3504,
              39.9893
            ],
            [
              116.3504,
              39.993199999999995
            ]
          ]
        ]
      }
    },
    {
      "type": "Feature",
      "id": "BLDG-044",
      "properties": {
        "id": "BLDG-044",
        "layer": "BUILDING_FOOTPRINT",
        "source_type": "agent_generated_design",
        "confidence": "medium",
        "geometry_role": "design_proposal",
        "building_type": "talent_apartment",
        "name_zh": "居住用地（人才社区）建筑",
        "area_sqm_declared": 32547.668
      },
      "geometry": {
        "type": "Polygon",
        "coordinates": [
          [
            [
              116.35152,
              39.993199999999995
            ],
            [
              116.3524,
              39.993199999999995
            ],
            [
              116.3524,
              39.9893
            ],
            [
              116.35152,
              39.9893
            ],
            [
              116.35152,
              39.993199999999995
            ]
          ]
        ]
      }
    },
    {
      "type": "Feature",
      "id": "BLDG-045",
      "properties": {
        "id": "BLDG-045",
        "layer": "BUILDING_FOOTPRINT",
        "source_type": "agent_generated_design",
        "confidence": "medium",
        "geometry_role": "design_proposal",
        "building_type": "education",
        "name_zh": "教育用地（高校创新策源）建筑",
        "area_sqm_declared": 24200.767
      },
      "geometry": {
        "type": "Polygon",
        "coordinates": [
          [
            [
              116.34259999999999,
              39.9967
            ],
            [
              116.34348,
              39.9967
            ],
            [
              116.34348,
              39.9938
            ],
            [
              116.34259999999999,
              39.9938
            ],
            [
              116.34259999999999,
              39.9967
            ]
          ]
        ]
      }
    },
    {
      "type": "Feature",
      "id": "BLDG-046",
      "properties": {
        "id": "BLDG-046",
        "layer": "BUILDING_FOOTPRINT",
        "source_type": "agent_generated_design",
        "confidence": "medium",
        "geometry_role": "design_proposal",
        "building_type": "education",
        "name_zh": "教育用地（高校创新策源）建筑",
        "area_sqm_declared": 24200.761
      },
      "geometry": {
        "type": "Polygon",
        "coordinates": [
          [
            [
              116.34371999999999,
              39.9967
            ],
            [
              116.3446,
              39.9967
            ],
            [
              116.3446,
              39.9938
            ],
            [
              116.34371999999999,
              39.9938
            ],
            [
              116.34371999999999,
              39.9967
            ]
          ]
        ]
      }
    },
    {
      "type": "Feature",
      "id": "BLDG-047",
      "properties": {
        "id": "BLDG-047",
        "layer": "BUILDING_FOOTPRINT",
        "source_type": "agent_generated_design",
        "confidence": "medium",
        "geometry_role": "design_proposal",
        "building_type": "residential",
        "name_zh": "居住用地（人才社区）建筑",
        "area_sqm_declared": 24200.723
      },
      "geometry": {
        "type": "Polygon",
        "coordinates": [
          [
            [
              116.3504,
              39.9967
            ],
            [
              116.35128,
              39.9967
            ],
            [
              116.35128,
              39.9938
            ],
            [
              116.3504,
              39.9938
            ],
            [
              116.3504,
              39.9967
            ]
          ]
        ]
      }
    },
    {
      "type": "Feature",
      "id": "BLDG-048",
      "properties": {
        "id": "BLDG-048",
        "layer": "BUILDING_FOOTPRINT",
        "source_type": "agent_generated_design",
        "confidence": "medium",
        "geometry_role": "design_proposal",
        "building_type": "talent_apartment",
        "name_zh": "居住用地（人才社区）建筑",
        "area_sqm_declared": 24200.717
      },
      "geometry": {
        "type": "Polygon",
        "coordinates": [
          [
            [
              116.35152,
              39.9967
            ],
            [
              116.3524,
              39.9967
            ],
            [
              116.3524,
              39.9938
            ],
            [
              116.35152,
              39.9938
            ],
            [
              116.35152,
              39.9967
            ]
          ]
        ]
      }
    },
    {
      "type": "Feature",
      "id": "BLDG-049",
      "properties": {
        "id": "BLDG-049",
        "layer": "BUILDING_FOOTPRINT",
        "source_type": "agent_generated_design",
        "confidence": "medium",
        "geometry_role": "design_proposal",
        "building_type": "ai_r_and_d",
        "name_zh": "科研用地（众智园加速区）建筑",
        "area_sqm_declared": 82608.076
      },
      "geometry": {
        "type": "Polygon",
        "coordinates": [
          [
            [
              116.34259999999999,
              40.0072
            ],
            [
              116.34348,
              40.0072
            ],
            [
              116.34348,
              39.9973
            ],
            [
              116.34259999999999,
              39.9973
            ],
            [
              116.34259999999999,
              40.0072
            ]
          ]
        ]
      }
    },
    {
      "type": "Feature",
      "id": "BLDG-050",
      "properties": {
        "id": "BLDG-050",
        "layer": "BUILDING_FOOTPRINT",
        "source_type": "agent_generated_design",
        "confidence": "medium",
        "geometry_role": "design_proposal",
        "building_type": "lab",
        "name_zh": "科研用地（众智园加速区）建筑",
        "area_sqm_declared": 82608.054
      },
      "geometry": {
        "type": "Polygon",
        "coordinates": [
          [
            [
              116.34371999999999,
              40.0072
            ],
            [
              116.3446,
              40.0072
            ],
            [
              116.3446,
              39.9973
            ],
            [
              116.34371999999999,
              39.9973
            ],
            [
              116.34371999999999,
              40.0072
            ]
          ]
        ]
      }
    },
    {
      "type": "Feature",
      "id": "BLDG-051",
      "properties": {
        "id": "BLDG-051",
        "layer": "BUILDING_FOOTPRINT",
        "source_type": "agent_generated_design",
        "confidence": "medium",
        "geometry_role": "design_proposal",
        "building_type": "cultural",
        "name_zh": "文化用地（AI展示与标准治理）建筑",
        "area_sqm_declared": 82607.925
      },
      "geometry": {
        "type": "Polygon",
        "coordinates": [
          [
            [
              116.3504,
              40.0072
            ],
            [
              116.35128,
              40.0072
            ],
            [
              116.35128,
              39.9973
            ],
            [
              116.3504,
              39.9973
            ],
            [
              116.3504,
              40.0072
            ]
          ]
        ]
      }
    },
    {
      "type": "Feature",
      "id": "BLDG-052",
      "properties": {
        "id": "BLDG-052",
        "layer": "BUILDING_FOOTPRINT",
        "source_type": "agent_generated_design",
        "confidence": "medium",
        "geometry_role": "design_proposal",
        "building_type": "cultural",
        "name_zh": "文化用地（AI展示与标准治理）建筑",
        "area_sqm_declared": 82607.903
      },
      "geometry": {
        "type": "Polygon",
        "coordinates": [
          [
            [
              116.35152,
              40.0072
            ],
            [
              116.3524,
              40.0072
            ],
            [
              116.3524,
              39.9973
            ],
            [
              116.35152,
              39.9973
            ],
            [
              116.35152,
              40.0072
            ]
          ]
        ]
      }
    },
    {
      "type": "Feature",
      "id": "BLDG-053",
      "properties": {
        "id": "BLDG-053",
        "layer": "BUILDING_FOOTPRINT",
        "source_type": "agent_generated_design",
        "confidence": "medium",
        "geometry_role": "design_proposal",
        "building_type": "ai_r_and_d",
        "name_zh": "科研用地（众智园加速区）建筑",
        "area_sqm_declared": 40882.109
      },
      "geometry": {
        "type": "Polygon",
        "coordinates": [
          [
            [
              116.34259999999999,
              40.012699999999995
            ],
            [
              116.34348,
              40.012699999999995
            ],
            [
              116.34348,
              40.0078
            ],
            [
              116.34259999999999,
              40.0078
            ],
            [
              116.34259999999999,
              40.012699999999995
            ]
          ]
        ]
      }
    },
    {
      "type": "Feature",
      "id": "BLDG-054",
      "properties": {
        "id": "BLDG-054",
        "layer": "BUILDING_FOOTPRINT",
        "source_type": "agent_generated_design",
        "confidence": "medium",
        "geometry_role": "design_proposal",
        "building_type": "lab",
        "name_zh": "科研用地（众智园加速区）建筑",
        "area_sqm_declared": 40882.098
      },
      "geometry": {
        "type": "Polygon",
        "coordinates": [
          [
            [
              116.34371999999999,
              40.012699999999995
            ],
            [
              116.3446,
              40.012699999999995
            ],
            [
              116.3446,
              40.0078
            ],
            [
              116.34371999999999,
              40.0078
            ],
            [
              116.34371999999999,
              40.012699999999995
            ]
          ]
        ]
      }
    },
    {
      "type": "Feature",
      "id": "BLDG-055",
      "properties": {
        "id": "BLDG-055",
        "layer": "BUILDING_FOOTPRINT",
        "source_type": "agent_generated_design",
        "confidence": "medium",
        "geometry_role": "design_proposal",
        "building_type": "cultural",
        "name_zh": "文化用地（AI展示与标准治理）建筑",
        "area_sqm_declared": 40882.034
      },
      "geometry": {
        "type": "Polygon",
        "coordinates": [
          [
            [
              116.3504,
              40.012699999999995
            ],
            [
              116.35128,
              40.012699999999995
            ],
            [
              116.35128,
              40.0078
            ],
            [
              116.3504,
              40.0078
            ],
            [
              116.3504,
              40.012699999999995
            ]
          ]
        ]
      }
    },
    {
      "type": "Feature",
      "id": "BLDG-056",
      "properties": {
        "id": "BLDG-056",
        "layer": "BUILDING_FOOTPRINT",
        "source_type": "agent_generated_design",
        "confidence": "medium",
        "geometry_role": "design_proposal",
        "building_type": "cultural",
        "name_zh": "文化用地（AI展示与标准治理）建筑",
        "area_sqm_declared": 40882.024
      },
      "geometry": {
        "type": "Polygon",
        "coordinates": [
          [
            [
              116.35152,
              40.012699999999995
            ],
            [
              116.3524,
              40.012699999999995
            ],
            [
              116.3524,
              40.0078
            ],
            [
              116.35152,
              40.0078
            ],
            [
              116.35152,
              40.012699999999995
            ]
          ]
        ]
      }
    },
    {
      "type": "Feature",
      "id": "BLDG-057",
      "properties": {
        "id": "BLDG-057",
        "layer": "BUILDING_FOOTPRINT",
        "source_type": "agent_generated_design",
        "confidence": "medium",
        "geometry_role": "design_proposal",
        "building_type": "cultural",
        "name_zh": "文化用地（AI展示与标准治理）建筑",
        "area_sqm_declared": 23463.974
      },
      "geometry": {
        "type": "Polygon",
        "coordinates": [
          [
            [
              116.353,
              40.012699999999995
            ],
            [
              116.35350507047094,
              40.012699999999995
            ],
            [
              116.35350507047094,
              40.0078
            ],
            [
              116.353,
              40.0078
            ],
            [
              116.353,
              40.012699999999995
            ]
          ]
        ]
      }
    },
    {
      "type": "Feature",
      "id": "BLDG-058",
      "properties": {
        "id": "BLDG-058",
        "layer": "BUILDING_FOOTPRINT",
        "source_type": "agent_generated_design",
        "confidence": "medium",
        "geometry_role": "design_proposal",
        "building_type": "cultural",
        "name_zh": "文化用地（AI展示与标准治理）建筑",
        "area_sqm_declared": 23463.97
      },
      "geometry": {
        "type": "Polygon",
        "coordinates": [
          [
            [
              116.35374507047094,
              40.012699999999995
            ],
            [
              116.35425014094189,
              40.012699999999995
            ],
            [
              116.35425014094189,
              40.0078
            ],
            [
              116.35374507047094,
              40.0078
            ],
            [
              116.35374507047094,
              40.012699999999995
            ]
          ]
        ]
      }
    },
    {
      "type": "Feature",
      "id": "BLDG-059",
      "properties": {
        "id": "BLDG-059",
        "layer": "BUILDING_FOOTPRINT",
        "source_type": "agent_generated_design",
        "confidence": "medium",
        "geometry_role": "design_proposal",
        "building_type": "ai_r_and_d",
        "name_zh": "科研用地（众智园加速区）建筑",
        "area_sqm_declared": 53392.227
      },
      "geometry": {
        "type": "Polygon",
        "coordinates": [
          [
            [
              116.34259999999999,
              40.0197
            ],
            [
              116.34348,
              40.0197
            ],
            [
              116.34348,
              40.0133
            ],
            [
              116.34259999999999,
              40.0133
            ],
            [
              116.34259999999999,
              40.0197
            ]
          ]
        ]
      }
    },
    {
      "type": "Feature",
      "id": "BLDG-060",
      "properties": {
        "id": "BLDG-060",
        "layer": "BUILDING_FOOTPRINT",
        "source_type": "agent_generated_design",
        "confidence": "medium",
        "geometry_role": "design_proposal",
        "building_type": "lab",
        "name_zh": "科研用地（众智园加速区）建筑",
        "area_sqm_declared": 53392.213
      },
      "geometry": {
        "type": "Polygon",
        "coordinates": [
          [
            [
              116.34371999999999,
              40.0197
            ],
            [
              116.3446,
              40.0197
            ],
            [
              116.3446,
              40.0133
            ],
            [
              116.34371999999999,
              40.0133
            ],
            [
              116.34371999999999,
              40.0197
            ]
          ]
        ]
      }
    },
    {
      "type": "Feature",
      "id": "BLDG-061",
      "properties": {
        "id": "BLDG-061",
        "layer": "BUILDING_FOOTPRINT",
        "source_type": "agent_generated_design",
        "confidence": "medium",
        "geometry_role": "design_proposal",
        "building_type": "cultural",
        "name_zh": "文化用地（AI展示与标准治理）建筑",
        "area_sqm_declared": 53392.129
      },
      "geometry": {
        "type": "Polygon",
        "coordinates": [
          [
            [
              116.3504,
              40.0197
            ],
            [
              116.35128,
              40.0197
            ],
            [
              116.35128,
              40.0133
            ],
            [
              116.3504,
              40.0133
            ],
            [
              116.3504,
              40.0197
            ]
          ]
        ]
      }
    },
    {
      "type": "Feature",
      "id": "BLDG-062",
      "properties": {
        "id": "BLDG-062",
        "layer": "BUILDING_FOOTPRINT",
        "source_type": "agent_generated_design",
        "confidence": "medium",
        "geometry_role": "design_proposal",
        "building_type": "cultural",
        "name_zh": "文化用地（AI展示与标准治理）建筑",
        "area_sqm_declared": 53392.116
      },
      "geometry": {
        "type": "Polygon",
        "coordinates": [
          [
            [
              116.35152,
              40.0197
            ],
            [
              116.3524,
              40.0197
            ],
            [
              116.3524,
              40.0133
            ],
            [
              116.35152,
              40.0133
            ],
            [
              116.35152,
              40.0197
            ]
          ]
        ]
      }
    },
    {
      "type": "Feature",
      "id": "BLDG-063",
      "properties": {
        "id": "BLDG-063",
        "layer": "BUILDING_FOOTPRINT",
        "source_type": "agent_generated_design",
        "confidence": "medium",
        "geometry_role": "design_proposal",
        "building_type": "cultural",
        "name_zh": "文化用地（AI展示与标准治理）建筑",
        "area_sqm_declared": 42279.946
      },
      "geometry": {
        "type": "Polygon",
        "coordinates": [
          [
            [
              116.353,
              40.0197
            ],
            [
              116.35369685129287,
              40.0197
            ],
            [
              116.35369685129287,
              40.0133
            ],
            [
              116.353,
              40.0133
            ],
            [
              116.353,
              40.0197
            ]
          ]
        ]
      }
    },
    {
      "type": "Feature",
      "id": "BLDG-064",
      "properties": {
        "id": "BLDG-064",
        "layer": "BUILDING_FOOTPRINT",
        "source_type": "agent_generated_design",
        "confidence": "medium",
        "geometry_role": "design_proposal",
        "building_type": "cultural",
        "name_zh": "文化用地（AI展示与标准治理）建筑",
        "area_sqm_declared": 41998.946
      },
      "geometry": {
        "type": "Polygon",
        "coordinates": [
          [
            [
              116.35393685129286,
              40.0197
            ],
            [
              116.35463370258572,
              40.0197
            ],
            [
              116.35463370258572,
              40.014340072189285
            ],
            [
              116.35457671232876,
              40.0133
            ],
            [
              116.35393685129286,
              40.0133
            ],
            [
              116.35393685129286,
              40.0197
            ]
          ]
        ]
      }
    }
  ]
}