{
  "type": "FeatureCollection",
  "name": "green_space_epoch_rail",
  "features": [
    {
      "type": "Feature",
      "id": "GREEN-001",
      "properties": {
        "id": "GREEN-001",
        "layer": "GREEN_SPACE",
        "source_type": "agent_generated_design",
        "confidence": "medium",
        "geometry_role": "design_proposal",
        "name_zh": "公园绿地与滨水绿廊",
        "area_sqm_declared": 38786.129
      },
      "geometry": {
        "type": "Polygon",
        "coordinates": [
          [
            [
              116.3407,
              39.939
            ],
            [
              116.34063055555555,
              39.9415
            ],
            [
              116.3423,
              39.9415
            ],
            [
              116.3423,
              39.939
            ],
            [
              116.3407,
              39.939
            ]
          ]
        ]
      }
    },
    {
      "type": "Feature",
      "id": "GREEN-002",
      "properties": {
        "id": "GREEN-002",
        "layer": "GREEN_SPACE",
        "source_type": "agent_generated_design",
        "confidence": "medium",
        "geometry_role": "design_proposal",
        "name_zh": "公园绿地与滨水绿廊",
        "area_sqm_declared": 61688.715
      },
      "geometry": {
        "type": "Polygon",
        "coordinates": [
          [
            [
              116.3423,
              39.939
            ],
            [
              116.3423,
              39.9415
            ],
            [
              116.3449,
              39.9415
            ],
            [
              116.3449,
              39.939
            ],
            [
              116.3423,
              39.939
            ]
          ]
        ]
      }
    },
    {
      "type": "Feature",
      "id": "GREEN-003",
      "properties": {
        "id": "GREEN-003",
        "layer": "GREEN_SPACE",
        "source_type": "agent_generated_design",
        "confidence": "medium",
        "geometry_role": "design_proposal",
        "name_zh": "公园绿地与滨水绿廊",
        "area_sqm_declared": 61688.677
      },
      "geometry": {
        "type": "Polygon",
        "coordinates": [
          [
            [
              116.3449,
              39.939
            ],
            [
              116.3449,
              39.9415
            ],
            [
              116.3475,
              39.9415
            ],
            [
              116.3475,
              39.939
            ],
            [
              116.3449,
              39.939
            ]
          ]
        ]
      }
    },
    {
      "type": "Feature",
      "id": "GREEN-004",
      "properties": {
        "id": "GREEN-004",
        "layer": "GREEN_SPACE",
        "source_type": "agent_generated_design",
        "confidence": "medium",
        "geometry_role": "design_proposal",
        "name_zh": "公园绿地与滨水绿廊",
        "area_sqm_declared": 61688.639
      },
      "geometry": {
        "type": "Polygon",
        "coordinates": [
          [
            [
              116.3475,
              39.939
            ],
            [
              116.3475,
              39.9415
            ],
            [
              116.3501,
              39.9415
            ],
            [
              116.3501,
              39.939
            ],
            [
              116.3475,
              39.939
            ]
          ]
        ]
      }
    },
    {
      "type": "Feature",
      "id": "GREEN-005",
      "properties": {
        "id": "GREEN-005",
        "layer": "GREEN_SPACE",
        "source_type": "agent_generated_design",
        "confidence": "medium",
        "geometry_role": "design_proposal",
        "name_zh": "公园绿地与滨水绿廊",
        "area_sqm_declared": 61688.602
      },
      "geometry": {
        "type": "Polygon",
        "coordinates": [
          [
            [
              116.3501,
              39.939
            ],
            [
              116.3501,
              39.9415
            ],
            [
              116.3527,
              39.9415
            ],
            [
              116.3527,
              39.939
            ],
            [
              116.3501,
              39.939
            ]
          ]
        ]
      }
    },
    {
      "type": "Feature",
      "id": "GREEN-006",
      "properties": {
        "id": "GREEN-006",
        "layer": "GREEN_SPACE",
        "source_type": "agent_generated_design",
        "confidence": "medium",
        "geometry_role": "design_proposal",
        "name_zh": "公园绿地与滨水绿廊",
        "area_sqm_declared": 61688.565
      },
      "geometry": {
        "type": "Polygon",
        "coordinates": [
          [
            [
              116.3527,
              39.939
            ],
            [
              116.3527,
              39.9415
            ],
            [
              116.3553,
              39.9415
            ],
            [
              116.3553,
              39.939
            ],
            [
              116.3527,
              39.939
            ]
          ]
        ]
      }
    },
    {
      "type": "Feature",
      "id": "GREEN-007",
      "properties": {
        "id": "GREEN-007",
        "layer": "GREEN_SPACE",
        "source_type": "agent_generated_design",
        "confidence": "medium",
        "geometry_role": "design_proposal",
        "name_zh": "公园绿地与滨水绿廊",
        "area_sqm_declared": 61686.458
      },
      "geometry": {
        "type": "Polygon",
        "coordinates": [
          [
            [
              116.3449,
              39.9415
            ],
            [
              116.3449,
              39.944
            ],
            [
              116.3475,
              39.944
            ],
            [
              116.3475,
              39.9415
            ],
            [
              116.3449,
              39.9415
            ]
          ]
        ]
      }
    },
    {
      "type": "Feature",
      "id": "GREEN-008",
      "properties": {
        "id": "GREEN-008",
        "layer": "GREEN_SPACE",
        "source_type": "agent_generated_design",
        "confidence": "medium",
        "geometry_role": "design_proposal",
        "name_zh": "公园绿地与滨水绿廊",
        "area_sqm_declared": 61686.421
      },
      "geometry": {
        "type": "Polygon",
        "coordinates": [
          [
            [
              116.3475,
              39.9415
            ],
            [
              116.3475,
              39.944
            ],
            [
              116.3501,
              39.944
            ],
            [
              116.3501,
              39.9415
            ],
            [
              116.3475,
              39.9415
            ]
          ]
        ]
      }
    },
    {
      "type": "Feature",
      "id": "GREEN-009",
      "properties": {
        "id": "GREEN-009",
        "layer": "GREEN_SPACE",
        "source_type": "agent_generated_design",
        "confidence": "medium",
        "geometry_role": "design_proposal",
        "name_zh": "公园绿地与滨水绿廊",
        "area_sqm_declared": 144090.921
      },
      "geometry": {
        "type": "Polygon",
        "coordinates": [
          [
            [
              116.3449,
              39.944
            ],
            [
              116.3449,
              39.94984
            ],
            [
              116.3475,
              39.94984
            ],
            [
              116.3475,
              39.944
            ],
            [
              116.3449,
              39.944
            ]
          ]
        ]
      }
    },
    {
      "type": "Feature",
      "id": "GREEN-010",
      "properties": {
        "id": "GREEN-010",
        "layer": "GREEN_SPACE",
        "source_type": "agent_generated_design",
        "confidence": "medium",
        "geometry_role": "design_proposal",
        "name_zh": "公园绿地与滨水绿廊",
        "area_sqm_declared": 144090.833
      },
      "geometry": {
        "type": "Polygon",
        "coordinates": [
          [
            [
              116.3475,
              39.944
            ],
            [
              116.3475,
              39.94984
            ],
            [
              116.3501,
              39.94984
            ],
            [
              116.3501,
              39.944
            ],
            [
              116.3475,
              39.944
            ]
          ]
        ]
      }
    },
    {
      "type": "Feature",
      "id": "GREEN-011",
      "properties": {
        "id": "GREEN-011",
        "layer": "GREEN_SPACE",
        "source_type": "agent_generated_design",
        "confidence": "medium",
        "geometry_role": "design_proposal",
        "name_zh": "公园绿地与滨水绿廊",
        "area_sqm_declared": 127303.135
      },
      "geometry": {
        "type": "Polygon",
        "coordinates": [
          [
            [
              116.3449,
              39.94984
            ],
            [
              116.3449,
              39.955
            ],
            [
              116.3475,
              39.955
            ],
            [
              116.3475,
              39.94984
            ],
            [
              116.3449,
              39.94984
            ]
          ]
        ]
      }
    },
    {
      "type": "Feature",
      "id": "GREEN-012",
      "properties": {
        "id": "GREEN-012",
        "layer": "GREEN_SPACE",
        "source_type": "agent_generated_design",
        "confidence": "medium",
        "geometry_role": "design_proposal",
        "name_zh": "公园绿地与滨水绿廊",
        "area_sqm_declared": 127303.058
      },
      "geometry": {
        "type": "Polygon",
        "coordinates": [
          [
            [
              116.3475,
              39.94984
            ],
            [
              116.3475,
              39.955
            ],
            [
              116.3501,
              39.955
            ],
            [
              116.3501,
              39.94984
            ],
            [
              116.3475,
              39.94984
            ]
          ]
        ]
      }
    },
    {
      "type": "Feature",
      "id": "GREEN-013",
      "properties": {
        "id": "GREEN-013",
        "layer": "GREEN_SPACE",
        "source_type": "agent_generated_design",
        "confidence": "medium",
        "geometry_role": "design_proposal",
        "name_zh": "公园绿地与滨水绿廊",
        "area_sqm_declared": 246684.585
      },
      "geometry": {
        "type": "Polygon",
        "coordinates": [
          [
            [
              116.3449,
              39.955
            ],
            [
              116.3449,
              39.965
            ],
            [
              116.3475,
              39.965
            ],
            [
              116.3475,
              39.955
            ],
            [
              116.3449,
              39.955
            ]
          ]
        ]
      }
    },
    {
      "type": "Feature",
      "id": "GREEN-014",
      "properties": {
        "id": "GREEN-014",
        "layer": "GREEN_SPACE",
        "source_type": "agent_generated_design",
        "confidence": "medium",
        "geometry_role": "design_proposal",
        "name_zh": "公园绿地与滨水绿廊",
        "area_sqm_declared": 246684.435
      },
      "geometry": {
        "type": "Polygon",
        "coordinates": [
          [
            [
              116.3475,
              39.955
            ],
            [
              116.3475,
              39.965
            ],
            [
              116.3501,
              39.965
            ],
            [
              116.3501,
              39.955
            ],
            [
              116.3475,
              39.955
            ]
          ]
        ]
      }
    },
    {
      "type": "Feature",
      "id": "GREEN-015",
      "properties": {
        "id": "GREEN-015",
        "layer": "GREEN_SPACE",
        "source_type": "agent_generated_design",
        "confidence": "medium",
        "geometry_role": "design_proposal",
        "name_zh": "公园绿地与滨水绿廊",
        "area_sqm_declared": 295974.62
      },
      "geometry": {
        "type": "Polygon",
        "coordinates": [
          [
            [
              116.3449,
              39.965
            ],
            [
              116.3449,
              39.977
            ],
            [
              116.3475,
              39.977
            ],
            [
              116.3475,
              39.965
            ],
            [
              116.3449,
              39.965
            ]
          ]
        ]
      }
    },
    {
      "type": "Feature",
      "id": "GREEN-016",
      "properties": {
        "id": "GREEN-016",
        "layer": "GREEN_SPACE",
        "source_type": "agent_generated_design",
        "confidence": "medium",
        "geometry_role": "design_proposal",
        "name_zh": "公园绿地与滨水绿廊",
        "area_sqm_declared": 295974.44
      },
      "geometry": {
        "type": "Polygon",
        "coordinates": [
          [
            [
              116.3475,
              39.965
            ],
            [
              116.3475,
              39.977
            ],
            [
              116.3501,
              39.977
            ],
            [
              116.3501,
              39.965
            ],
            [
              116.3475,
              39.965
            ]
          ]
        ]
      }
    },
    {
      "type": "Feature",
      "id": "GREEN-017",
      "properties": {
        "id": "GREEN-017",
        "layer": "GREEN_SPACE",
        "source_type": "agent_generated_design",
        "confidence": "medium",
        "geometry_role": "design_proposal",
        "name_zh": "公园绿地与滨水绿廊",
        "area_sqm_declared": 160298.228
      },
      "geometry": {
        "type": "Polygon",
        "coordinates": [
          [
            [
              116.3449,
              39.977
            ],
            [
              116.3449,
              39.9835
            ],
            [
              116.3475,
              39.9835
            ],
            [
              116.3475,
              39.977
            ],
            [
              116.3449,
              39.977
            ]
          ]
        ]
      }
    },
    {
      "type": "Feature",
      "id": "GREEN-018",
      "properties": {
        "id": "GREEN-018",
        "layer": "GREEN_SPACE",
        "source_type": "agent_generated_design",
        "confidence": "medium",
        "geometry_role": "design_proposal",
        "name_zh": "公园绿地与滨水绿廊",
        "area_sqm_declared": 160298.13
      },
      "geometry": {
        "type": "Polygon",
        "coordinates": [
          [
            [
              116.3475,
              39.977
            ],
            [
              116.3475,
              39.9835
            ],
            [
              116.3501,
              39.9835
            ],
            [
              116.3501,
              39.977
            ],
            [
              116.3475,
              39.977
            ]
          ]
        ]
      }
    },
    {
      "type": "Feature",
      "id": "GREEN-019",
      "properties": {
        "id": "GREEN-019",
        "layer": "GREEN_SPACE",
        "source_type": "agent_generated_design",
        "confidence": "medium",
        "geometry_role": "design_proposal",
        "name_zh": "公园绿地与滨水绿廊",
        "area_sqm_declared": 160298.033
      },
      "geometry": {
        "type": "Polygon",
        "coordinates": [
          [
            [
              116.3501,
              39.977
            ],
            [
              116.3501,
              39.9835
            ],
            [
              116.3527,
              39.9835
            ],
            [
              116.3527,
              39.977
            ],
            [
              116.3501,
              39.977
            ]
          ]
        ]
      }
    },
    {
      "type": "Feature",
      "id": "GREEN-020",
      "properties": {
        "id": "GREEN-020",
        "layer": "GREEN_SPACE",
        "source_type": "agent_generated_design",
        "confidence": "medium",
        "geometry_role": "design_proposal",
        "name_zh": "公园绿地与滨水绿廊",
        "area_sqm_declared": 85081.964
      },
      "geometry": {
        "type": "Polygon",
        "coordinates": [
          [
            [
              116.35434000000001,
              39.977
            ],
            [
              116.3527,
              39.977
            ],
            [
              116.3527,
              39.9835
            ],
            [
              116.35382,
              39.9835
            ],
            [
              116.35434000000001,
              39.977
            ]
          ]
        ]
      }
    },
    {
      "type": "Feature",
      "id": "GREEN-021",
      "properties": {
        "id": "GREEN-021",
        "layer": "GREEN_SPACE",
        "source_type": "agent_generated_design",
        "confidence": "medium",
        "geometry_role": "design_proposal",
        "name_zh": "公园绿地与滨水绿廊",
        "area_sqm_declared": 135625.237
      },
      "geometry": {
        "type": "Polygon",
        "coordinates": [
          [
            [
              116.3449,
              39.9835
            ],
            [
              116.3449,
              39.989
            ],
            [
              116.3475,
              39.989
            ],
            [
              116.3475,
              39.9835
            ],
            [
              116.3449,
              39.9835
            ]
          ]
        ]
      }
    },
    {
      "type": "Feature",
      "id": "GREEN-022",
      "properties": {
        "id": "GREEN-022",
        "layer": "GREEN_SPACE",
        "source_type": "agent_generated_design",
        "confidence": "medium",
        "geometry_role": "design_proposal",
        "name_zh": "公园绿地与滨水绿廊",
        "area_sqm_declared": 135625.154
      },
      "geometry": {
        "type": "Polygon",
        "coordinates": [
          [
            [
              116.3475,
              39.9835
            ],
            [
              116.3475,
              39.989
            ],
            [
              116.3501,
              39.989
            ],
            [
              116.3501,
              39.9835
            ],
            [
              116.3475,
              39.9835
            ]
          ]
        ]
      }
    },
    {
      "type": "Feature",
      "id": "GREEN-023",
      "properties": {
        "id": "GREEN-023",
        "layer": "GREEN_SPACE",
        "source_type": "agent_generated_design",
        "confidence": "medium",
        "geometry_role": "design_proposal",
        "name_zh": "公园绿地与滨水绿廊",
        "area_sqm_declared": 110958.108
      },
      "geometry": {
        "type": "Polygon",
        "coordinates": [
          [
            [
              116.3449,
              39.989
            ],
            [
              116.3449,
              39.9935
            ],
            [
              116.3475,
              39.9935
            ],
            [
              116.3475,
              39.989
            ],
            [
              116.3449,
              39.989
            ]
          ]
        ]
      }
    },
    {
      "type": "Feature",
      "id": "GREEN-024",
      "properties": {
        "id": "GREEN-024",
        "layer": "GREEN_SPACE",
        "source_type": "agent_generated_design",
        "confidence": "medium",
        "geometry_role": "design_proposal",
        "name_zh": "公园绿地与滨水绿廊",
        "area_sqm_declared": 110958.04
      },
      "geometry": {
        "type": "Polygon",
        "coordinates": [
          [
            [
              116.3475,
              39.989
            ],
            [
              116.3475,
              39.9935
            ],
            [
              116.3501,
              39.9935
            ],
            [
              116.3501,
              39.989
            ],
            [
              116.3475,
              39.989
            ]
          ]
        ]
      }
    },
    {
      "type": "Feature",
      "id": "GREEN-025",
      "properties": {
        "id": "GREEN-025",
        "layer": "GREEN_SPACE",
        "source_type": "agent_generated_design",
        "confidence": "medium",
        "geometry_role": "design_proposal",
        "name_zh": "公园绿地与滨水绿廊",
        "area_sqm_declared": 86295.775
      },
      "geometry": {
        "type": "Polygon",
        "coordinates": [
          [
            [
              116.3449,
              39.9935
            ],
            [
              116.3449,
              39.997
            ],
            [
              116.3475,
              39.997
            ],
            [
              116.3475,
              39.9935
            ],
            [
              116.3449,
              39.9935
            ]
          ]
        ]
      }
    },
    {
      "type": "Feature",
      "id": "GREEN-026",
      "properties": {
        "id": "GREEN-026",
        "layer": "GREEN_SPACE",
        "source_type": "agent_generated_design",
        "confidence": "medium",
        "geometry_role": "design_proposal",
        "name_zh": "公园绿地与滨水绿廊",
        "area_sqm_declared": 86295.723
      },
      "geometry": {
        "type": "Polygon",
        "coordinates": [
          [
            [
              116.3475,
              39.9935
            ],
            [
              116.3475,
              39.997
            ],
            [
              116.3501,
              39.997
            ],
            [
              116.3501,
              39.9935
            ],
            [
              116.3475,
              39.9935
            ]
          ]
        ]
      }
    },
    {
      "type": "Feature",
      "id": "GREEN-027",
      "properties": {
        "id": "GREEN-027",
        "layer": "GREEN_SPACE",
        "source_type": "agent_generated_design",
        "confidence": "medium",
        "geometry_role": "design_proposal",
        "name_zh": "公园绿地与滨水绿廊",
        "area_sqm_declared": 258861.201
      },
      "geometry": {
        "type": "Polygon",
        "coordinates": [
          [
            [
              116.3449,
              39.997
            ],
            [
              116.3449,
              40.0075
            ],
            [
              116.3475,
              40.0075
            ],
            [
              116.3475,
              39.997
            ],
            [
              116.3449,
              39.997
            ]
          ]
        ]
      }
    },
    {
      "type": "Feature",
      "id": "GREEN-028",
      "properties": {
        "id": "GREEN-028",
        "layer": "GREEN_SPACE",
        "source_type": "agent_generated_design",
        "confidence": "medium",
        "geometry_role": "design_proposal",
        "name_zh": "公园绿地与滨水绿廊",
        "area_sqm_declared": 258861.044
      },
      "geometry": {
        "type": "Polygon",
        "coordinates": [
          [
            [
              116.3475,
              39.997
            ],
            [
              116.3475,
              40.0075
            ],
            [
              116.3501,
              40.0075
            ],
            [
              116.3501,
              39.997
            ],
            [
              116.3475,
              39.997
            ]
          ]
        ]
      }
    },
    {
      "type": "Feature",
      "id": "GREEN-029",
      "properties": {
        "id": "GREEN-029",
        "layer": "GREEN_SPACE",
        "source_type": "agent_generated_design",
        "confidence": "medium",
        "geometry_role": "design_proposal",
        "name_zh": "公园绿地与滨水绿廊",
        "area_sqm_declared": 135578.322
      },
      "geometry": {
        "type": "Polygon",
        "coordinates": [
          [
            [
              116.3449,
              40.0075
            ],
            [
              116.3449,
              40.013
            ],
            [
              116.3475,
              40.013
            ],
            [
              116.3475,
              40.0075
            ],
            [
              116.3449,
              40.0075
            ]
          ]
        ]
      }
    },
    {
      "type": "Feature",
      "id": "GREEN-030",
      "properties": {
        "id": "GREEN-030",
        "layer": "GREEN_SPACE",
        "source_type": "agent_generated_design",
        "confidence": "medium",
        "geometry_role": "design_proposal",
        "name_zh": "公园绿地与滨水绿廊",
        "area_sqm_declared": 135578.24
      },
      "geometry": {
        "type": "Polygon",
        "coordinates": [
          [
            [
              116.3475,
              40.0075
            ],
            [
              116.3475,
              40.013
            ],
            [
              116.3501,
              40.013
            ],
            [
              116.3501,
              40.0075
            ],
            [
              116.3475,
              40.0075
            ]
          ]
        ]
      }
    },
    {
      "type": "Feature",
      "id": "GREEN-031",
      "properties": {
        "id": "GREEN-031",
        "layer": "GREEN_SPACE",
        "source_type": "agent_generated_design",
        "confidence": "medium",
        "geometry_role": "design_proposal",
        "name_zh": "公园绿地与滨水绿廊",
        "area_sqm_declared": 172538.673
      },
      "geometry": {
        "type": "Polygon",
        "coordinates": [
          [
            [
              116.3449,
              40.013
            ],
            [
              116.3449,
              40.02
            ],
            [
              116.3475,
              40.02
            ],
            [
              116.3475,
              40.013
            ],
            [
              116.3449,
              40.013
            ]
          ]
        ]
      }
    },
    {
      "type": "Feature",
      "id": "GREEN-032",
      "properties": {
        "id": "GREEN-032",
        "layer": "GREEN_SPACE",
        "source_type": "agent_generated_design",
        "confidence": "medium",
        "geometry_role": "design_proposal",
        "name_zh": "公园绿地与滨水绿廊",
        "area_sqm_declared": 172538.568
      },
      "geometry": {
        "type": "Polygon",
        "coordinates": [
          [
            [
              116.3475,
              40.013
            ],
            [
              116.3475,
              40.02
            ],
            [
              116.3501,
              40.02
            ],
            [
              116.3501,
              40.013
            ],
            [
              116.3475,
              40.013
            ]
          ]
        ]
      }
    },
    {
      "type": "Feature",
      "id": "GREEN-033",
      "properties": {
        "id": "GREEN-033",
        "layer": "GREEN_SPACE",
        "source_type": "agent_generated_design",
        "confidence": "medium",
        "geometry_role": "design_proposal",
        "name_zh": "公园绿地与滨水绿廊",
        "area_sqm_declared": 145321.636
      },
      "geometry": {
        "type": "Polygon",
        "coordinates": [
          [
            [
              116.3449,
              40.0265
            ],
            [
              116.3449,
              40.02
            ],
            [
              116.34238292682926,
              40.02
            ],
            [
              116.3427,
              40.0265
            ],
            [
              116.3449,
              40.0265
            ]
          ]
        ]
      }
    },
    {
      "type": "Feature",
      "id": "GREEN-034",
      "properties": {
        "id": "GREEN-034",
        "layer": "GREEN_SPACE",
        "source_type": "agent_generated_design",
        "confidence": "medium",
        "geometry_role": "design_proposal",
        "name_zh": "公园绿地与滨水绿廊",
        "area_sqm_declared": 160198.881
      },
      "geometry": {
        "type": "Polygon",
        "coordinates": [
          [
            [
              116.3475,
              40.0265
            ],
            [
              116.3475,
              40.02
            ],
            [
              116.3449,
              40.02
            ],
            [
              116.3449,
              40.0265
            ],
            [
              116.3475,
              40.0265
            ]
          ]
        ]
      }
    },
    {
      "type": "Feature",
      "id": "GREEN-035",
      "properties": {
        "id": "GREEN-035",
        "layer": "GREEN_SPACE",
        "source_type": "agent_generated_design",
        "confidence": "medium",
        "geometry_role": "design_proposal",
        "name_zh": "公园绿地与滨水绿廊",
        "area_sqm_declared": 160198.784
      },
      "geometry": {
        "type": "Polygon",
        "coordinates": [
          [
            [
              116.3501,
              40.0265
            ],
            [
              116.3501,
              40.02
            ],
            [
              116.3475,
              40.02
            ],
            [
              116.3475,
              40.0265
            ],
            [
              116.3501,
              40.0265
            ]
          ]
        ]
      }
    },
    {
      "type": "Feature",
      "id": "GREEN-036",
      "properties": {
        "id": "GREEN-036",
        "layer": "GREEN_SPACE",
        "source_type": "agent_generated_design",
        "confidence": "medium",
        "geometry_role": "design_proposal",
        "name_zh": "公园绿地与滨水绿廊",
        "area_sqm_declared": 160198.687
      },
      "geometry": {
        "type": "Polygon",
        "coordinates": [
          [
            [
              116.3527,
              40.0265
            ],
            [
              116.3527,
              40.02
            ],
            [
              116.3501,
              40.02
            ],
            [
              116.3501,
              40.0265
            ],
            [
              116.3527,
              40.0265
            ]
          ]
        ]
      }
    },
    {
      "type": "Feature",
      "id": "GREEN-037",
      "properties": {
        "id": "GREEN-037",
        "layer": "GREEN_SPACE",
        "source_type": "agent_generated_design",
        "confidence": "medium",
        "geometry_role": "design_proposal",
        "name_zh": "公园绿地与滨水绿廊",
        "area_sqm_declared": 149225.609
      },
      "geometry": {
        "type": "Polygon",
        "coordinates": [
          [
            [
              116.35494383561644,
              40.02
            ],
            [
              116.3527,
              40.02
            ],
            [
              116.3527,
              40.0265
            ],
            [
              116.3553,
              40.0265
            ],
            [
              116.35494383561644,
              40.02
            ]
          ]
        ]
      }
    }
  ]
}