{
  "type": "FeatureCollection",
  "name": "constraints",
  "features": [
    {
      "type": "Feature",
      "id": "CST-001",
      "properties": {
        "id": "CST-001",
        "layer": "CONSTRAINTS",
        "name_zh": "京张铁路遗址保护廊道",
        "constraint_type": "heritage_protection",
        "source_type": "public_context",
        "restriction": "历史文化保护要求，具体保护范围和控高待确认"
      },
      "geometry": {
        "type": "Polygon",
        "coordinates": [
          [
            [
              116.3458,
              39.94
            ],
            [
              116.3472,
              39.94
            ],
            [
              116.3472,
              40.025
            ],
            [
              116.3458,
              40.025
            ],
            [
              116.3458,
              39.94
            ]
          ]
        ]
      }
    },
    {
      "type": "Feature",
      "id": "CST-002",
      "properties": {
        "id": "CST-002",
        "layer": "CONSTRAINTS",
        "name_zh": "清河蓝线及生态缓冲区",
        "constraint_type": "water_protection",
        "source_type": "public_context",
        "restriction": "河道蓝线及生态保护要求，具体范围待确认"
      },
      "geometry": {
        "type": "Polygon",
        "coordinates": [
          [
            [
              116.341,
              40.023
            ],
            [
              116.354,
              40.023
            ],
            [
              116.354,
              40.0265
            ],
            [
              116.3427,
              40.0265
            ],
            [
              116.341,
              40.023
            ]
          ]
        ]
      }
    }
  ]
}