{
  "type": "FeatureCollection",
  "features": [
    {
      "type": "Feature",
      "id": "LU-001",
      "properties": {
        "id": "LU-001",
        "layer": "LAND_USE",
        "land_use_code": "0802",
        "land_use_zh": "科研用地(农业AI与智慧育种)",
        "area_category": "AI_agritech_rd",
        "key_area": "zhongzhiyuan",
        "area_sqm_approx": 480000,
        "far_max_concept": 2.5,
        "height_max_concept_m": 60,
        "source_type": "agent_generated_design",
        "confidence": "low",
        "geometry_role": "design_proposal"
      },
      "geometry": {
        "type": "Polygon",
        "coordinates": [
          [
            [
              116.3432,
              40.0245
            ],
            [
              116.3538,
              40.0245
            ],
            [
              116.3538,
              40.014
            ],
            [
              116.3432,
              40.014
            ],
            [
              116.3432,
              40.0245
            ]
          ]
        ]
      }
    },
    {
      "type": "Feature",
      "id": "LU-002",
      "properties": {
        "id": "LU-002",
        "layer": "LAND_USE",
        "land_use_code": "14",
        "land_use_zh": "绿地与开敞空间(都市农业试验田)",
        "area_category": "urban_farming_demo",
        "key_area": "zhongzhiyuan",
        "area_sqm_approx": 240000,
        "source_type": "agent_generated_design",
        "confidence": "low",
        "geometry_role": "design_proposal"
      },
      "geometry": {
        "type": "Polygon",
        "coordinates": [
          [
            [
              116.3538,
              40.0135
            ],
            [
              116.3538,
              40.0085
            ],
            [
              116.3432,
              40.0085
            ],
            [
              116.3432,
              40.0135
            ],
            [
              116.3538,
              40.0135
            ]
          ]
        ]
      }
    },
    {
      "type": "Feature",
      "id": "LU-003",
      "properties": {
        "id": "LU-003",
        "layer": "LAND_USE",
        "land_use_code": "05",
        "land_use_zh": "商业服务业用地(FoodTech孵化与转化中心)",
        "area_category": "foodtech_commercial",
        "key_area": "ai_origin",
        "area_sqm_approx": 350000,
        "far_max_concept": 3.0,
        "height_max_concept_m": 80,
        "source_type": "agent_generated_design",
        "confidence": "low",
        "geometry_role": "design_proposal"
      },
      "geometry": {
        "type": "Polygon",
        "coordinates": [
          [
            [
              116.3528,
              39.9925
            ],
            [
              116.3528,
              39.986
            ],
            [
              116.3422,
              39.986
            ],
            [
              116.3422,
              39.9925
            ],
            [
              116.3528,
              39.9925
            ]
          ]
        ]
      }
    },
    {
      "type": "Feature",
      "id": "LU-004",
      "properties": {
        "id": "LU-004",
        "layer": "LAND_USE",
        "land_use_code": "07",
        "land_use_zh": "居住用地(创新人才社区)",
        "area_category": "talent_residential",
        "key_area": "ai_origin",
        "area_sqm_approx": 250000,
        "far_max_concept": 2.0,
        "height_max_concept_m": 45,
        "source_type": "agent_generated_design",
        "confidence": "low",
        "geometry_role": "design_proposal"
      },
      "geometry": {
        "type": "Polygon",
        "coordinates": [
          [
            [
              116.3528,
              39.9855
            ],
            [
              116.3528,
              39.9838
            ],
            [
              116.3422,
              39.9838
            ],
            [
              116.3422,
              39.9855
            ],
            [
              116.3528,
              39.9855
            ]
          ]
        ]
      }
    },
    {
      "type": "Feature",
      "id": "LU-005",
      "properties": {
        "id": "LU-005",
        "layer": "LAND_USE",
        "land_use_code": "05",
        "land_use_zh": "商业服务业用地(未来食品体验中心/全球粮食安全论坛)",
        "area_category": "food_experience",
        "key_area": "dazhongsi",
        "area_sqm_approx": 420000,
        "far_max_concept": 3.5,
        "height_max_concept_m": 100,
        "source_type": "agent_generated_design",
        "confidence": "low",
        "geometry_role": "design_proposal"
      },
      "geometry": {
        "type": "Polygon",
        "coordinates": [
          [
            [
              116.3548,
              39.9493
            ],
            [
              116.3548,
              39.9443
            ],
            [
              116.3422,
              39.9443
            ],
            [
              116.3422,
              39.9493
            ],
            [
              116.3548,
              39.9493
            ]
          ]
        ]
      }
    },
    {
      "type": "Feature",
      "id": "LU-006",
      "properties": {
        "id": "LU-006",
        "layer": "LAND_USE",
        "land_use_code": "14",
        "land_use_zh": "绿地与开敞空间(京张铁路遗址公园活力带)",
        "area_category": "heritage_park",
        "key_area": null,
        "area_sqm_approx": 1800000,
        "source_type": "agent_generated_design",
        "confidence": "low",
        "geometry_role": "design_proposal"
      },
      "geometry": {
        "type": "MultiPolygon",
        "coordinates": [
          [
            [
              [
                116.34406,
                39.9838
              ],
              [
                116.34806,
                39.9838
              ],
              [
                116.3485,
                39.975
              ],
              [
                116.3485,
                39.9493
              ],
              [
                116.3445,
                39.9493
              ],
              [
                116.3445,
                39.975
              ],
              [
                116.34406,
                39.9838
              ]
            ]
          ],
          [
            [
              [
                116.34395,
                39.986
              ],
              [
                116.34795,
                39.986
              ],
              [
                116.347975,
                39.9855
              ],
              [
                116.343975,
                39.9855
              ],
              [
                116.34395,
                39.986
              ]
            ]
          ],
          [
            [
              [
                116.3435,
                39.995
              ],
              [
                116.34395,
                40.0085
              ],
              [
                116.34795,
                40.0085
              ],
              [
                116.3475,
                39.995
              ],
              [
                116.347625,
                39.9925
              ],
              [
                116.343625,
                39.9925
              ],
              [
                116.3435,
                39.995
              ]
            ]
          ],
          [
            [
              [
                116.344133,
                40.014
              ],
              [
                116.348133,
                40.014
              ],
              [
                116.348117,
                40.0135
              ],
              [
                116.344117,
                40.0135
              ],
              [
                116.344133,
                40.014
              ]
            ]
          ],
          [
            [
              [
                116.3445,
                40.025
              ],
              [
                116.3485,
                40.025
              ],
              [
                116.348483,
                40.0245
              ],
              [
                116.344483,
                40.0245
              ],
              [
                116.3445,
                40.025
              ]
            ]
          ],
          [
            [
              [
                116.3485,
                39.94
              ],
              [
                116.3445,
                39.94
              ],
              [
                116.3445,
                39.9443
              ],
              [
                116.3485,
                39.9443
              ],
              [
                116.3485,
                39.94
              ]
            ]
          ]
        ]
      }
    },
    {
      "type": "Feature",
      "id": "LU-007",
      "properties": {
        "id": "LU-007",
        "layer": "LAND_USE",
        "land_use_code": "05",
        "land_use_zh": "商业服务业用地(AI+农业科技服务与知识产权运营)",
        "area_category": "tech_service",
        "key_area": null,
        "area_sqm_approx": 2000000,
        "far_max_concept": 2.5,
        "source_type": "agent_generated_design",
        "confidence": "low",
        "geometry_role": "design_proposal"
      },
      "geometry": {
        "type": "Polygon",
        "coordinates": [
          [
            [
              116.3435,
              39.995001
            ],
            [
              116.3435,
              39.995
            ],
            [
              116.343625,
              39.9925
            ],
            [
              116.3422,
              39.9925
            ],
            [
              116.3422,
              39.986
            ],
            [
              116.34395,
              39.986
            ],
            [
              116.343975,
              39.9855
            ],
            [
              116.3422,
              39.9855
            ],
            [
              116.3422,
              39.9838
            ],
            [
              116.344,
              39.9838
            ],
            [
              116.344,
              39.95
            ],
            [
              116.3407,
              39.95
            ],
            [
              116.3407,
              39.975
            ],
            [
              116.3417,
              40.006
            ],
            [
              116.343,
              40.005
            ],
            [
              116.3435,
              39.995001
            ]
          ]
        ]
      }
    },
    {
      "type": "Feature",
      "id": "LU-008",
      "properties": {
        "id": "LU-008",
        "layer": "LAND_USE",
        "land_use_code": "05",
        "land_use_zh": "混合用地(AI+农业场景测试与展示)",
        "area_category": "scenario_mixed",
        "key_area": null,
        "area_sqm_approx": 1500000,
        "far_max_concept": 2.0,
        "source_type": "agent_generated_design",
        "confidence": "low",
        "geometry_role": "design_proposal"
      },
      "geometry": {
        "type": "Polygon",
        "coordinates": [
          [
            [
              116.349,
              39.94
            ],
            [
              116.349,
              39.9443
            ],
            [
              116.3548,
              39.9443
            ],
            [
              116.3548,
              39.9493
            ],
            [
              116.349,
              39.9493
            ],
            [
              116.349,
              39.96
            ],
            [
              116.349,
              39.9838
            ],
            [
              116.3528,
              39.9838
            ],
            [
              116.3528,
              39.9855
            ],
            [
              116.349,
              39.9855
            ],
            [
              116.349,
              39.986
            ],
            [
              116.3528,
              39.986
            ],
            [
              116.3528,
              39.99
            ],
            [
              116.3533,
              39.99
            ],
            [
              116.3553,
              39.965
            ],
            [
              116.3553,
              39.94
            ],
            [
              116.349,
              39.94
            ]
          ]
        ]
      }
    },
    {
      "type": "Feature",
      "id": "LU-009",
      "properties": {
        "id": "LU-009",
        "layer": "LAND_USE",
        "land_use_code": "00",
        "land_use_zh": "其他用地(空间结构保留区/未细分)",
        "area_category": "reserve_other",
        "key_area": null,
        "area_sqm_approx": 2657459.6,
        "far_max_concept": null,
        "height_max_concept_m": null,
        "source_type": "agent_generated_design",
        "confidence": "low",
        "geometry_role": "design_proposal"
      },
      "geometry": {
        "type": "MultiPolygon",
        "coordinates": [
          [
            [
              [
                116.3553,
                39.939
              ],
              [
                116.3407,
                39.939
              ],
              [
                116.3397,
                39.975
              ],
              [
                116.3417,
                40.006
              ],
              [
                116.3407,
                39.975
              ],
              [
                116.3407,
                39.95
              ],
              [
                116.344,
                39.95
              ],
              [
                116.344,
                39.9838
              ],
              [
                116.3422,
                39.9838
              ],
              [
                116.347819,
                39.9838
              ],
              [
                116.34406,
                39.9838
              ],
              [
                116.3445,
                39.975
              ],
              [
                116.3445,
                39.9493
              ],
              [
                116.3485,
                39.9493
              ],
              [
                116.3485,
                39.975
              ],
              [
                116.34806,
                39.9838
              ],
              [
                116.349,
                39.9838
              ],
              [
                116.349,
                39.96
              ],
              [
                116.349,
                39.9493
              ],
              [
                116.3548,
                39.9493
              ],
              [
                116.3422,
                39.9493
              ],
              [
                116.3422,
                39.9443
              ],
              [
                116.3445,
                39.9443
              ],
              [
                116.3445,
                39.94
              ],
              [
                116.3485,
                39.94
              ],
              [
                116.3485,
                39.9443
              ],
              [
                116.347391,
                39.9443
              ],
              [
                116.349,
                39.9443
              ],
              [
                116.349,
                39.94
              ],
              [
                116.3553,
                39.94
              ],
              [
                116.3553,
                39.965
              ],
              [
                116.3553,
                39.939
              ]
            ]
          ],
          [
            [
              [
                116.3427,
                40.0265
              ],
              [
                116.3553,
                40.0265
              ],
              [
                116.3533,
                39.99
              ],
              [
                116.3528,
                39.99
              ],
              [
                116.3528,
                39.9925
              ],
              [
                116.3422,
                39.9925
              ],
              [
                116.343625,
                39.9925
              ],
              [
                116.347625,
                39.9925
              ],
              [
                116.3475,
                39.995
              ],
              [
                116.34795,
                40.0085
              ],
              [
                116.3538,
                40.0085
              ],
              [
                116.3538,
                40.0135
              ],
              [
                116.348117,
                40.0135
              ],
              [
                116.348133,
                40.014
              ],
              [
                116.346075,
                40.014
              ],
              [
                116.3538,
                40.014
              ],
              [
                116.3538,
                40.0245
              ],
              [
                116.348483,
                40.0245
              ],
              [
                116.3485,
                40.025
              ],
              [
                116.3445,
                40.025
              ],
              [
                116.344483,
                40.0245
              ],
              [
                116.3432,
                40.0245
              ],
              [
                116.3432,
                40.014
              ],
              [
                116.344133,
                40.014
              ],
              [
                116.344117,
                40.0135
              ],
              [
                116.3432,
                40.0135
              ],
              [
                116.3432,
                40.0085
              ],
              [
                116.345443,
                40.0085
              ],
              [
                116.34395,
                40.0085
              ],
              [
                116.3435,
                39.995001
              ],
              [
                116.343,
                40.005
              ],
              [
                116.3417,
                40.006
              ],
              [
                116.3427,
                40.0265
              ]
            ]
          ],
          [
            [
              [
                116.34395,
                39.986
              ],
              [
                116.3528,
                39.986
              ],
              [
                116.349,
                39.986
              ],
              [
                116.349,
                39.9855
              ],
              [
                116.347975,
                39.9855
              ],
              [
                116.34795,
                39.986
              ],
              [
                116.34395,
                39.986
              ],
              [
                116.343975,
                39.9855
              ],
              [
                116.343975,
                39.9855
              ],
              [
                116.34395,
                39.986
              ]
            ]
          ]
        ]
      }
    }
  ]
}